{
"type": "FeatureCollection",
"name": "geo_17_通所介護",
"crs": { "type": "name", "properties": { "name": "urn:ogc:def:crs:OGC:1.3:CRS84" } },
"features": [
{ "type": "Feature", "properties": { "内容": "デイサービスセンターすこやか倶楽部ちかおか【通所介護】金沢市近岡町４２１－１", "url2": "https://www.kaigokensaku.mhlw.go.jp/17/index.php?action_kouhyou_detail_004_kani=true&JigyosyoCd=1770101986-00&ServiceCd=150&Type=search" }, "geometry": { "type": "Point", "coordinates": [ 136.631513400000017, 36.6112849 ] } },
{ "type": "Feature", "properties": { "内容": "ブルーミングケアいろは金澤【通所介護】石川県金沢市薬師堂町ハ102番地", "url2": "https://www.kaigokensaku.mhlw.go.jp/17/index.php?action_kouhyou_detail_004_kani=true&JigyosyoCd=1770107116-00&ServiceCd=150&Type=search" }, "geometry": { "type": "Point", "coordinates": [ 136.6292238, 36.5788786 ] } },
{ "type": "Feature", "properties": { "内容": "デイサービスGGフィットネス安原店【通所介護】石川県金沢市打木東1414番地", "url2": "https://www.kaigokensaku.mhlw.go.jp/17/index.php?action_kouhyou_detail_004_kani=true&JigyosyoCd=1770106241-00&ServiceCd=150&Type=search" }, "geometry": { "type": "Point", "coordinates": [ 136.572181099999966, 36.5664551 ] } },
{ "type": "Feature", "properties": { "内容": "東山フィジオセンター【通所介護】東山3丁目31-19", "url2": "https://www.kaigokensaku.mhlw.go.jp/17/index.php?action_kouhyou_detail_004_kani=true&JigyosyoCd=1770105367-00&ServiceCd=150&Type=search" }, "geometry": { "type": "Point", "coordinates": [ 136.664870699999938, 36.5770151 ] } },
{ "type": "Feature", "properties": { "内容": "金沢市デイサービスセンター湖陽苑【通所介護】八田町東９１２番地", "url2": "https://www.kaigokensaku.mhlw.go.jp/17/index.php?action_kouhyou_detail_004_kani=true&JigyosyoCd=1770100699-00&ServiceCd=150&Type=search" }, "geometry": { "type": "Point", "coordinates": [ 136.687955699999947, 36.628375 ] } },
{ "type": "Feature", "properties": { "内容": "デイサービスKANAZAWAPACE【通所介護】御供田町ホ47番地", "url2": "https://www.kaigokensaku.mhlw.go.jp/17/index.php?action_kouhyou_detail_004_kani=true&JigyosyoCd=1770106613-00&ServiceCd=150&Type=search" }, "geometry": { "type": "Point", "coordinates": [ 136.6257551, 36.6080322 ] } },
{ "type": "Feature", "properties": { "内容": "デイサービスＧＧふぃっとねす金沢桂町店【通所介護】石川県金沢市桂町イ43番地１", "url2": "https://www.kaigokensaku.mhlw.go.jp/17/index.php?action_kouhyou_detail_004_kani=true&JigyosyoCd=1770105730-00&ServiceCd=150&Type=search" }, "geometry": { "type": "Point", "coordinates": [ 136.606865500000026, 36.603566100000016 ] } },
{ "type": "Feature", "properties": { "内容": "ほっとスパ泉野【通所介護】金沢市泉野町６－１７－３５泉野リブライフ101号", "url2": "https://www.kaigokensaku.mhlw.go.jp/17/index.php?action_kouhyou_detail_004_kani=true&JigyosyoCd=1770103669-00&ServiceCd=150&Type=search" }, "geometry": { "type": "Point", "coordinates": [ 136.649006200000031, 36.542272 ] } },
{ "type": "Feature", "properties": { "内容": "プラトーケアセンター西念【通所介護】石川県金沢市西念1-4-11三翠ビル1階", "url2": "https://www.kaigokensaku.mhlw.go.jp/17/index.php?action_kouhyou_detail_004_kani=true&JigyosyoCd=1770106993-00&ServiceCd=150&Type=search" }, "geometry": { "type": "Point", "coordinates": [ 136.6425291, 36.5841787 ] } },
{ "type": "Feature", "properties": { "内容": "金沢フィジオセンター【通所介護】金沢市駅西本町2丁目1番20号", "url2": "https://www.kaigokensaku.mhlw.go.jp/17/index.php?action_kouhyou_detail_004_kani=true&JigyosyoCd=1770104543-00&ServiceCd=150&Type=search" }, "geometry": { "type": "Point", "coordinates": [ 136.63531409999996, 36.5805141 ] } },
{ "type": "Feature", "properties": { "内容": "株式会社ＫＳＨ【通所介護】四十万町リ２０２", "url2": "https://www.kaigokensaku.mhlw.go.jp/17/index.php?action_kouhyou_detail_004_kani=true&JigyosyoCd=1770102307-00&ServiceCd=150&Type=search" }, "geometry": { "type": "Point", "coordinates": [ 136.623294900000019, 36.5019011 ] } },
{ "type": "Feature", "properties": { "内容": "デイサービス　オールウェイ　東山店【通所介護】東山3丁目29番16号", "url2": "https://www.kaigokensaku.mhlw.go.jp/17/index.php?action_kouhyou_detail_004_kani=true&JigyosyoCd=1770103248-00&ServiceCd=150&Type=search" }, "geometry": { "type": "Point", "coordinates": [ 136.663434700000039, 36.5767929 ] } },
{ "type": "Feature", "properties": { "内容": "デイサービスセンターほのか【通所介護】金沢市南四十万1-222", "url2": "https://www.kaigokensaku.mhlw.go.jp/17/index.php?action_kouhyou_detail_004_kani=true&JigyosyoCd=1770104469-00&ServiceCd=150&Type=search" }, "geometry": { "type": "Point", "coordinates": [ 136.618792800000023, 36.4974149 ] } },
{ "type": "Feature", "properties": { "内容": "デイサービスオールウェイ梅ちゃんの湯【通所介護】長土塀２丁目11番17号", "url2": "https://www.kaigokensaku.mhlw.go.jp/17/index.php?action_kouhyou_detail_004_kani=true&JigyosyoCd=1770105201-00&ServiceCd=150&Type=search" }, "geometry": { "type": "Point", "coordinates": [ 136.6429362, 36.5690491 ] } },
{ "type": "Feature", "properties": { "内容": "デイサービスセンターひきだ【通所介護】石川県金沢市疋田3丁目58番地", "url2": "https://www.kaigokensaku.mhlw.go.jp/17/index.php?action_kouhyou_detail_004_kani=true&JigyosyoCd=1770106068-00&ServiceCd=150&Type=search" }, "geometry": { "type": "Point", "coordinates": [ 136.67308, 36.6040337 ] } },
{ "type": "Feature", "properties": { "内容": "サンケア赤土【通所介護】金沢市赤土町カ1-24", "url2": "https://www.kaigokensaku.mhlw.go.jp/17/index.php?action_kouhyou_detail_004_kani=true&JigyosyoCd=1770104246-00&ServiceCd=150&Type=search" }, "geometry": { "type": "Point", "coordinates": [ 136.583710099999962, 36.5897676 ] } },
{ "type": "Feature", "properties": { "内容": "デイサービスみどりサロン【通所介護】石川県金沢市上安原町934北陸綜合防災センタービル1階", "url2": "https://www.kaigokensaku.mhlw.go.jp/17/index.php?action_kouhyou_detail_004_kani=true&JigyosyoCd=1770106035-00&ServiceCd=150&Type=search" }, "geometry": { "type": "Point", "coordinates": [ 136.586127900000065, 36.5637851 ] } },
{ "type": "Feature", "properties": { "内容": "通所介護ピカソⅡ【通所介護】石川県金沢市田上本町カ４５番地１", "url2": "https://www.kaigokensaku.mhlw.go.jp/17/index.php?action_kouhyou_detail_004_kani=true&JigyosyoCd=1750180299-00&ServiceCd=150&Type=search" }, "geometry": { "type": "Point", "coordinates": [ 136.701269, 36.5294132 ] } },
{ "type": "Feature", "properties": { "内容": "ニチイケアセンターかないわ【通所介護】石川県金沢市金石本町ロ３１－１", "url2": "https://www.kaigokensaku.mhlw.go.jp/17/index.php?action_kouhyou_detail_004_kani=true&JigyosyoCd=1770101044-00&ServiceCd=150&Type=search" }, "geometry": { "type": "Point", "coordinates": [ 136.596619871163966, 36.598025914933231 ] } },
{ "type": "Feature", "properties": { "内容": "デイサービス　オールウェイ　金沢中央店【通所介護】増泉4丁目4番25号エクセル増泉1F", "url2": "https://www.kaigokensaku.mhlw.go.jp/17/index.php?action_kouhyou_detail_004_kani=true&JigyosyoCd=1770102430-00&ServiceCd=150&Type=search" }, "geometry": { "type": "Point", "coordinates": [ 136.63527339999996, 36.5565865 ] } },
{ "type": "Feature", "properties": { "内容": "プラトーケアセンターシルバーフィットネス二口店【通所介護】金沢市二口町ハ２８番地１", "url2": "https://www.kaigokensaku.mhlw.go.jp/17/index.php?action_kouhyou_detail_004_kani=true&JigyosyoCd=1770102802-00&ServiceCd=150&Type=search" }, "geometry": { "type": "Point", "coordinates": [ 136.634511500000031, 36.577403400000016 ] } },
{ "type": "Feature", "properties": { "内容": "ニチイケアセンター不動寺【通所介護】石川県金沢市堅田町丙４８－１", "url2": "https://www.kaigokensaku.mhlw.go.jp/17/index.php?action_kouhyou_detail_004_kani=true&JigyosyoCd=1770101051-00&ServiceCd=150&Type=search" }, "geometry": { "type": "Point", "coordinates": [ 136.703377100000012, 36.6092505 ] } },
{ "type": "Feature", "properties": { "内容": "デイサービスセンターひまり【通所介護】額新保2－200", "url2": "https://www.kaigokensaku.mhlw.go.jp/17/index.php?action_kouhyou_detail_004_kani=true&JigyosyoCd=1770106308-00&ServiceCd=150&Type=search" }, "geometry": { "type": "Point", "coordinates": [ 136.61539239270067, 36.519384458676114 ] } },
{ "type": "Feature", "properties": { "内容": "デイサービス２１【通所介護】石川県金沢市山科町午４０番地１", "url2": "https://www.kaigokensaku.mhlw.go.jp/17/index.php?action_kouhyou_detail_004_kani=true&JigyosyoCd=1770101960-00&ServiceCd=150&Type=search" }, "geometry": { "type": "Point", "coordinates": [ 136.65257280000003, 36.5271156 ] } },
{ "type": "Feature", "properties": { "内容": "デイサービスセンター春日和　松村【通所介護】金沢市松村町ヌ16", "url2": "https://www.kaigokensaku.mhlw.go.jp/17/index.php?action_kouhyou_detail_004_kani=true&JigyosyoCd=1770104923-00&ServiceCd=150&Type=search" }, "geometry": { "type": "Point", "coordinates": [ 136.61487360000001, 36.5908569 ] } },
{ "type": "Feature", "properties": { "内容": "社会福祉法人　北伸福祉会　第二金沢朱鷺の苑デイサービスセンター【通所介護】石川県金沢市上辰巳町10-211-1", "url2": "https://www.kaigokensaku.mhlw.go.jp/17/index.php?action_kouhyou_detail_004_kani=true&JigyosyoCd=1770100236-00&ServiceCd=150&Type=search" }, "geometry": { "type": "Point", "coordinates": [ 136.702669799999967, 36.5154265 ] } },
{ "type": "Feature", "properties": { "内容": "デイサービスココファン金沢鞍月【通所介護】石川県金沢市鞍月5-219ココファン金沢鞍月", "url2": "https://www.kaigokensaku.mhlw.go.jp/17/index.php?action_kouhyou_detail_004_kani=true&JigyosyoCd=1770107124-00&ServiceCd=150&Type=search" }, "geometry": { "type": "Point", "coordinates": [ 136.6263654, 36.5982186 ] } },
{ "type": "Feature", "properties": { "内容": "彦三きらく園デイサービスセンター【通所介護】金沢市彦三町１丁目８番８号", "url2": "https://www.kaigokensaku.mhlw.go.jp/17/index.php?action_kouhyou_detail_004_kani=true&JigyosyoCd=1770100772-00&ServiceCd=150&Type=search" }, "geometry": { "type": "Point", "coordinates": [ 136.6613016, 36.5730989 ] } },
{ "type": "Feature", "properties": { "内容": "金沢りんくケアセンター額新保【通所介護】額新保１丁目１８０", "url2": "https://www.kaigokensaku.mhlw.go.jp/17/index.php?action_kouhyou_detail_004_kani=true&JigyosyoCd=1770103321-00&ServiceCd=150&Type=search" }, "geometry": { "type": "Point", "coordinates": [ 136.623625400000037, 36.5134719 ] } },
{ "type": "Feature", "properties": { "内容": "プラトーケアセンター金沢中央増泉店【通所介護】金沢市増泉２丁目１５番８号", "url2": "https://www.kaigokensaku.mhlw.go.jp/17/index.php?action_kouhyou_detail_004_kani=true&JigyosyoCd=1770103685-00&ServiceCd=150&Type=search" }, "geometry": { "type": "Point", "coordinates": [ 136.63860360000001, 36.5591613 ] } },
{ "type": "Feature", "properties": { "内容": "デイサービスあおぞら【通所介護】石川県金沢市四十万北ヲ２１番地1住宅型有料老人ホームあおぞら", "url2": "https://www.kaigokensaku.mhlw.go.jp/17/index.php?action_kouhyou_detail_004_kani=true&JigyosyoCd=1770106092-00&ServiceCd=150&Type=search" }, "geometry": { "type": "Point", "coordinates": [ 136.624643355294808, 36.504004484906702 ] } },
{ "type": "Feature", "properties": { "内容": "プラトーケアセンター涌波本店【通所介護】金沢市涌波３丁目５番３３号ミナミコーポ１階", "url2": "https://www.kaigokensaku.mhlw.go.jp/17/index.php?action_kouhyou_detail_004_kani=true&JigyosyoCd=1770101010-00&ServiceCd=150&Type=search" }, "geometry": { "type": "Point", "coordinates": [ 136.683848600000033, 36.5362312 ] } },
{ "type": "Feature", "properties": { "内容": "デイサービスゆとりの園西金沢【通所介護】石川県金沢市米泉町7丁目59番地", "url2": "https://www.kaigokensaku.mhlw.go.jp/17/index.php?action_kouhyou_detail_004_kani=true&JigyosyoCd=1770105664-00&ServiceCd=150&Type=search" }, "geometry": { "type": "Point", "coordinates": [ 136.62349949999998, 36.5520173 ] } },
{ "type": "Feature", "properties": { "内容": "デイサービスだんけ【通所介護】金沢市入江２－８３－１", "url2": "https://www.kaigokensaku.mhlw.go.jp/17/index.php?action_kouhyou_detail_004_kani=true&JigyosyoCd=1770102232-00&ServiceCd=150&Type=search" }, "geometry": { "type": "Point", "coordinates": [ 136.624143099999969, 36.56631 ] } },
{ "type": "Feature", "properties": { "内容": "デイサービスセンターれんげの郷【通所介護】石川県金沢市小立野３丁目２４番１３号", "url2": "https://www.kaigokensaku.mhlw.go.jp/17/index.php?action_kouhyou_detail_004_kani=true&JigyosyoCd=1770105714-00&ServiceCd=150&Type=search" }, "geometry": { "type": "Point", "coordinates": [ 136.677373380356585, 36.548913728035473 ] } },
{ "type": "Feature", "properties": { "内容": "サンケア戸板【通所介護】石川県金沢市戸板１丁目26番池サンケア戸板", "url2": "https://www.kaigokensaku.mhlw.go.jp/17/index.php?action_kouhyou_detail_004_kani=true&JigyosyoCd=1770106191-00&ServiceCd=150&Type=search" }, "geometry": { "type": "Point", "coordinates": [ 136.6247512, 36.5791138 ] } },
{ "type": "Feature", "properties": { "内容": "デイサービスセンター春日和　神宮寺【通所介護】石川県金沢市神宮寺3丁目12-3", "url2": "https://www.kaigokensaku.mhlw.go.jp/17/index.php?action_kouhyou_detail_004_kani=true&JigyosyoCd=1770104428-00&ServiceCd=150&Type=search" }, "geometry": { "type": "Point", "coordinates": [ 136.666953499999948, 36.5863527 ] } },
{ "type": "Feature", "properties": { "内容": "やすはら苑【通所介護】金沢市下安原町東1458番地1", "url2": "https://www.kaigokensaku.mhlw.go.jp/17/index.php?action_kouhyou_detail_004_kani=true&JigyosyoCd=1770103131-00&ServiceCd=150&Type=search" }, "geometry": { "type": "Point", "coordinates": [ 136.575781300000017, 36.5730751 ] } },
{ "type": "Feature", "properties": { "内容": "デイサービス　太陽のひだまり窪【通所介護】金沢市窪２丁目１１－２", "url2": "https://www.kaigokensaku.mhlw.go.jp/17/index.php?action_kouhyou_detail_004_kani=true&JigyosyoCd=1770102745-00&ServiceCd=150&Type=search" }, "geometry": { "type": "Point", "coordinates": [ 136.644704100000013, 36.526496 ] } },
{ "type": "Feature", "properties": { "内容": "プラトー幸町アンドトレーニングセンター【通所介護】金沢市幸町３番１５号吉村ビル１階", "url2": "https://www.kaigokensaku.mhlw.go.jp/17/index.php?action_kouhyou_detail_004_kani=true&JigyosyoCd=1770101325-00&ServiceCd=150&Type=search" }, "geometry": { "type": "Point", "coordinates": [ 136.659353078573645, 36.554774676178738 ] } },
{ "type": "Feature", "properties": { "内容": "第四善隣館デイサービスセンターさくら苑【通所介護】金沢市泉野町1丁目1番25号", "url2": "https://www.kaigokensaku.mhlw.go.jp/17/index.php?action_kouhyou_detail_004_kani=true&JigyosyoCd=1770100178-00&ServiceCd=150&Type=search" }, "geometry": { "type": "Point", "coordinates": [ 136.655361099999936, 36.5474743 ] } },
{ "type": "Feature", "properties": { "内容": "金沢りんくケアセンター　泉野【通所介護】泉野4丁目18-14", "url2": "https://www.kaigokensaku.mhlw.go.jp/17/index.php?action_kouhyou_detail_004_kani=true&JigyosyoCd=1770102265-00&ServiceCd=150&Type=search" }, "geometry": { "type": "Point", "coordinates": [ 136.650358628636127, 36.544157457186408 ] } },
{ "type": "Feature", "properties": { "内容": "itosieデイサービス【通所介護】石川県金沢市問屋町1丁目37番地itosieデイサービス", "url2": "https://www.kaigokensaku.mhlw.go.jp/17/index.php?action_kouhyou_detail_004_kani=true&JigyosyoCd=1770103396-00&ServiceCd=150&Type=search" }, "geometry": { "type": "Point", "coordinates": [ 136.6347998, 36.6067237 ] } },
{ "type": "Feature", "properties": { "内容": "ニチイケアセンターもろえ【通所介護】金沢市三口町火37", "url2": "https://www.kaigokensaku.mhlw.go.jp/17/index.php?action_kouhyou_detail_004_kani=true&JigyosyoCd=1770104618-00&ServiceCd=150&Type=search" }, "geometry": { "type": "Point", "coordinates": [ 136.642068399999971, 36.6082937 ] } },
{ "type": "Feature", "properties": { "内容": "デイサービス　ゆうけあ相河【通所介護】西泉6丁目136番地", "url2": "https://www.kaigokensaku.mhlw.go.jp/17/index.php?action_kouhyou_detail_004_kani=true&JigyosyoCd=1770103727-00&ServiceCd=150&Type=search" }, "geometry": { "type": "Point", "coordinates": [ 136.628329600000029, 36.5537339 ] } },
{ "type": "Feature", "properties": { "内容": "金沢りんくケアセンター【通所介護】金沢市額谷１丁目８１番地", "url2": "https://www.kaigokensaku.mhlw.go.jp/17/index.php?action_kouhyou_detail_004_kani=true&JigyosyoCd=1770104196-00&ServiceCd=150&Type=search" }, "geometry": { "type": "Point", "coordinates": [ 136.628273929638681, 36.510403715973446 ] } },
{ "type": "Feature", "properties": { "内容": "デイサービス　朗　粟崎【通所介護】石川県金沢市粟崎町2丁目414番地", "url2": "https://www.kaigokensaku.mhlw.go.jp/17/index.php?action_kouhyou_detail_004_kani=true&JigyosyoCd=1770100582-00&ServiceCd=150&Type=search" }, "geometry": { "type": "Point", "coordinates": [ 136.628060399999981, 36.6268521 ] } },
{ "type": "Feature", "properties": { "内容": "金沢りんくケアセンター南店【通所介護】金沢市伏見台１丁目１４－２６", "url2": "https://www.kaigokensaku.mhlw.go.jp/17/index.php?action_kouhyou_detail_004_kani=true&JigyosyoCd=1770101663-00&ServiceCd=150&Type=search" }, "geometry": { "type": "Point", "coordinates": [ 136.6392684, 36.5337588 ] } },
{ "type": "Feature", "properties": { "内容": "陽風園デイサービスセンター【通所介護】金沢市三口新町1丁目8番1号", "url2": "https://www.kaigokensaku.mhlw.go.jp/17/index.php?action_kouhyou_detail_004_kani=true&JigyosyoCd=1770100145-00&ServiceCd=150&Type=search" }, "geometry": { "type": "Point", "coordinates": [ 136.683384599999954, 36.5398058 ] } },
{ "type": "Feature", "properties": { "内容": "デイサービスココファン湯癒館・問屋町【通所介護】石川県金沢市問屋町1-38-1デイサービスココファン湯癒館・問屋町", "url2": "https://www.kaigokensaku.mhlw.go.jp/17/index.php?action_kouhyou_detail_004_kani=true&JigyosyoCd=1770105995-00&ServiceCd=150&Type=search" }, "geometry": { "type": "Point", "coordinates": [ 136.635136200000034, 36.6067594 ] } },
{ "type": "Feature", "properties": { "内容": "デイサービスセンター朱鷺の苑幸町【通所介護】金沢市幸町3番35号", "url2": "https://www.kaigokensaku.mhlw.go.jp/17/index.php?action_kouhyou_detail_004_kani=true&JigyosyoCd=1770103487-00&ServiceCd=150&Type=search" }, "geometry": { "type": "Point", "coordinates": [ 136.65865050978698, 36.555087500712638 ] } },
{ "type": "Feature", "properties": { "内容": "金沢西彩庵デイサービス【通所介護】石川県金沢市金石東1丁目4番11号", "url2": "https://www.kaigokensaku.mhlw.go.jp/17/index.php?action_kouhyou_detail_004_kani=true&JigyosyoCd=1770106076-00&ServiceCd=150&Type=search" }, "geometry": { "type": "Point", "coordinates": [ 136.597298340497218, 36.599672685576259 ] } },
{ "type": "Feature", "properties": { "内容": "悠悠泉本町デイサービス【通所介護】泉本町４丁目２０番地１", "url2": "https://www.kaigokensaku.mhlw.go.jp/17/index.php?action_kouhyou_detail_004_kani=true&JigyosyoCd=1770106472-00&ServiceCd=150&Type=search" }, "geometry": { "type": "Point", "coordinates": [ 136.6388648, 36.5510224 ] } },
{ "type": "Feature", "properties": { "内容": "社会福祉法人　北伸福祉会　デイサービスセンター朱鷺の苑松寺【通所介護】石川県金沢市松寺町寅57番2", "url2": "https://www.kaigokensaku.mhlw.go.jp/17/index.php?action_kouhyou_detail_004_kani=true&JigyosyoCd=1770104279-00&ServiceCd=150&Type=search" }, "geometry": { "type": "Point", "coordinates": [ 136.651095700000042, 36.6078411 ] } },
{ "type": "Feature", "properties": { "内容": "吉原温泉デイサービスセンター魁【通所介護】金沢市弥勒町イ１１－１", "url2": "https://www.kaigokensaku.mhlw.go.jp/17/index.php?action_kouhyou_detail_004_kani=true&JigyosyoCd=1770102489-00&ServiceCd=150&Type=search" }, "geometry": { "type": "Point", "coordinates": [ 136.688697899999966, 36.6110692 ] } },
{ "type": "Feature", "properties": { "内容": "社会福祉法人　北伸福祉会　中央金沢朱鷺の苑　　デイサービスセンター【通所介護】石川県金沢市広岡2丁目1番7号", "url2": "https://www.kaigokensaku.mhlw.go.jp/17/index.php?action_kouhyou_detail_004_kani=true&JigyosyoCd=1770104451-00&ServiceCd=150&Type=search" }, "geometry": { "type": "Point", "coordinates": [ 136.643785900000012, 36.5769342 ] } },
{ "type": "Feature", "properties": { "内容": "デイサービスセンターかいてき【通所介護】金沢市間明１丁目１４２ー１", "url2": "https://www.kaigokensaku.mhlw.go.jp/17/index.php?action_kouhyou_detail_004_kani=true&JigyosyoCd=1770103545-00&ServiceCd=150&Type=search" }, "geometry": { "type": "Point", "coordinates": [ 136.618382399999973, 36.5672071 ] } },
{ "type": "Feature", "properties": { "内容": "デイサービスセンター金沢の里【通所介護】石川県金沢市大額3丁目160住宅型有料老人ホーム金沢の里", "url2": "https://www.kaigokensaku.mhlw.go.jp/17/index.php?action_kouhyou_detail_004_kani=true&JigyosyoCd=1770106431-00&ServiceCd=150&Type=search" }, "geometry": { "type": "Point", "coordinates": [ 136.624740100000054, 36.5140331 ] } },
{ "type": "Feature", "properties": { "内容": "デイサービス　あおぞらハウス【通所介護】石川県金沢市三馬1丁目381", "url2": "https://www.kaigokensaku.mhlw.go.jp/17/index.php?action_kouhyou_detail_004_kani=true&JigyosyoCd=1770105425-00&ServiceCd=150&Type=search" }, "geometry": { "type": "Point", "coordinates": [ 136.629266599999937, 36.5256567 ] } },
{ "type": "Feature", "properties": { "内容": "プラトーケアセンター大桑店【通所介護】920-0947石川県金沢市笠舞本町2丁目5番２号", "url2": "https://www.kaigokensaku.mhlw.go.jp/17/index.php?action_kouhyou_detail_004_kani=true&JigyosyoCd=1770104022-00&ServiceCd=150&Type=search" }, "geometry": { "type": "Point", "coordinates": [ 136.671495193581734, 36.547614303425931 ] } },
{ "type": "Feature", "properties": { "内容": "デイサービスセンターぽ～れぽ～れ四十万【通所介護】石川県金沢市四十万５丁目１２２番地", "url2": "https://www.kaigokensaku.mhlw.go.jp/17/index.php?action_kouhyou_detail_004_kani=true&JigyosyoCd=1770103990-00&ServiceCd=150&Type=search" }, "geometry": { "type": "Point", "coordinates": [ 136.615981599999941, 36.5052839 ] } },
{ "type": "Feature", "properties": { "内容": "ニチイケアセンター笠舞【通所介護】石川県金沢市笠舞本町１－４－５", "url2": "https://www.kaigokensaku.mhlw.go.jp/17/index.php?action_kouhyou_detail_004_kani=true&JigyosyoCd=1770101234-00&ServiceCd=150&Type=search" }, "geometry": { "type": "Point", "coordinates": [ 136.675071300000013, 36.545393300000015 ] } },
{ "type": "Feature", "properties": { "内容": "金沢北安江ケアセンターそよ風【通所介護】金沢市北安江1-10-6", "url2": "https://www.kaigokensaku.mhlw.go.jp/17/index.php?action_kouhyou_detail_004_kani=true&JigyosyoCd=1770107025-00&ServiceCd=150&Type=search" }, "geometry": { "type": "Point", "coordinates": [ 136.651262800000012, 36.5832905 ] } },
{ "type": "Feature", "properties": { "内容": "ニチイケアセンター大額【通所介護】金沢市大額3丁目213番地", "url2": "https://www.kaigokensaku.mhlw.go.jp/17/index.php?action_kouhyou_detail_004_kani=true&JigyosyoCd=1770100863-00&ServiceCd=150&Type=search" }, "geometry": { "type": "Point", "coordinates": [ 136.622906, 36.5122331 ] } },
{ "type": "Feature", "properties": { "内容": "デイサービスすまいる内川【通所介護】三小牛町24-3-3", "url2": "https://www.kaigokensaku.mhlw.go.jp/17/index.php?action_kouhyou_detail_004_kani=true&JigyosyoCd=1770106944-00&ServiceCd=150&Type=search" }, "geometry": { "type": "Point", "coordinates": [ 136.673596050881827, 36.503356046983171 ] } },
{ "type": "Feature", "properties": { "内容": "社会福祉法人　北伸福祉会　金沢朱鷺の苑デイサービスセンター【通所介護】金沢市岸川町ほ５番地", "url2": "https://www.kaigokensaku.mhlw.go.jp/17/index.php?action_kouhyou_detail_004_kani=true&JigyosyoCd=1770100244-00&ServiceCd=150&Type=search" }, "geometry": { "type": "Point", "coordinates": [ 136.711450499999955, 36.6400462 ] } },
{ "type": "Feature", "properties": { "内容": "デイサービスセンター　めぐみ【通所介護】金沢市高尾台2丁目240番地", "url2": "https://www.kaigokensaku.mhlw.go.jp/17/index.php?action_kouhyou_detail_004_kani=true&JigyosyoCd=1770102661-00&ServiceCd=150&Type=search" }, "geometry": { "type": "Point", "coordinates": [ 136.632271800000012, 36.5235626 ] } },
{ "type": "Feature", "properties": { "内容": "金沢東コンディショニングセンター【通所介護】石川県金沢市木越町チ105-1", "url2": "https://www.kaigokensaku.mhlw.go.jp/17/index.php?action_kouhyou_detail_004_kani=true&JigyosyoCd=1770107058-00&ServiceCd=150&Type=search" }, "geometry": { "type": "Point", "coordinates": [ 136.662858, 36.621967 ] } },
{ "type": "Feature", "properties": { "内容": "陽風園木越デイサービスセンター【通所介護】石川県金沢市木越町チ６０番地１陽風園木越デイサービスセンター", "url2": "https://www.kaigokensaku.mhlw.go.jp/17/index.php?action_kouhyou_detail_004_kani=true&JigyosyoCd=1770102109-00&ServiceCd=150&Type=search" }, "geometry": { "type": "Point", "coordinates": [ 136.663685900000019, 36.6218923 ] } },
{ "type": "Feature", "properties": { "内容": "デイサービスセンター朱鷺の苑円光寺【通所介護】金沢市円光寺3丁目1番7号", "url2": "https://www.kaigokensaku.mhlw.go.jp/17/index.php?action_kouhyou_detail_004_kani=true&JigyosyoCd=1770103065-00&ServiceCd=150&Type=search" }, "geometry": { "type": "Point", "coordinates": [ 136.646973300000013, 36.5340868 ] } },
{ "type": "Feature", "properties": { "内容": "デイサービスさくらセンター【通所介護】石川県金沢市湊2丁目171番地", "url2": "https://www.kaigokensaku.mhlw.go.jp/17/index.php?action_kouhyou_detail_004_kani=true&JigyosyoCd=1770100285-00&ServiceCd=150&Type=search" }, "geometry": { "type": "Point", "coordinates": [ 136.65200870000001, 36.6355738 ] } },
{ "type": "Feature", "properties": { "内容": "駅西デイサービス金沢健康企画【通所介護】西念4丁目19-43", "url2": "https://www.kaigokensaku.mhlw.go.jp/17/index.php?action_kouhyou_detail_004_kani=true&JigyosyoCd=1770103784-00&ServiceCd=150&Type=search" }, "geometry": { "type": "Point", "coordinates": [ 136.633916699999986, 36.5879214 ] } },
{ "type": "Feature", "properties": { "内容": "ツクイ金沢東営業所【通所介護】石川県金沢市駅西本町4丁目2番10号", "url2": "https://www.kaigokensaku.mhlw.go.jp/17/index.php?action_kouhyou_detail_004_kani=true&JigyosyoCd=1770106761-00&ServiceCd=150&Type=search" }, "geometry": { "type": "Point", "coordinates": [ 136.632728, 36.5836969 ] } },
{ "type": "Feature", "properties": { "内容": "ﾌﾟﾗﾄｰｹｱｾﾝﾀｰ金沢西【通所介護】石川県金沢市畝田西2-17", "url2": "https://www.kaigokensaku.mhlw.go.jp/17/index.php?action_kouhyou_detail_004_kani=true&JigyosyoCd=1770101655-00&ServiceCd=150&Type=search" }, "geometry": { "type": "Point", "coordinates": [ 136.607799200000045, 36.5940924 ] } },
{ "type": "Feature", "properties": { "内容": "社会福祉法人北伸福祉会デイサービスセンター朱鷺の苑二塚【通所介護】金沢市北塚町西475番地デイサービスセンター朱鷺の苑二塚", "url2": "https://www.kaigokensaku.mhlw.go.jp/17/index.php?action_kouhyou_detail_004_kani=true&JigyosyoCd=1770103032-00&ServiceCd=150&Type=search" }, "geometry": { "type": "Point", "coordinates": [ 136.594454600000063, 36.5695596 ] } },
{ "type": "Feature", "properties": { "内容": "デイサービスセンター　やすらぎ【通所介護】金沢市上荒屋1-39", "url2": "https://www.kaigokensaku.mhlw.go.jp/17/index.php?action_kouhyou_detail_004_kani=true&JigyosyoCd=1770100186-00&ServiceCd=150&Type=search" }, "geometry": { "type": "Point", "coordinates": [ 136.593050100000028, 36.5456846 ] } },
{ "type": "Feature", "properties": { "内容": "デイサービスセンターロマン【通所介護】石川県金沢市荒屋１丁目３２番地住宅型有料老人ホームロマン", "url2": "https://www.kaigokensaku.mhlw.go.jp/17/index.php?action_kouhyou_detail_004_kani=true&JigyosyoCd=1770105045-00&ServiceCd=150&Type=search" }, "geometry": { "type": "Point", "coordinates": [ 136.683521344180235, 36.614823952397686 ] } },
{ "type": "Feature", "properties": { "内容": "うめばちすずみ【通所介護】金沢市鈴見台2丁目10番13号", "url2": "https://www.kaigokensaku.mhlw.go.jp/17/index.php?action_kouhyou_detail_004_kani=true&JigyosyoCd=1770103529-00&ServiceCd=150&Type=search" }, "geometry": { "type": "Point", "coordinates": [ 136.683786700000041, 36.5628641 ] } },
{ "type": "Feature", "properties": { "内容": "金沢西コンディショニングセンター【通所介護】金沢市寺中町イ20番地3", "url2": "https://www.kaigokensaku.mhlw.go.jp/17/index.php?action_kouhyou_detail_004_kani=true&JigyosyoCd=1770103412-00&ServiceCd=150&Type=search" }, "geometry": { "type": "Point", "coordinates": [ 136.604002300000047, 36.5953477 ] } },
{ "type": "Feature", "properties": { "内容": "ツクイ金沢【通所介護】八日市5-460", "url2": "https://www.kaigokensaku.mhlw.go.jp/17/index.php?action_kouhyou_detail_004_kani=true&JigyosyoCd=1770106753-00&ServiceCd=150&Type=search" }, "geometry": { "type": "Point", "coordinates": [ 136.6104288, 36.5503303 ] } },
{ "type": "Feature", "properties": { "内容": "デイサービスセンター医王山【通所介護】金沢市田上さくら１丁目３６番地住宅型有料老人ホーム医王山", "url2": "https://www.kaigokensaku.mhlw.go.jp/17/index.php?action_kouhyou_detail_004_kani=true&JigyosyoCd=1770103115-00&ServiceCd=150&Type=search" }, "geometry": { "type": "Point", "coordinates": [ 136.691366499999987, 36.540741900000029 ] } },
{ "type": "Feature", "properties": { "内容": "うめばちいりえ【通所介護】石川県金沢市入江２丁目３０６番地６", "url2": "https://www.kaigokensaku.mhlw.go.jp/17/index.php?action_kouhyou_detail_004_kani=true&JigyosyoCd=1770105722-00&ServiceCd=150&Type=search" }, "geometry": { "type": "Point", "coordinates": [ 136.626815099999931, 36.5670683 ] } },
{ "type": "Feature", "properties": { "内容": "金沢南コンディショニングセンター【通所介護】八日市3丁目567番地", "url2": "https://www.kaigokensaku.mhlw.go.jp/17/index.php?action_kouhyou_detail_004_kani=true&JigyosyoCd=1770104550-00&ServiceCd=150&Type=search" }, "geometry": { "type": "Point", "coordinates": [ 136.604301599999985, 36.5475761 ] } },
{ "type": "Feature", "properties": { "内容": "くらつきデイサービス　スマイルアクア館【通所介護】南新保町ヌ204", "url2": "https://www.kaigokensaku.mhlw.go.jp/17/index.php?action_kouhyou_detail_004_kani=true&JigyosyoCd=1770103024-00&ServiceCd=150&Type=search" }, "geometry": { "type": "Point", "coordinates": [ 136.628952900000058, 36.5974535 ] } },
{ "type": "Feature", "properties": { "内容": "社会福祉法人　北伸福祉会　ﾃﾞｲｻｰﾋﾞｽｾﾝﾀｰ朱鷺の苑彦三【通所介護】金沢市彦三町1丁目3番1号", "url2": "https://www.kaigokensaku.mhlw.go.jp/17/index.php?action_kouhyou_detail_004_kani=true&JigyosyoCd=1770103859-00&ServiceCd=150&Type=search" }, "geometry": { "type": "Point", "coordinates": [ 136.6580351, 36.5738821 ] } },
{ "type": "Feature", "properties": { "内容": "ことほぎ高柳デイサービス【通所介護】石川県金沢市高柳町ニ37", "url2": "https://www.kaigokensaku.mhlw.go.jp/17/index.php?action_kouhyou_detail_004_kani=true&JigyosyoCd=1770103966-00&ServiceCd=150&Type=search" }, "geometry": { "type": "Point", "coordinates": [ 136.66216503610687, 36.59285381181332 ] } },
{ "type": "Feature", "properties": { "内容": "清泉デイサービスセンター【通所介護】金沢市泉本町１丁目１０７番地１号", "url2": "https://www.kaigokensaku.mhlw.go.jp/17/index.php?action_kouhyou_detail_004_kani=true&JigyosyoCd=1770102323-00&ServiceCd=150&Type=search" }, "geometry": { "type": "Point", "coordinates": [ 136.636526600000025, 36.5462184 ] } },
{ "type": "Feature", "properties": { "内容": "うめばちたがみデイサービス【通所介護】金沢市田上本町3丁目125番地2", "url2": "https://www.kaigokensaku.mhlw.go.jp/17/index.php?action_kouhyou_detail_004_kani=true&JigyosyoCd=1770102448-00&ServiceCd=150&Type=search" }, "geometry": { "type": "Point", "coordinates": [ 136.69550849999996, 36.5392783 ] } },
{ "type": "Feature", "properties": { "内容": "ちきちき【通所介護】石川県金沢市横川５丁目４４１番地", "url2": "https://www.kaigokensaku.mhlw.go.jp/17/index.php?action_kouhyou_detail_004_kani=true&JigyosyoCd=1770107512-00&ServiceCd=150&Type=search" }, "geometry": { "type": "Point", "coordinates": [ 136.6289399, 36.5418056 ] } },
{ "type": "Feature", "properties": { "内容": "リハビリデイサービスまごころ倶楽部【通所介護】金沢市横川3丁目43番地", "url2": "https://www.kaigokensaku.mhlw.go.jp/17/index.php?action_kouhyou_detail_004_kani=true&JigyosyoCd=1770102117-00&ServiceCd=150&Type=search" }, "geometry": { "type": "Point", "coordinates": [ 136.627419282209047, 36.53793182363372 ] } },
{ "type": "Feature", "properties": { "内容": "デイサービスセンター有松【通所介護】石川県金沢市有松２－４－３２", "url2": "https://www.kaigokensaku.mhlw.go.jp/17/index.php?action_kouhyou_detail_004_kani=true&JigyosyoCd=1770107306-00&ServiceCd=150&Type=search" }, "geometry": { "type": "Point", "coordinates": [ 136.639459499999987, 36.5426024 ] } },
{ "type": "Feature", "properties": { "内容": "社会福祉法人北伸福祉会　デイサービスセンター朱鷺の苑かがやき【通所介護】石川県金沢市米泉町10丁目1番地159", "url2": "https://www.kaigokensaku.mhlw.go.jp/17/index.php?action_kouhyou_detail_004_kani=true&JigyosyoCd=1770106084-00&ServiceCd=150&Type=search" }, "geometry": { "type": "Point", "coordinates": [ 136.623982767806183, 36.556509184491595 ] } },
{ "type": "Feature", "properties": { "内容": "デイサービス朗高尾台【通所介護】高尾台1丁目449番地", "url2": "https://www.kaigokensaku.mhlw.go.jp/17/index.php?action_kouhyou_detail_004_kani=true&JigyosyoCd=1770102760-00&ServiceCd=150&Type=search" }, "geometry": { "type": "Point", "coordinates": [ 136.639460099999951, 36.5236212 ] } },
{ "type": "Feature", "properties": { "内容": "アクティブスタジオ響【通所介護】石川県金沢市窪7丁目284番地", "url2": "https://www.kaigokensaku.mhlw.go.jp/17/index.php?action_kouhyou_detail_004_kani=true&JigyosyoCd=1770107595-00&ServiceCd=150&Type=search" }, "geometry": { "type": "Point", "coordinates": [ 136.638453199999987, 36.5300178 ] } },
{ "type": "Feature", "properties": { "内容": "デイサービスきたえるーむ金沢大徳【通所介護】石川県金沢市寺中町イ93-3", "url2": "https://www.kaigokensaku.mhlw.go.jp/17/index.php?action_kouhyou_detail_004_kani=true&JigyosyoCd=1770107652-00&ServiceCd=150&Type=search" }, "geometry": { "type": "Point", "coordinates": [ 136.600888700000013, 36.5935292 ] } },
{ "type": "Feature", "properties": { "内容": "ケアマート金澤表参道【通所介護】石川県金沢市安江町５－２１2階", "url2": "https://www.kaigokensaku.mhlw.go.jp/17/index.php?action_kouhyou_detail_004_kani=true&JigyosyoCd=1770107298-00&ServiceCd=150&Type=search" }, "geometry": { "type": "Point", "coordinates": [ 136.65600520000001, 36.5757045 ] } },
{ "type": "Feature", "properties": { "内容": "デイサービスセンターすこやか倶楽部なるわ【通所介護】石川県金沢市春日町１１－１６", "url2": "https://www.kaigokensaku.mhlw.go.jp/17/index.php?action_kouhyou_detail_004_kani=true&JigyosyoCd=1770105185-00&ServiceCd=150&Type=search" }, "geometry": { "type": "Point", "coordinates": [ 136.674614068122878, 36.585683911508518 ] } },
{ "type": "Feature", "properties": { "内容": "寿リハCC富樫【通所介護】石川県金沢市富樫3丁目6番17号", "url2": "https://www.kaigokensaku.mhlw.go.jp/17/index.php?action_kouhyou_detail_004_kani=true&JigyosyoCd=1770107660-00&ServiceCd=150&Type=search" }, "geometry": { "type": "Point", "coordinates": [ 136.643163, 36.5375081 ] } },
{ "type": "Feature", "properties": { "内容": "ことほぎ三ツ屋デイサービス【通所介護】石川県金沢市三ツ屋町ロ１８番地１", "url2": "https://www.kaigokensaku.mhlw.go.jp/17/index.php?action_kouhyou_detail_004_kani=true&JigyosyoCd=1770105540-00&ServiceCd=150&Type=search" }, "geometry": { "type": "Point", "coordinates": [ 136.644672113491879, 36.610841266136866 ] } },
{ "type": "Feature", "properties": { "内容": "デイサービス三島サロン【通所介護】石川県七尾市三島町７９番地５号", "url2": "https://www.kaigokensaku.mhlw.go.jp/17/index.php?action_kouhyou_detail_004_kani=true&JigyosyoCd=1770200614-00&ServiceCd=150&Type=search" }, "geometry": { "type": "Point", "coordinates": [ 136.965028699999948, 37.0486727 ] } },
{ "type": "Feature", "properties": { "内容": "デイサービスセンターもみの木苑【通所介護】石川県七尾市田鶴浜町り部27番地", "url2": "https://www.kaigokensaku.mhlw.go.jp/17/index.php?action_kouhyou_detail_004_kani=true&JigyosyoCd=1770200424-00&ServiceCd=150&Type=search" }, "geometry": { "type": "Point", "coordinates": [ 136.888130339234749, 37.064468924595559 ] } },
{ "type": "Feature", "properties": { "内容": "秀楽苑デイサービスセンター【通所介護】中島町鹿島台は部17番地３", "url2": "https://www.kaigokensaku.mhlw.go.jp/17/index.php?action_kouhyou_detail_004_kani=true&JigyosyoCd=1770200259-00&ServiceCd=150&Type=search" }, "geometry": { "type": "Point", "coordinates": [ 136.889496799999961, 37.1309103 ] } },
{ "type": "Feature", "properties": { "内容": "デイサービスセンター　せんじゅ【通所介護】七尾市千野町に部15番地", "url2": "https://www.kaigokensaku.mhlw.go.jp/17/index.php?action_kouhyou_detail_004_kani=true&JigyosyoCd=1770200184-00&ServiceCd=150&Type=search" }, "geometry": { "type": "Point", "coordinates": [ 136.953189641802993, 37.017617091300401 ] } },
{ "type": "Feature", "properties": { "内容": "デイサービスセンター　あっとほーむイースト【通所介護】石川県七尾市大田町6部66の1番地", "url2": "https://www.kaigokensaku.mhlw.go.jp/17/index.php?action_kouhyou_detail_004_kani=true&JigyosyoCd=1770200382-00&ServiceCd=150&Type=search" }, "geometry": { "type": "Point", "coordinates": [ 137.001935799999956, 37.054625 ] } },
{ "type": "Feature", "properties": { "内容": "エレガンテなぎの浦通所介護事業所【通所介護】石川県七尾市津向町ト部１０７番地４", "url2": "https://www.kaigokensaku.mhlw.go.jp/17/index.php?action_kouhyou_detail_004_kani=true&JigyosyoCd=1770200010-00&ServiceCd=150&Type=search" }, "geometry": { "type": "Point", "coordinates": [ 136.955162192500325, 37.056433008701987 ] } },
{ "type": "Feature", "properties": { "内容": "デイサービスセンターなでしこ【通所介護】石川県七尾市八幡町は部９番地", "url2": "https://www.kaigokensaku.mhlw.go.jp/17/index.php?action_kouhyou_detail_004_kani=true&JigyosyoCd=1770200507-00&ServiceCd=150&Type=search" }, "geometry": { "type": "Point", "coordinates": [ 136.953195006221023, 37.018139642573075 ] } },
{ "type": "Feature", "properties": { "内容": "デイサービスセンター　あっとほーむウエスト【通所介護】石川県七尾市古屋敷町ヨ部11番地1", "url2": "https://www.kaigokensaku.mhlw.go.jp/17/index.php?action_kouhyou_detail_004_kani=true&JigyosyoCd=1770200457-00&ServiceCd=150&Type=search" }, "geometry": { "type": "Point", "coordinates": [ 136.974129682942248, 37.024604386824016 ] } },
{ "type": "Feature", "properties": { "内容": "有限会社陽だまり【通所介護】小松市吉竹町４丁目４０３", "url2": "https://www.kaigokensaku.mhlw.go.jp/17/index.php?action_kouhyou_detail_004_kani=true&JigyosyoCd=1770300240-00&ServiceCd=150&Type=search" }, "geometry": { "type": "Point", "coordinates": [ 136.471050200000036, 36.3953193 ] } },
{ "type": "Feature", "properties": { "内容": "ＪＡきらら千代指定通所介護事業所【通所介護】石川県小松市千代町丁1番地１", "url2": "https://www.kaigokensaku.mhlw.go.jp/17/index.php?action_kouhyou_detail_004_kani=true&JigyosyoCd=1770300323-00&ServiceCd=150&Type=search" }, "geometry": { "type": "Point", "coordinates": [ 136.493559299999987, 36.4102415 ] } },
{ "type": "Feature", "properties": { "内容": "デイサービスセンターみゆき【通所介護】石川県小松市松崎町赤場１番１", "url2": "https://www.kaigokensaku.mhlw.go.jp/17/index.php?action_kouhyou_detail_004_kani=true&JigyosyoCd=1770300422-00&ServiceCd=150&Type=search" }, "geometry": { "type": "Point", "coordinates": [ 136.414245599999958, 36.3718409 ] } },
{ "type": "Feature", "properties": { "内容": "デイサービスセンター　ここ・から【通所介護】小松市城北町258番地", "url2": "https://www.kaigokensaku.mhlw.go.jp/17/index.php?action_kouhyou_detail_004_kani=true&JigyosyoCd=1770300547-00&ServiceCd=150&Type=search" }, "geometry": { "type": "Point", "coordinates": [ 136.455083400000035, 36.4301032 ] } },
{ "type": "Feature", "properties": { "内容": "こまつ今江コンディショニングセンター【通所介護】石川県小松市今江町7丁目14番地", "url2": "https://www.kaigokensaku.mhlw.go.jp/17/index.php?action_kouhyou_detail_004_kani=true&JigyosyoCd=1770301081-00&ServiceCd=150&Type=search" }, "geometry": { "type": "Point", "coordinates": [ 136.4357824, 36.3819388 ] } },
{ "type": "Feature", "properties": { "内容": "デイサービス　き楽な里【通所介護】串茶屋町上野８７－１", "url2": "https://www.kaigokensaku.mhlw.go.jp/17/index.php?action_kouhyou_detail_004_kani=true&JigyosyoCd=1770300828-00&ServiceCd=150&Type=search" }, "geometry": { "type": "Point", "coordinates": [ 136.428382599999964, 36.3752995 ] } },
{ "type": "Feature", "properties": { "内容": "デイサービスセンターかすかみ【通所介護】石川県小松市岩渕町４６番地１", "url2": "https://www.kaigokensaku.mhlw.go.jp/17/index.php?action_kouhyou_detail_004_kani=true&JigyosyoCd=1770300141-00&ServiceCd=150&Type=search" }, "geometry": { "type": "Point", "coordinates": [ 136.524297899999965, 36.3893007 ] } },
{ "type": "Feature", "properties": { "内容": "松寿園デイサービスセンターやざき【通所介護】小松市矢崎町甲５２番地松寿園デイサービスセンターやざき", "url2": "https://www.kaigokensaku.mhlw.go.jp/17/index.php?action_kouhyou_detail_004_kani=true&JigyosyoCd=1770300653-00&ServiceCd=150&Type=search" }, "geometry": { "type": "Point", "coordinates": [ 136.428943824992302, 36.366036498570445 ] } },
{ "type": "Feature", "properties": { "内容": "デイサービス　サンタの家やわた【通所介護】石川県小松市八幡　癸141-5", "url2": "https://www.kaigokensaku.mhlw.go.jp/17/index.php?action_kouhyou_detail_004_kani=true&JigyosyoCd=1770300497-00&ServiceCd=150&Type=search" }, "geometry": { "type": "Point", "coordinates": [ 136.489310199999977, 36.3921542 ] } },
{ "type": "Feature", "properties": { "内容": "デイサービスそのまちサロン【通所介護】石川県小松市園町ホ126-1北陸綜合警備保障株式会社　小松支社", "url2": "https://www.kaigokensaku.mhlw.go.jp/17/index.php?action_kouhyou_detail_004_kani=true&JigyosyoCd=1770300976-00&ServiceCd=150&Type=search" }, "geometry": { "type": "Point", "coordinates": [ 136.458242899999988, 36.407584900000018 ] } },
{ "type": "Feature", "properties": { "内容": "デイサービス　サンタの家【通所介護】額見町ら３番地1", "url2": "https://www.kaigokensaku.mhlw.go.jp/17/index.php?action_kouhyou_detail_004_kani=true&JigyosyoCd=1770300281-00&ServiceCd=150&Type=search" }, "geometry": { "type": "Point", "coordinates": [ 136.4078687, 36.3574877 ] } },
{ "type": "Feature", "properties": { "内容": "長寿365かけはし【通所介護】石川県小松市梯町ト50", "url2": "https://www.kaigokensaku.mhlw.go.jp/17/index.php?action_kouhyou_detail_004_kani=true&JigyosyoCd=1770300836-00&ServiceCd=150&Type=search" }, "geometry": { "type": "Point", "coordinates": [ 136.453808900000013, 36.419347 ] } },
{ "type": "Feature", "properties": { "内容": "JAきらら指定通所介護事業所【通所介護】小松市長谷町５０番地５", "url2": "https://www.kaigokensaku.mhlw.go.jp/17/index.php?action_kouhyou_detail_004_kani=true&JigyosyoCd=1770300018-00&ServiceCd=150&Type=search" }, "geometry": { "type": "Point", "coordinates": [ 136.485775099999955, 36.3568784 ] } },
{ "type": "Feature", "properties": { "内容": "JAきらら粟津指定通所介護事業所【通所介護】石川県小松市符津町ウ75番地3", "url2": "https://www.kaigokensaku.mhlw.go.jp/17/index.php?action_kouhyou_detail_004_kani=true&JigyosyoCd=1770300844-00&ServiceCd=150&Type=search" }, "geometry": { "type": "Point", "coordinates": [ 136.425699596958907, 36.355367446570646 ] } },
{ "type": "Feature", "properties": { "内容": "デイサービスセンターファミール【通所介護】石川県小松市安宅町ル１番地８", "url2": "https://www.kaigokensaku.mhlw.go.jp/17/index.php?action_kouhyou_detail_004_kani=true&JigyosyoCd=1770300059-00&ServiceCd=150&Type=search" }, "geometry": { "type": "Point", "coordinates": [ 136.42473629999995, 36.424925 ] } },
{ "type": "Feature", "properties": { "内容": "デイサービスセンター　菜の花【通所介護】石川県小松市蛭川町西１０３番地１", "url2": "https://www.kaigokensaku.mhlw.go.jp/17/index.php?action_kouhyou_detail_004_kani=true&JigyosyoCd=1770300521-00&ServiceCd=150&Type=search" }, "geometry": { "type": "Point", "coordinates": [ 136.455213800000024, 36.4341718 ] } },
{ "type": "Feature", "properties": { "内容": "デイサービスセンター松寿園【通所介護】石川県小松市向本折町ホ31番地", "url2": "https://www.kaigokensaku.mhlw.go.jp/17/index.php?action_kouhyou_detail_004_kani=true&JigyosyoCd=1770300083-00&ServiceCd=150&Type=search" }, "geometry": { "type": "Point", "coordinates": [ 136.43974419999995, 36.3968306 ] } },
{ "type": "Feature", "properties": { "内容": "さわらびデイサービス【通所介護】石川県小松市北浅井町と67番地", "url2": "https://www.kaigokensaku.mhlw.go.jp/17/index.php?action_kouhyou_detail_004_kani=true&JigyosyoCd=1770300356-00&ServiceCd=150&Type=search" }, "geometry": { "type": "Point", "coordinates": [ 136.460225900000069, 36.387425 ] } },
{ "type": "Feature", "properties": { "内容": "自生園つどい【通所介護】石川県小松市上荒屋町ソ4番地10", "url2": "https://www.kaigokensaku.mhlw.go.jp/17/index.php?action_kouhyou_detail_004_kani=true&JigyosyoCd=1770300034-00&ServiceCd=150&Type=search" }, "geometry": { "type": "Point", "coordinates": [ 136.43120250000004, 36.3281492 ] } },
{ "type": "Feature", "properties": { "内容": "ツクイ小松大領中【通所介護】小松市大領中町2丁目120番地", "url2": "https://www.kaigokensaku.mhlw.go.jp/17/index.php?action_kouhyou_detail_004_kani=true&JigyosyoCd=1770301008-00&ServiceCd=150&Type=search" }, "geometry": { "type": "Point", "coordinates": [ 136.4436277, 36.3865558 ] } },
{ "type": "Feature", "properties": { "内容": "まそらデイサービス【通所介護】石川県小松市西町85番地", "url2": "https://www.kaigokensaku.mhlw.go.jp/17/index.php?action_kouhyou_detail_004_kani=true&JigyosyoCd=1770300703-00&ServiceCd=150&Type=search" }, "geometry": { "type": "Point", "coordinates": [ 136.449857607406614, 36.405048370427345 ] } },
{ "type": "Feature", "properties": { "内容": "デイサービス　ほっと今江【通所介護】今江町7丁目18番地1", "url2": "https://www.kaigokensaku.mhlw.go.jp/17/index.php?action_kouhyou_detail_004_kani=true&JigyosyoCd=1770300406-00&ServiceCd=150&Type=search" }, "geometry": { "type": "Point", "coordinates": [ 136.435770300000058, 36.3815603 ] } },
{ "type": "Feature", "properties": { "内容": "社会福祉法人天宣会　デイサービスセンターめぐみの里【通所介護】石川県小松市平面町へ133番地1特別養護老人ホームめぐみの里", "url2": "https://www.kaigokensaku.mhlw.go.jp/17/index.php?action_kouhyou_detail_004_kani=true&JigyosyoCd=1770301057-00&ServiceCd=150&Type=search" }, "geometry": { "type": "Point", "coordinates": [ 136.4699386, 36.4172913 ] } },
{ "type": "Feature", "properties": { "内容": "デイサービスSTBフィットネス小松店【通所介護】石川県小松市浮城町146", "url2": "https://www.kaigokensaku.mhlw.go.jp/17/index.php?action_kouhyou_detail_004_kani=true&JigyosyoCd=1770301099-00&ServiceCd=150&Type=search" }, "geometry": { "type": "Point", "coordinates": [ 136.4445184, 36.4086884 ] } },
{ "type": "Feature", "properties": { "内容": "みやびデイサービスセンター【通所介護】輪島市町野町寺地1027番地", "url2": "https://www.kaigokensaku.mhlw.go.jp/17/index.php?action_kouhyou_detail_004_kani=true&JigyosyoCd=1770400099-00&ServiceCd=150&Type=search" }, "geometry": { "type": "Point", "coordinates": [ 137.087097500000027, 37.4349397 ] } },
{ "type": "Feature", "properties": { "内容": "あての木園デイサービスセンター【通所介護】輪島市三井町小泉上野２番地", "url2": "https://www.kaigokensaku.mhlw.go.jp/17/index.php?action_kouhyou_detail_004_kani=true&JigyosyoCd=1770400016-00&ServiceCd=150&Type=search" }, "geometry": { "type": "Point", "coordinates": [ 136.896431799999959, 37.2970977 ] } },
{ "type": "Feature", "properties": { "内容": "デイサービスセンターゆきわりそう【通所介護】石川県輪島市門前町深田２２－４２番地", "url2": "https://www.kaigokensaku.mhlw.go.jp/17/index.php?action_kouhyou_detail_004_kani=true&JigyosyoCd=1770400123-00&ServiceCd=150&Type=search" }, "geometry": { "type": "Point", "coordinates": [ 136.7805975, 37.2891781 ] } },
{ "type": "Feature", "properties": { "内容": "デイサービスセンターあかかみ【通所介護】石川県輪島市門前町赤神１０の１番地", "url2": "https://www.kaigokensaku.mhlw.go.jp/17/index.php?action_kouhyou_detail_004_kani=true&JigyosyoCd=1770400115-00&ServiceCd=150&Type=search" }, "geometry": { "type": "Point", "coordinates": [ 136.708625466934194, 37.246195100000016 ] } },
{ "type": "Feature", "properties": { "内容": "デイサービスセンター　福祉の杜【通所介護】石川県輪島市山岸町い２６番地２複合施設　福祉の杜　わじま", "url2": "https://www.kaigokensaku.mhlw.go.jp/17/index.php?action_kouhyou_detail_004_kani=true&JigyosyoCd=1770400230-00&ServiceCd=150&Type=search" }, "geometry": { "type": "Point", "coordinates": [ 136.9078572, 37.3828896 ] } },
{ "type": "Feature", "properties": { "内容": "珠洲市みさきデイサービスセンター【通所介護】石川県珠洲市三崎町宇治ヲ部７", "url2": "https://www.kaigokensaku.mhlw.go.jp/17/index.php?action_kouhyou_detail_004_kani=true&JigyosyoCd=1770500039-00&ServiceCd=150&Type=search" }, "geometry": { "type": "Point", "coordinates": [ 137.341030251312333, 37.468225997777424 ] } },
{ "type": "Feature", "properties": { "内容": "珠洲市社会福祉協議会デイサービスセンター【通所介護】石川県珠洲市飯田町10-60-1珠洲市社会福祉協議会デイサービスセンター", "url2": "https://www.kaigokensaku.mhlw.go.jp/17/index.php?action_kouhyou_detail_004_kani=true&JigyosyoCd=1770500054-00&ServiceCd=150&Type=search" }, "geometry": { "type": "Point", "coordinates": [ 137.263022685633672, 37.438233248157225 ] } },
{ "type": "Feature", "properties": { "内容": "すまいる珠洲【通所介護】石川県珠洲市上戸町北方は字18番地2すまいる珠洲", "url2": "https://www.kaigokensaku.mhlw.go.jp/17/index.php?action_kouhyou_detail_004_kani=true&JigyosyoCd=1770500161-00&ServiceCd=150&Type=search" }, "geometry": { "type": "Point", "coordinates": [ 137.255606353282928, 37.433113291878321 ] } },
{ "type": "Feature", "properties": { "内容": "吉崎の丘デイサービスセンター【通所介護】加賀市吉崎町ト１３１番地", "url2": "https://www.kaigokensaku.mhlw.go.jp/17/index.php?action_kouhyou_detail_004_kani=true&JigyosyoCd=1770600110-00&ServiceCd=150&Type=search" }, "geometry": { "type": "Point", "coordinates": [ 136.262013600000046, 36.2888168 ] } },
{ "type": "Feature", "properties": { "内容": "かがやきデイサービスセンター【通所介護】石川県加賀市山代温泉３５の１４番地の３かがやきサービス付き高齢者住宅", "url2": "https://www.kaigokensaku.mhlw.go.jp/17/index.php?action_kouhyou_detail_004_kani=true&JigyosyoCd=1770600516-00&ServiceCd=150&Type=search" }, "geometry": { "type": "Point", "coordinates": [ 136.358675941772503, 36.301183927291866 ] } },
{ "type": "Feature", "properties": { "内容": "加賀中央デイサービスセンター【通所介護】石川県加賀市山田町蛇谷１－８", "url2": "https://www.kaigokensaku.mhlw.go.jp/17/index.php?action_kouhyou_detail_004_kani=true&JigyosyoCd=1770600045-00&ServiceCd=150&Type=search" }, "geometry": { "type": "Point", "coordinates": [ 136.335093799999981, 36.3254416 ] } },
{ "type": "Feature", "properties": { "内容": "山代デイサービスセンター【通所介護】石川県加賀市山代温泉11の108番地2山代いこいの家", "url2": "https://www.kaigokensaku.mhlw.go.jp/17/index.php?action_kouhyou_detail_004_kani=true&JigyosyoCd=1770600144-00&ServiceCd=150&Type=search" }, "geometry": { "type": "Point", "coordinates": [ 136.354123800000025, 36.2880578 ] } },
{ "type": "Feature", "properties": { "内容": "はるるデイサービスセンター【通所介護】石川県加賀市山中温泉東町2丁目ツ35", "url2": "https://www.kaigokensaku.mhlw.go.jp/17/index.php?action_kouhyou_detail_004_kani=true&JigyosyoCd=1770600300-00&ServiceCd=150&Type=search" }, "geometry": { "type": "Point", "coordinates": [ 136.375604003041076, 36.246208569610985 ] } },
{ "type": "Feature", "properties": { "内容": "片山津温泉日日好日院デイサービスセンター【通所介護】石川県加賀市片山津温泉ア96番地1", "url2": "https://www.kaigokensaku.mhlw.go.jp/17/index.php?action_kouhyou_detail_004_kani=true&JigyosyoCd=1770600177-00&ServiceCd=150&Type=search" }, "geometry": { "type": "Point", "coordinates": [ 136.364106200000037, 36.3487251 ] } },
{ "type": "Feature", "properties": { "内容": "篤寿苑デイサービスセンター【通所介護】石川県加賀市上野町ケ254", "url2": "https://www.kaigokensaku.mhlw.go.jp/17/index.php?action_kouhyou_detail_004_kani=true&JigyosyoCd=1770600060-00&ServiceCd=150&Type=search" }, "geometry": { "type": "Point", "coordinates": [ 136.377029399999969, 36.2936772 ] } },
{ "type": "Feature", "properties": { "内容": "打越デイサービスセンター【通所介護】加賀市打越町ら110-1", "url2": "https://www.kaigokensaku.mhlw.go.jp/17/index.php?action_kouhyou_detail_004_kani=true&JigyosyoCd=1770600250-00&ServiceCd=150&Type=search" }, "geometry": { "type": "Point", "coordinates": [ 136.408302, 36.335761 ] } },
{ "type": "Feature", "properties": { "内容": "実乃里【通所介護】加賀市南郷町ト111番3", "url2": "https://www.kaigokensaku.mhlw.go.jp/17/index.php?action_kouhyou_detail_004_kani=true&JigyosyoCd=1770600433-00&ServiceCd=150&Type=search" }, "geometry": { "type": "Point", "coordinates": [ 136.329567050228889, 36.302283397905605 ] } },
{ "type": "Feature", "properties": { "内容": "篤豊会デイサービスセンター【通所介護】石川県加賀市大聖寺東町一丁目26番地１", "url2": "https://www.kaigokensaku.mhlw.go.jp/17/index.php?action_kouhyou_detail_004_kani=true&JigyosyoCd=1770600037-00&ServiceCd=150&Type=search" }, "geometry": { "type": "Point", "coordinates": [ 136.318362699999966, 36.3056101 ] } },
{ "type": "Feature", "properties": { "内容": "ケアリス山代【通所介護】石川県加賀市山代温泉２３の６１番地の１", "url2": "https://www.kaigokensaku.mhlw.go.jp/17/index.php?action_kouhyou_detail_004_kani=true&JigyosyoCd=1770600359-00&ServiceCd=150&Type=search" }, "geometry": { "type": "Point", "coordinates": [ 136.359670200000011, 36.2940683 ] } },
{ "type": "Feature", "properties": { "内容": "デイサ花花【通所介護】石川県加賀市柴山町ち91番地", "url2": "https://www.kaigokensaku.mhlw.go.jp/17/index.php?action_kouhyou_detail_004_kani=true&JigyosyoCd=1770600649-00&ServiceCd=150&Type=search" }, "geometry": { "type": "Point", "coordinates": [ 136.373844700000063, 36.3572513 ] } },
{ "type": "Feature", "properties": { "内容": "リハビリディサービス　太陽のリゾート加賀【通所介護】加賀市小菅波町2丁目54-1", "url2": "https://www.kaigokensaku.mhlw.go.jp/17/index.php?action_kouhyou_detail_004_kani=true&JigyosyoCd=1770600557-00&ServiceCd=150&Type=search" }, "geometry": { "type": "Point", "coordinates": [ 136.347398500000054, 36.3167236 ] } },
{ "type": "Feature", "properties": { "内容": "デイサービスセンター和（やわらぎ）【通所介護】加賀市片山津町ム３０番", "url2": "https://www.kaigokensaku.mhlw.go.jp/17/index.php?action_kouhyou_detail_004_kani=true&JigyosyoCd=1770600128-00&ServiceCd=150&Type=search" }, "geometry": { "type": "Point", "coordinates": [ 136.372744802115903, 36.343404062316637 ] } },
{ "type": "Feature", "properties": { "内容": "すまいる加賀【通所介護】石川県加賀市別所町2-82", "url2": "https://www.kaigokensaku.mhlw.go.jp/17/index.php?action_kouhyou_detail_004_kani=true&JigyosyoCd=1770600755-00&ServiceCd=150&Type=search" }, "geometry": { "type": "Point", "coordinates": [ 136.3637821, 36.2709721 ] } },
{ "type": "Feature", "properties": { "内容": "リハビリデイサービス　わたぼうし【通所介護】石川県羽咋市深江町ト107番地1", "url2": "https://www.kaigokensaku.mhlw.go.jp/17/index.php?action_kouhyou_detail_004_kani=true&JigyosyoCd=1770700381-00&ServiceCd=150&Type=search" }, "geometry": { "type": "Point", "coordinates": [ 136.8015322, 36.9024812 ] } },
{ "type": "Feature", "properties": { "内容": "羽咋市デイサービスセンター【通所介護】石川県羽咋市鹿島路町1788番地鹿島路ふれあいセンター", "url2": "https://www.kaigokensaku.mhlw.go.jp/17/index.php?action_kouhyou_detail_004_kani=true&JigyosyoCd=1770700175-00&ServiceCd=150&Type=search" }, "geometry": { "type": "Point", "coordinates": [ 136.812382599999978, 36.935308 ] } },
{ "type": "Feature", "properties": { "内容": "眉丈園デイサービスセンター【通所介護】石川県羽咋市的場町稲荷山出ロ26番地2", "url2": "https://www.kaigokensaku.mhlw.go.jp/17/index.php?action_kouhyou_detail_004_kani=true&JigyosyoCd=1770700027-00&ServiceCd=150&Type=search" }, "geometry": { "type": "Point", "coordinates": [ 136.780025628311137, 36.901802673156631 ] } },
{ "type": "Feature", "properties": { "内容": "デイサービスセンターおうちの里【通所介護】羽咋市飯山町ル1番地1", "url2": "https://www.kaigokensaku.mhlw.go.jp/17/index.php?action_kouhyou_detail_004_kani=true&JigyosyoCd=1770700050-00&ServiceCd=150&Type=search" }, "geometry": { "type": "Point", "coordinates": [ 136.82832350000001, 36.9026902 ] } },
{ "type": "Feature", "properties": { "内容": "なぎさ倶楽部Akusyu【通所介護】石川県かほく市白尾ネ181番", "url2": "https://www.kaigokensaku.mhlw.go.jp/17/index.php?action_kouhyou_detail_004_kani=true&JigyosyoCd=1772100317-00&ServiceCd=150&Type=search" }, "geometry": { "type": "Point", "coordinates": [ 136.688526700000011, 36.715771 ] } },
{ "type": "Feature", "properties": { "内容": "かほくケアセンター【通所介護】かほく市浜北ニ2-7", "url2": "https://www.kaigokensaku.mhlw.go.jp/17/index.php?action_kouhyou_detail_004_kani=true&JigyosyoCd=1772100150-00&ServiceCd=150&Type=search" }, "geometry": { "type": "Point", "coordinates": [ 136.698675856622344, 36.733319402239353 ] } },
{ "type": "Feature", "properties": { "内容": "ひゃくまん星高松通所介護事業所【通所介護】高松甲16番地10ひゃくまん星高松", "url2": "https://www.kaigokensaku.mhlw.go.jp/17/index.php?action_kouhyou_detail_004_kani=true&JigyosyoCd=1772100309-00&ServiceCd=150&Type=search" }, "geometry": { "type": "Point", "coordinates": [ 136.7112457, 36.7613436 ] } },
{ "type": "Feature", "properties": { "内容": "あかしあ荘デイサービスセンター【通所介護】石川県かほく市白尾タ220番地", "url2": "https://www.kaigokensaku.mhlw.go.jp/17/index.php?action_kouhyou_detail_004_kani=true&JigyosyoCd=1772100028-00&ServiceCd=150&Type=search" }, "geometry": { "type": "Point", "coordinates": [ 136.696087743199911, 36.717538597622152 ] } },
{ "type": "Feature", "properties": { "内容": "株式会社　中村産業　たからデイサービス【通所介護】石川県かほく市白尾ナ４２番地１", "url2": "https://www.kaigokensaku.mhlw.go.jp/17/index.php?action_kouhyou_detail_004_kani=true&JigyosyoCd=1772100101-00&ServiceCd=150&Type=search" }, "geometry": { "type": "Point", "coordinates": [ 136.6903678, 36.7129851 ] } },
{ "type": "Feature", "properties": { "内容": "デイサービスなぎさの家あじち【通所介護】石川県かほく市白尾タ18番地1", "url2": "https://www.kaigokensaku.mhlw.go.jp/17/index.php?action_kouhyou_detail_004_kani=true&JigyosyoCd=1772100291-00&ServiceCd=150&Type=search" }, "geometry": { "type": "Point", "coordinates": [ 136.695167937959241, 36.716324984908248 ] } },
{ "type": "Feature", "properties": { "内容": "天然温泉デイサービス　海青クラブ【通所介護】石川県かほく市秋浜へ２０番地４", "url2": "https://www.kaigokensaku.mhlw.go.jp/17/index.php?action_kouhyou_detail_004_kani=true&JigyosyoCd=1772100200-00&ServiceCd=150&Type=search" }, "geometry": { "type": "Point", "coordinates": [ 136.692386599999963, 36.7279721 ] } },
{ "type": "Feature", "properties": { "内容": "デイサービスセンターあいおい【通所介護】石川県かほく市宇気イ51番地1高齢者複合施設あいおい", "url2": "https://www.kaigokensaku.mhlw.go.jp/17/index.php?action_kouhyou_detail_004_kani=true&JigyosyoCd=1772100127-00&ServiceCd=150&Type=search" }, "geometry": { "type": "Point", "coordinates": [ 136.713153096825181, 36.736593391821607 ] } },
{ "type": "Feature", "properties": { "内容": "芙蓉会デイサービスセンター【通所介護】石川県かほく市学園台5丁目19番地1", "url2": "https://www.kaigokensaku.mhlw.go.jp/17/index.php?action_kouhyou_detail_004_kani=true&JigyosyoCd=1772100010-00&ServiceCd=150&Type=search" }, "geometry": { "type": "Point", "coordinates": [ 136.729651649398903, 36.779848510255711 ] } },
{ "type": "Feature", "properties": { "内容": "こみけあデイサービスセンター陽羽里【通所介護】石川県白山市陽羽里2-44-1ケアセンターこみけあ陽羽里", "url2": "https://www.kaigokensaku.mhlw.go.jp/17/index.php?action_kouhyou_detail_004_kani=true&JigyosyoCd=1762291134-00&ServiceCd=150&Type=search" }, "geometry": { "type": "Point", "coordinates": [ 136.613761175254808, 36.493477281461374 ] } },
{ "type": "Feature", "properties": { "内容": "デイサービスGGフィットネス白山店【通所介護】石川県白山市宮保町1361-1", "url2": "https://www.kaigokensaku.mhlw.go.jp/17/index.php?action_kouhyou_detail_004_kani=true&JigyosyoCd=1772201008-00&ServiceCd=150&Type=search" }, "geometry": { "type": "Point", "coordinates": [ 136.535913599999986, 36.5108583 ] } },
{ "type": "Feature", "properties": { "内容": "美杉の郷デイサービスセンター【通所介護】白山市桑島４号８７番地５", "url2": "https://www.kaigokensaku.mhlw.go.jp/17/index.php?action_kouhyou_detail_004_kani=true&JigyosyoCd=1772200257-00&ServiceCd=150&Type=search" }, "geometry": { "type": "Point", "coordinates": [ 136.625598200000013, 36.1985246 ] } },
{ "type": "Feature", "properties": { "内容": "リハビリ＆フィットネス寿リハ松任【通所介護】白山市中町54-3", "url2": "https://www.kaigokensaku.mhlw.go.jp/17/index.php?action_kouhyou_detail_004_kani=true&JigyosyoCd=1772201081-00&ServiceCd=150&Type=search" }, "geometry": { "type": "Point", "coordinates": [ 136.565147599999989, 36.5229661 ] } },
{ "type": "Feature", "properties": { "内容": "キラッと美川デイサービスセンター【通所介護】石川県白山市美川和波町カ１－３", "url2": "https://www.kaigokensaku.mhlw.go.jp/17/index.php?action_kouhyou_detail_004_kani=true&JigyosyoCd=1772200638-00&ServiceCd=150&Type=search" }, "geometry": { "type": "Point", "coordinates": [ 136.487729599999966, 36.4914865 ] } },
{ "type": "Feature", "properties": { "内容": "リハ本舗おおまち【通所介護】石川県白山市四日市町5番地リハ本舗おおまち", "url2": "https://www.kaigokensaku.mhlw.go.jp/17/index.php?action_kouhyou_detail_004_kani=true&JigyosyoCd=1772201065-00&ServiceCd=150&Type=search" }, "geometry": { "type": "Point", "coordinates": [ 136.568245, 36.5226583 ] } },
{ "type": "Feature", "properties": { "内容": "デイサービスひより【通所介護】石川県白山市知気寺町は36番地1", "url2": "https://www.kaigokensaku.mhlw.go.jp/17/index.php?action_kouhyou_detail_004_kani=true&JigyosyoCd=1772200927-00&ServiceCd=150&Type=search" }, "geometry": { "type": "Point", "coordinates": [ 136.600583499999971, 36.4792484 ] } },
{ "type": "Feature", "properties": { "内容": "つるべ荘デイサービスセンター【通所介護】一塚町1351番地１", "url2": "https://www.kaigokensaku.mhlw.go.jp/17/index.php?action_kouhyou_detail_004_kani=true&JigyosyoCd=1772200125-00&ServiceCd=150&Type=search" }, "geometry": { "type": "Point", "coordinates": [ 136.558919100000026, 36.5614951 ] } },
{ "type": "Feature", "properties": { "内容": "Ｐｌｕｓ　体操教室【通所介護】石川県白山市新田町197番地", "url2": "https://www.kaigokensaku.mhlw.go.jp/17/index.php?action_kouhyou_detail_004_kani=true&JigyosyoCd=1772200885-00&ServiceCd=150&Type=search" }, "geometry": { "type": "Point", "coordinates": [ 136.571232399999985, 36.5345772 ] } },
{ "type": "Feature", "properties": { "内容": "デイサービス　しおん【通所介護】石川県白山市明島町西115番地１", "url2": "https://www.kaigokensaku.mhlw.go.jp/17/index.php?action_kouhyou_detail_004_kani=true&JigyosyoCd=1772200588-00&ServiceCd=150&Type=search" }, "geometry": { "type": "Point", "coordinates": [ 136.603369499999985, 36.4686471 ] } },
{ "type": "Feature", "properties": { "内容": "大門園デイサービスセンター【通所介護】石川県白山市佐良ロ１２３番地", "url2": "https://www.kaigokensaku.mhlw.go.jp/17/index.php?action_kouhyou_detail_004_kani=true&JigyosyoCd=1772200224-00&ServiceCd=150&Type=search" }, "geometry": { "type": "Point", "coordinates": [ 136.646847117647667, 36.324551824637176 ] } },
{ "type": "Feature", "properties": { "内容": "湊デイサービスセンター【通所介護】石川県白山市湊町カ377番地1", "url2": "https://www.kaigokensaku.mhlw.go.jp/17/index.php?action_kouhyou_detail_004_kani=true&JigyosyoCd=1772200737-00&ServiceCd=150&Type=search" }, "geometry": { "type": "Point", "coordinates": [ 136.473481430024776, 36.468650392695331 ] } },
{ "type": "Feature", "properties": { "内容": "ニチイケアセンター松任【通所介護】白山市石同新町275-1", "url2": "https://www.kaigokensaku.mhlw.go.jp/17/index.php?action_kouhyou_detail_004_kani=true&JigyosyoCd=1772200059-00&ServiceCd=150&Type=search" }, "geometry": { "type": "Point", "coordinates": [ 136.5698466, 36.5196264 ] } },
{ "type": "Feature", "properties": { "内容": "白山コンディショニングセンター【通所介護】白山市北安田町5024番地", "url2": "https://www.kaigokensaku.mhlw.go.jp/17/index.php?action_kouhyou_detail_004_kani=true&JigyosyoCd=1772200505-00&ServiceCd=150&Type=search" }, "geometry": { "type": "Point", "coordinates": [ 136.5478994, 36.5252305 ] } },
{ "type": "Feature", "properties": { "内容": "光野デイサービスセンター【通所介護】白山市番匠町443番地", "url2": "https://www.kaigokensaku.mhlw.go.jp/17/index.php?action_kouhyou_detail_004_kani=true&JigyosyoCd=1772200034-00&ServiceCd=150&Type=search" }, "geometry": { "type": "Point", "coordinates": [ 136.580312400000025, 36.5358967 ] } },
{ "type": "Feature", "properties": { "内容": "デイサービスセンターすまいる【通所介護】白山市平加町ニ66-1", "url2": "https://www.kaigokensaku.mhlw.go.jp/17/index.php?action_kouhyou_detail_004_kani=true&JigyosyoCd=1772200653-00&ServiceCd=150&Type=search" }, "geometry": { "type": "Point", "coordinates": [ 136.499823570500212, 36.492721330653609 ] } },
{ "type": "Feature", "properties": { "内容": "福寿園デイサービスセンター【通所介護】石川県白山市山島台4丁目100番地", "url2": "https://www.kaigokensaku.mhlw.go.jp/17/index.php?action_kouhyou_detail_004_kani=true&JigyosyoCd=1772200018-00&ServiceCd=150&Type=search" }, "geometry": { "type": "Point", "coordinates": [ 136.575819599999932, 36.4706687 ] } },
{ "type": "Feature", "properties": { "内容": "ぷらちなくらぶ【通所介護】石川県白山市宮丸町1144番地", "url2": "https://www.kaigokensaku.mhlw.go.jp/17/index.php?action_kouhyou_detail_004_kani=true&JigyosyoCd=1772201131-00&ServiceCd=150&Type=search" }, "geometry": { "type": "Point", "coordinates": [ 136.5524809, 36.5053476 ] } },
{ "type": "Feature", "properties": { "内容": "笠間デイサービスセンター【通所介護】白山市笠間町273番地1", "url2": "https://www.kaigokensaku.mhlw.go.jp/17/index.php?action_kouhyou_detail_004_kani=true&JigyosyoCd=1772200026-00&ServiceCd=150&Type=search" }, "geometry": { "type": "Point", "coordinates": [ 136.521837399999981, 36.5024601 ] } },
{ "type": "Feature", "properties": { "内容": "剣崎デイサービスセンター【通所介護】石川県白山市剣崎町1484番地", "url2": "https://www.kaigokensaku.mhlw.go.jp/17/index.php?action_kouhyou_detail_004_kani=true&JigyosyoCd=1772200349-00&ServiceCd=150&Type=search" }, "geometry": { "type": "Point", "coordinates": [ 136.564275299999963, 36.498759699999987 ] } },
{ "type": "Feature", "properties": { "内容": "白山ヘルスセンター【通所介護】石川県白山市橋爪町339番", "url2": "https://www.kaigokensaku.mhlw.go.jp/17/index.php?action_kouhyou_detail_004_kani=true&JigyosyoCd=1772200612-00&ServiceCd=150&Type=search" }, "geometry": { "type": "Point", "coordinates": [ 136.5864259, 36.5160493 ] } },
{ "type": "Feature", "properties": { "内容": "デイサービス　あじさいの郷【通所介護】白山市明島町春130番地", "url2": "https://www.kaigokensaku.mhlw.go.jp/17/index.php?action_kouhyou_detail_004_kani=true&JigyosyoCd=1772200208-00&ServiceCd=150&Type=search" }, "geometry": { "type": "Point", "coordinates": [ 136.61285190000001, 36.4610958 ] } },
{ "type": "Feature", "properties": { "内容": "ばんじょうでいさーびす【通所介護】番匠町３５１番地", "url2": "https://www.kaigokensaku.mhlw.go.jp/17/index.php?action_kouhyou_detail_004_kani=true&JigyosyoCd=1772200620-00&ServiceCd=150&Type=search" }, "geometry": { "type": "Point", "coordinates": [ 136.580387400000063, 36.5301946 ] } },
{ "type": "Feature", "properties": { "内容": "リハビリデイサービス　太陽のリゾート白山【通所介護】石川県白山市北安田西2丁目6番地", "url2": "https://www.kaigokensaku.mhlw.go.jp/17/index.php?action_kouhyou_detail_004_kani=true&JigyosyoCd=1772200539-00&ServiceCd=150&Type=search" }, "geometry": { "type": "Point", "coordinates": [ 136.544732, 36.5212697 ] } },
{ "type": "Feature", "properties": { "内容": "千代野デイサービスセンター【通所介護】白山市千代野東５丁目1-2千代野会館", "url2": "https://www.kaigokensaku.mhlw.go.jp/17/index.php?action_kouhyou_detail_004_kani=true&JigyosyoCd=1772200067-00&ServiceCd=150&Type=search" }, "geometry": { "type": "Point", "coordinates": [ 136.543790299999955, 36.5231083 ] } },
{ "type": "Feature", "properties": { "内容": "あいのきデイサービス【通所介護】白山市相木町８２０番地", "url2": "https://www.kaigokensaku.mhlw.go.jp/17/index.php?action_kouhyou_detail_004_kani=true&JigyosyoCd=1772200455-00&ServiceCd=150&Type=search" }, "geometry": { "type": "Point", "coordinates": [ 136.565493899999979, 36.5348075 ] } },
{ "type": "Feature", "properties": { "内容": "デイサービスセンター笑楽部【通所介護】能美市三道山町ト１１－１", "url2": "https://www.kaigokensaku.mhlw.go.jp/17/index.php?action_kouhyou_detail_004_kani=true&JigyosyoCd=1772300289-00&ServiceCd=150&Type=search" }, "geometry": { "type": "Point", "coordinates": [ 136.506590599999981, 36.4475138 ] } },
{ "type": "Feature", "properties": { "内容": "デイサービス　ほたるの里【通所介護】能美市舘町甲１６４番地", "url2": "https://www.kaigokensaku.mhlw.go.jp/17/index.php?action_kouhyou_detail_004_kani=true&JigyosyoCd=1772300339-00&ServiceCd=150&Type=search" }, "geometry": { "type": "Point", "coordinates": [ 136.561385800000039, 36.4276159 ] } },
{ "type": "Feature", "properties": { "内容": "アクティブスタジオ【通所介護】石川県能美市大浜町ク６４番地１", "url2": "https://www.kaigokensaku.mhlw.go.jp/17/index.php?action_kouhyou_detail_004_kani=true&JigyosyoCd=1772300370-00&ServiceCd=150&Type=search" }, "geometry": { "type": "Point", "coordinates": [ 136.456350408459457, 36.456778385146123 ] } },
{ "type": "Feature", "properties": { "内容": "株式会社トリプルエイチ【通所介護】石川県能美市五間堂町戊46番地6", "url2": "https://www.kaigokensaku.mhlw.go.jp/17/index.php?action_kouhyou_detail_004_kani=true&JigyosyoCd=1772300479-00&ServiceCd=150&Type=search" }, "geometry": { "type": "Point", "coordinates": [ 136.488011599999936, 36.4437547 ] } },
{ "type": "Feature", "properties": { "内容": "指定通所介護事業所　ボニュール根上苑【通所介護】石川県能美市下ノ江町イ201番地1", "url2": "https://www.kaigokensaku.mhlw.go.jp/17/index.php?action_kouhyou_detail_004_kani=true&JigyosyoCd=1772300040-00&ServiceCd=150&Type=search" }, "geometry": { "type": "Point", "coordinates": [ 136.453472199999965, 36.4385405 ] } },
{ "type": "Feature", "properties": { "内容": "デイサービスココファン辰口【通所介護】石川県能美市三ツ屋町35番地1", "url2": "https://www.kaigokensaku.mhlw.go.jp/17/index.php?action_kouhyou_detail_004_kani=true&JigyosyoCd=1772300453-00&ServiceCd=150&Type=search" }, "geometry": { "type": "Point", "coordinates": [ 136.547132800000014, 36.4529696 ] } },
{ "type": "Feature", "properties": { "内容": "湯寿園デイサービスセンター【通所介護】湯谷町乙88番地", "url2": "https://www.kaigokensaku.mhlw.go.jp/17/index.php?action_kouhyou_detail_004_kani=true&JigyosyoCd=1772300057-00&ServiceCd=150&Type=search" }, "geometry": { "type": "Point", "coordinates": [ 136.524228, 36.4361135 ] } },
{ "type": "Feature", "properties": { "内容": "リハビリ長寿～いきいき道場～【通所介護】石川県能美市大長野町チ125-1", "url2": "https://www.kaigokensaku.mhlw.go.jp/17/index.php?action_kouhyou_detail_004_kani=true&JigyosyoCd=1772300438-00&ServiceCd=150&Type=search" }, "geometry": { "type": "Point", "coordinates": [ 136.48144590000004, 36.4255707 ] } },
{ "type": "Feature", "properties": { "内容": "はあとん【通所介護】石川県能美市西二口町丙28番地", "url2": "https://www.kaigokensaku.mhlw.go.jp/17/index.php?action_kouhyou_detail_004_kani=true&JigyosyoCd=1772300495-00&ServiceCd=150&Type=search" }, "geometry": { "type": "Point", "coordinates": [ 136.468967050891507, 36.448292298690312 ] } },
{ "type": "Feature", "properties": { "内容": "ニチイケアセンター能美【通所介護】石川県能美市寺井町ぬ82番地", "url2": "https://www.kaigokensaku.mhlw.go.jp/17/index.php?action_kouhyou_detail_004_kani=true&JigyosyoCd=1772300073-00&ServiceCd=150&Type=search" }, "geometry": { "type": "Point", "coordinates": [ 136.499927299999968, 36.4402393 ] } },
{ "type": "Feature", "properties": { "内容": "リハビリ型デイサービス　てまりフィットネス【通所介護】石川県野々市市高橋町24-3-2", "url2": "https://www.kaigokensaku.mhlw.go.jp/17/index.php?action_kouhyou_detail_004_kani=true&JigyosyoCd=1771300801-00&ServiceCd=150&Type=search" }, "geometry": { "type": "Point", "coordinates": [ 136.630194883599586, 36.530192777640224 ] } },
{ "type": "Feature", "properties": { "内容": "デイサービス　オールウェイ　野々市本店【通所介護】横宮町130-1", "url2": "https://www.kaigokensaku.mhlw.go.jp/17/index.php?action_kouhyou_detail_004_kani=true&JigyosyoCd=1771300488-00&ServiceCd=150&Type=search" }, "geometry": { "type": "Point", "coordinates": [ 136.617931499999941, 36.5344804 ] } },
{ "type": "Feature", "properties": { "内容": "マナの家デイサービス【通所介護】石川県野々市市本町１丁目２１番２号", "url2": "https://www.kaigokensaku.mhlw.go.jp/17/index.php?action_kouhyou_detail_004_kani=true&JigyosyoCd=1771300421-00&ServiceCd=150&Type=search" }, "geometry": { "type": "Point", "coordinates": [ 136.619572628826973, 36.535609900349264 ] } },
{ "type": "Feature", "properties": { "内容": "デイサービスセンター春日和ののいち【通所介護】石川県野々市市粟田5丁目391番地1", "url2": "https://www.kaigokensaku.mhlw.go.jp/17/index.php?action_kouhyou_detail_004_kani=true&JigyosyoCd=1771300710-00&ServiceCd=150&Type=search" }, "geometry": { "type": "Point", "coordinates": [ 136.609491824745191, 36.514942303730876 ] } },
{ "type": "Feature", "properties": { "内容": "デイサービス　野々花【通所介護】石川県野々市市野代1丁目50", "url2": "https://www.kaigokensaku.mhlw.go.jp/17/index.php?action_kouhyou_detail_004_kani=true&JigyosyoCd=1771300959-00&ServiceCd=150&Type=search" }, "geometry": { "type": "Point", "coordinates": [ 136.6041832, 36.5384833 ] } },
{ "type": "Feature", "properties": { "内容": "うめばちあかね【通所介護】石川県野々市市白山町11番4号", "url2": "https://www.kaigokensaku.mhlw.go.jp/17/index.php?action_kouhyou_detail_004_kani=true&JigyosyoCd=1771300843-00&ServiceCd=150&Type=search" }, "geometry": { "type": "Point", "coordinates": [ 136.61165630000005, 36.527595 ] } },
{ "type": "Feature", "properties": { "内容": "金沢脳卒中専門デイサービス【通所介護】野々市市本町１丁目７－３", "url2": "https://www.kaigokensaku.mhlw.go.jp/17/index.php?action_kouhyou_detail_004_kani=true&JigyosyoCd=1771300694-00&ServiceCd=150&Type=search" }, "geometry": { "type": "Point", "coordinates": [ 136.619709, 36.5378384 ] } },
{ "type": "Feature", "properties": { "内容": "デイサービス　そよ風【通所介護】野々市市白山町1-39", "url2": "https://www.kaigokensaku.mhlw.go.jp/17/index.php?action_kouhyou_detail_004_kani=true&JigyosyoCd=1771300561-00&ServiceCd=150&Type=search" }, "geometry": { "type": "Point", "coordinates": [ 136.613990199999989, 36.5284645 ] } },
{ "type": "Feature", "properties": { "内容": "デイサービスセンターかめはうす【通所介護】石川県野々市市三日市１丁目６番地有料老人ホームかめはうす内１階", "url2": "https://www.kaigokensaku.mhlw.go.jp/17/index.php?action_kouhyou_detail_004_kani=true&JigyosyoCd=1771300736-00&ServiceCd=150&Type=search" }, "geometry": { "type": "Point", "coordinates": [ 136.596602800000028, 36.535858 ] } },
{ "type": "Feature", "properties": { "内容": "富樫苑デイサービスセンター【通所介護】石川県野々市市中林4-62", "url2": "https://www.kaigokensaku.mhlw.go.jp/17/index.php?action_kouhyou_detail_004_kani=true&JigyosyoCd=1771300173-00&ServiceCd=150&Type=search" }, "geometry": { "type": "Point", "coordinates": [ 136.600508, 36.5160576 ] } },
{ "type": "Feature", "properties": { "内容": "デイサービスセンター　ぽ～れぽ～れ野々市【通所介護】野々市市粟田５丁目４８６番地ぽ～れぽ～れ野々市", "url2": "https://www.kaigokensaku.mhlw.go.jp/17/index.php?action_kouhyou_detail_004_kani=true&JigyosyoCd=1771300611-00&ServiceCd=150&Type=search" }, "geometry": { "type": "Point", "coordinates": [ 136.607957400000032, 36.5152883 ] } },
{ "type": "Feature", "properties": { "内容": "ケアパートナー野々市【通所介護】野々市市二日市4丁目32番地ロイヤルグランデⅢ", "url2": "https://www.kaigokensaku.mhlw.go.jp/17/index.php?action_kouhyou_detail_004_kani=true&JigyosyoCd=1771300512-00&ServiceCd=150&Type=search" }, "geometry": { "type": "Point", "coordinates": [ 136.598647716567569, 36.537656405926846 ] } },
{ "type": "Feature", "properties": { "内容": "ディサービスセンター　名峰白山【通所介護】粟田3丁目６－１住宅型有料老人ホーム　名峰白山", "url2": "https://www.kaigokensaku.mhlw.go.jp/17/index.php?action_kouhyou_detail_004_kani=true&JigyosyoCd=1771300744-00&ServiceCd=150&Type=search" }, "geometry": { "type": "Point", "coordinates": [ 136.614412300000026, 36.5134968 ] } },
{ "type": "Feature", "properties": { "内容": "リハビリデイサービス太陽のリゾート野々市【通所介護】石川県野々市市徳用1丁目34番地", "url2": "https://www.kaigokensaku.mhlw.go.jp/17/index.php?action_kouhyou_detail_004_kani=true&JigyosyoCd=1771300660-00&ServiceCd=150&Type=search" }, "geometry": { "type": "Point", "coordinates": [ 136.592953200000011, 36.532214 ] } },
{ "type": "Feature", "properties": { "内容": "GGフィットネス野々市【通所介護】石川県野々市市野代1－59野代Ｙ貸事務所", "url2": "https://www.kaigokensaku.mhlw.go.jp/17/index.php?action_kouhyou_detail_004_kani=true&JigyosyoCd=1771300967-00&ServiceCd=150&Type=search" }, "geometry": { "type": "Point", "coordinates": [ 136.603298700000011, 36.5388673 ] } },
{ "type": "Feature", "properties": { "内容": "イオンスマイル野々市店【通所介護】石川県野々市市白山町4-1", "url2": "https://www.kaigokensaku.mhlw.go.jp/17/index.php?action_kouhyou_detail_004_kani=true&JigyosyoCd=1771301049-00&ServiceCd=150&Type=search" }, "geometry": { "type": "Point", "coordinates": [ 136.613950716429912, 36.52741854347363 ] } },
{ "type": "Feature", "properties": { "内容": "川北町デイサービスセンター【通所介護】石川県能美郡川北町字壱ツ屋１９６番地", "url2": "https://www.kaigokensaku.mhlw.go.jp/17/index.php?action_kouhyou_detail_004_kani=true&JigyosyoCd=1771200118-00&ServiceCd=150&Type=search" }, "geometry": { "type": "Point", "coordinates": [ 136.543553400000064, 36.4673548 ] } },
{ "type": "Feature", "properties": { "内容": "すまいる津幡【通所介護】石川県河北郡津幡町字潟端そ3-6", "url2": "https://www.kaigokensaku.mhlw.go.jp/17/index.php?action_kouhyou_detail_004_kani=true&JigyosyoCd=1771400916-00&ServiceCd=150&Type=search" }, "geometry": { "type": "Point", "coordinates": [ 136.711510877909859, 36.646923368505874 ] } },
{ "type": "Feature", "properties": { "内容": "デイサービスセンターみずほガーデン【通所介護】石川県河北郡津幡町字潟端344番地1", "url2": "https://www.kaigokensaku.mhlw.go.jp/17/index.php?action_kouhyou_detail_004_kani=true&JigyosyoCd=1771400866-00&ServiceCd=150&Type=search" }, "geometry": { "type": "Point", "coordinates": [ 136.710669759138483, 36.656626087568483 ] } },
{ "type": "Feature", "properties": { "内容": "JA石川かほくほのぼのデイサービス【通所介護】石川県河北郡津幡町字川尻タ51番地", "url2": "https://www.kaigokensaku.mhlw.go.jp/17/index.php?action_kouhyou_detail_004_kani=true&JigyosyoCd=1771400734-00&ServiceCd=150&Type=search" }, "geometry": { "type": "Point", "coordinates": [ 136.719456600000058, 36.6731737 ] } },
{ "type": "Feature", "properties": { "内容": "デイサービスセンターふぃらーじゅ【通所介護】石川県河北郡津幡町字東荒屋４１３番地", "url2": "https://www.kaigokensaku.mhlw.go.jp/17/index.php?action_kouhyou_detail_004_kani=true&JigyosyoCd=1771400775-00&ServiceCd=150&Type=search" }, "geometry": { "type": "Point", "coordinates": [ 136.750967, 36.6634122 ] } },
{ "type": "Feature", "properties": { "内容": "デイサービスセンター　恵比寿【通所介護】石川県河北郡津幡町字中橋ロ10-1aisumaru　２階", "url2": "https://www.kaigokensaku.mhlw.go.jp/17/index.php?action_kouhyou_detail_004_kani=true&JigyosyoCd=1771400668-00&ServiceCd=150&Type=search" }, "geometry": { "type": "Point", "coordinates": [ 136.723345131907621, 36.672392801919841 ] } },
{ "type": "Feature", "properties": { "内容": "デイサービスセンターあがたの里【通所介護】石川県河北郡津幡町字能瀬イ1番地1あがたの里", "url2": "https://www.kaigokensaku.mhlw.go.jp/17/index.php?action_kouhyou_detail_004_kani=true&JigyosyoCd=1771400148-00&ServiceCd=150&Type=search" }, "geometry": { "type": "Point", "coordinates": [ 136.726180500000027, 36.6895246 ] } },
{ "type": "Feature", "properties": { "内容": "デイサービス姿勢調整フィットネス内灘【通所介護】石川県河北郡内灘町字緑台一丁目306番1ヴィラサンライズ1F", "url2": "https://www.kaigokensaku.mhlw.go.jp/17/index.php?action_kouhyou_detail_004_kani=true&JigyosyoCd=1771400759-00&ServiceCd=150&Type=search" }, "geometry": { "type": "Point", "coordinates": [ 136.630209799999989, 36.636734200000014 ] } },
{ "type": "Feature", "properties": { "内容": "デイサービスセンターみどり【通所介護】石川県河北郡内灘町緑台1丁目5番地", "url2": "https://www.kaigokensaku.mhlw.go.jp/17/index.php?action_kouhyou_detail_004_kani=true&JigyosyoCd=1711410793-00&ServiceCd=150&Type=search" }, "geometry": { "type": "Point", "coordinates": [ 136.631740400000012, 36.6355537 ] } },
{ "type": "Feature", "properties": { "内容": "リハビリステーション金沢きらら【通所介護】石川県河北郡内灘町字向粟崎３丁目４１番地", "url2": "https://www.kaigokensaku.mhlw.go.jp/17/index.php?action_kouhyou_detail_004_kani=true&JigyosyoCd=1771400445-00&ServiceCd=150&Type=search" }, "geometry": { "type": "Point", "coordinates": [ 136.63487, 36.632703 ] } },
{ "type": "Feature", "properties": { "内容": "デイサービスセンターアイリス【通所介護】石川県羽咋郡志賀町給分ニ27番1", "url2": "https://www.kaigokensaku.mhlw.go.jp/17/index.php?action_kouhyou_detail_004_kani=true&JigyosyoCd=1771500418-00&ServiceCd=150&Type=search" }, "geometry": { "type": "Point", "coordinates": [ 136.725939349073798, 37.151150072868177 ] } },
{ "type": "Feature", "properties": { "内容": "はまなす園富来デイサービスセンター【通所介護】石川県羽咋郡志賀町酒見河原51番地", "url2": "https://www.kaigokensaku.mhlw.go.jp/17/index.php?action_kouhyou_detail_004_kani=true&JigyosyoCd=1771500046-00&ServiceCd=150&Type=search" }, "geometry": { "type": "Point", "coordinates": [ 136.701348580395461, 37.152610967770265 ] } },
{ "type": "Feature", "properties": { "内容": "はまなす園デイサービスセンター【通所介護】石川県羽咋郡志賀町赤住ハの４番地１", "url2": "https://www.kaigokensaku.mhlw.go.jp/17/index.php?action_kouhyou_detail_004_kani=true&JigyosyoCd=1771500095-00&ServiceCd=150&Type=search" }, "geometry": { "type": "Point", "coordinates": [ 136.740475400000037, 37.0498217 ] } },
{ "type": "Feature", "properties": { "内容": "志賀町デイサービスセンター【通所介護】石川県羽咋郡志賀町高浜町レの２４番地１", "url2": "https://www.kaigokensaku.mhlw.go.jp/17/index.php?action_kouhyou_detail_004_kani=true&JigyosyoCd=1771500327-00&ServiceCd=150&Type=search" }, "geometry": { "type": "Point", "coordinates": [ 136.772406742057257, 37.007851402490715 ] } },
{ "type": "Feature", "properties": { "内容": "デイサービス　第二宝達苑【通所介護】石川県羽咋郡宝達志水町小川ハ２５０番地", "url2": "https://www.kaigokensaku.mhlw.go.jp/17/index.php?action_kouhyou_detail_004_kani=true&JigyosyoCd=1771500368-00&ServiceCd=150&Type=search" }, "geometry": { "type": "Point", "coordinates": [ 136.758690998672478, 36.821315938960872 ] } },
{ "type": "Feature", "properties": { "内容": "押水デイサービスセンター【通所介護】石川県羽咋郡宝達志水町門前サ１１番地町民センターアステラス内", "url2": "https://www.kaigokensaku.mhlw.go.jp/17/index.php?action_kouhyou_detail_004_kani=true&JigyosyoCd=1771500228-00&ServiceCd=150&Type=search" }, "geometry": { "type": "Point", "coordinates": [ 136.764599071509792, 36.816328308327932 ] } },
{ "type": "Feature", "properties": { "内容": "ＪＡたんぽぽデイサービスセンター【通所介護】石川県羽咋郡宝達志水町子浦そ15－1ＪＡたんぽぽデイサービスセンター", "url2": "https://www.kaigokensaku.mhlw.go.jp/17/index.php?action_kouhyou_detail_004_kani=true&JigyosyoCd=1771500178-00&ServiceCd=150&Type=search" }, "geometry": { "type": "Point", "coordinates": [ 136.798106700000062, 36.8622204 ] } },
{ "type": "Feature", "properties": { "内容": "ちどり園老人デイサービスセンター【通所介護】石川県羽咋郡宝達志水町宿五号１０番地２", "url2": "https://www.kaigokensaku.mhlw.go.jp/17/index.php?action_kouhyou_detail_004_kani=true&JigyosyoCd=1771500111-00&ServiceCd=150&Type=search" }, "geometry": { "type": "Point", "coordinates": [ 136.7756657, 36.8441142 ] } },
{ "type": "Feature", "properties": { "内容": "機能訓練特化型デイサービス　まほろば【通所介護】石川県羽咋郡宝達志水町北川尻参138番地1", "url2": "https://www.kaigokensaku.mhlw.go.jp/17/index.php?action_kouhyou_detail_004_kani=true&JigyosyoCd=1771500400-00&ServiceCd=150&Type=search" }, "geometry": { "type": "Point", "coordinates": [ 136.748072900000011, 36.8023187 ] } },
{ "type": "Feature", "properties": { "内容": "デイサービスセンター鹿寿苑【通所介護】鹿島郡中能登町西馬場エ部56番地", "url2": "https://www.kaigokensaku.mhlw.go.jp/17/index.php?action_kouhyou_detail_004_kani=true&JigyosyoCd=1771600051-00&ServiceCd=150&Type=search" }, "geometry": { "type": "Point", "coordinates": [ 136.887648500000068, 36.9702764 ] } },
{ "type": "Feature", "properties": { "内容": "デイサービスセンターひまわり【通所介護】石川県鹿島郡中能登町能登部上チ部３０番地", "url2": "https://www.kaigokensaku.mhlw.go.jp/17/index.php?action_kouhyou_detail_004_kani=true&JigyosyoCd=1771600226-00&ServiceCd=150&Type=search" }, "geometry": { "type": "Point", "coordinates": [ 136.875772068325801, 36.965945665964142 ] } },
{ "type": "Feature", "properties": { "内容": "ほのぼの通所介護事業所「ほのぼの」【通所介護】石川県鹿島郡中能登町末坂2部33番地1", "url2": "https://www.kaigokensaku.mhlw.go.jp/17/index.php?action_kouhyou_detail_004_kani=true&JigyosyoCd=1771600028-00&ServiceCd=150&Type=search" }, "geometry": { "type": "Point", "coordinates": [ 136.902926752392574, 36.99175666637484 ] } },
{ "type": "Feature", "properties": { "内容": "聖頌園デイサービスセンター【通所介護】鳳珠郡穴水町字岩車6,27の2番地", "url2": "https://www.kaigokensaku.mhlw.go.jp/17/index.php?action_kouhyou_detail_004_kani=true&JigyosyoCd=1771700125-00&ServiceCd=150&Type=search" }, "geometry": { "type": "Point", "coordinates": [ 136.960687199999938, 37.2112538 ] } },
{ "type": "Feature", "properties": { "内容": "（株）まごころ　デイサービスセンター　ささゆりの丘【通所介護】石川県鳳珠郡穴水町字此木1の120番地", "url2": "https://www.kaigokensaku.mhlw.go.jp/17/index.php?action_kouhyou_detail_004_kani=true&JigyosyoCd=1771700398-00&ServiceCd=150&Type=search" }, "geometry": { "type": "Point", "coordinates": [ 136.899939882417414, 37.243163925429677 ] } },
{ "type": "Feature", "properties": { "内容": "清水の里デイサービスセンター穴水【通所介護】石川県鳳珠郡穴水町字宇加川イ142能登清水の里穴水", "url2": "https://www.kaigokensaku.mhlw.go.jp/17/index.php?action_kouhyou_detail_004_kani=true&JigyosyoCd=1771700364-00&ServiceCd=150&Type=search" }, "geometry": { "type": "Point", "coordinates": [ 137.065841200000023, 37.2247802 ] } },
{ "type": "Feature", "properties": { "内容": "藤波デイサービスセンター【通所介護】石川県鳳珠郡能登町字藤波井字４２番地２", "url2": "https://www.kaigokensaku.mhlw.go.jp/17/index.php?action_kouhyou_detail_004_kani=true&JigyosyoCd=1771700117-00&ServiceCd=150&Type=search" }, "geometry": { "type": "Point", "coordinates": [ 137.24452139999994, 37.3532156 ] } },
{ "type": "Feature", "properties": { "内容": "デイサービスセンター　こすもす【通所介護】石川県鳳珠郡能登町字五郎左エ門分藤17番地", "url2": "https://www.kaigokensaku.mhlw.go.jp/17/index.php?action_kouhyou_detail_004_kani=true&JigyosyoCd=1771700174-00&ServiceCd=150&Type=search" }, "geometry": { "type": "Point", "coordinates": [ 137.087284943128935, 37.344793271036323 ] } },
{ "type": "Feature", "properties": { "内容": "第二長寿園　デイサービスセンター【通所介護】鳳珠郡能登町字布浦ノ字１０番地３", "url2": "https://www.kaigokensaku.mhlw.go.jp/17/index.php?action_kouhyou_detail_004_kani=true&JigyosyoCd=1771700265-00&ServiceCd=150&Type=search" }, "geometry": { "type": "Point", "coordinates": [ 137.253179400000022, 37.3449061 ] } }
]
}
