{
"type": "FeatureCollection",
"name": "geo_17_高等専門学校",
"crs": { "type": "name", "properties": { "name": "urn:ogc:def:crs:EPSG::6668" } },
"features": [
{ "type": "Feature", "properties": { "P29_001": "17361", "P29_002": "G117110105578", "P29_003": "16005", "P29_004": "石川工業高等専門学校", "P29_005": "石川県河北郡津幡町字北中条タ1", "P29_006": "1", "P29_007": "0", "P29_008": "00", "P29_009": null }, "geometry": { "type": "Point", "coordinates": [ 136.738815736457951, 36.663519954820259 ] } },
{ "type": "Feature", "properties": { "P29_001": "17212", "P29_002": "G117310105583", "P29_003": "16005", "P29_004": "国際高等専門学校", "P29_005": "石川県金沢市久安2-270", "P29_006": "4", "P29_007": "0", "P29_008": "00", "P29_009": null }, "geometry": { "type": "Point", "coordinates": [ 136.629140179019856, 36.532793699609933 ] } }
]
}
