{
"type": "FeatureCollection",
"name": "geo_17_特定施設入居者生活介護（軽費老人ホーム）",
"crs": { "type": "name", "properties": { "name": "urn:ogc:def:crs:OGC:1.3:CRS84" } },
"features": [
{ "type": "Feature", "properties": { "内容": "軽費老人ホーム　ケアハウス千木の里【特定施設入居者生活介護（軽費老人ホーム）】石川県金沢市千木町ホ4番地1", "url": "https://www.kaigokensaku.mhlw.go.jp/17/index.php?action_kouhyou_detail_004_kani=true&JigyosyoCd=1770100434-00&ServiceCd=332&Type=search", "url2": "http://www.sengi.jp/senginosato/" }, "geometry": { "type": "Point", "coordinates": [ 136.672185399999989, 36.6120048 ] } },
{ "type": "Feature", "properties": { "内容": "ファミリーケア城南【特定施設入居者生活介護（軽費老人ホーム）】金沢市城南1-21-21", "url": "https://www.kaigokensaku.mhlw.go.jp/17/index.php?action_kouhyou_detail_004_kani=true&JigyosyoCd=1770102943-00&ServiceCd=332&Type=search", "url2": "http://www.kyuraku.info/" }, "geometry": { "type": "Point", "coordinates": [ 136.672199718441789, 36.544718225159201 ] } },
{ "type": "Feature", "properties": { "内容": "金沢春日ケアハウス【特定施設入居者生活介護（軽費老人ホーム）】金沢市元菊町20番1号", "url": "https://www.kaigokensaku.mhlw.go.jp/17/index.php?action_kouhyou_detail_004_kani=true&JigyosyoCd=1750180018-00&ServiceCd=332&Type=search", "url2": "http://www.jintikai.com" }, "geometry": { "type": "Point", "coordinates": [ 136.642261100000042, 36.573679 ] } },
{ "type": "Feature", "properties": { "内容": "ケアハウスシニアマインド21【特定施設入居者生活介護（軽費老人ホーム）】石川県金沢市山科町午40番地1", "url": "https://www.kaigokensaku.mhlw.go.jp/17/index.php?action_kouhyou_detail_004_kani=true&JigyosyoCd=1770101960-00&ServiceCd=332&Type=search", "url2": "https://yowakai.jp" }, "geometry": { "type": "Point", "coordinates": [ 136.65257280000003, 36.5271156 ] } },
{ "type": "Feature", "properties": { "内容": "ケアハウス　ローレルハイツ恵寿【特定施設入居者生活介護（軽費老人ホーム）】石川県七尾市富岡町９５番地", "url": "https://www.kaigokensaku.mhlw.go.jp/17/index.php?action_kouhyou_detail_004_kani=true&JigyosyoCd=1770200572-00&ServiceCd=332&Type=search", "url2": "www.tokujyu.jp" }, "geometry": { "type": "Point", "coordinates": [ 136.960707, 37.050201 ] } },
{ "type": "Feature", "properties": { "内容": "ケアハウス和（やわらぎ）【特定施設入居者生活介護（軽費老人ホーム）】加賀市片山津町ム３０番", "url": "https://www.kaigokensaku.mhlw.go.jp/17/index.php?action_kouhyou_detail_004_kani=true&JigyosyoCd=1770600128-00&ServiceCd=332&Type=search", "url2": "https://yawaragi.ne.jp/" }, "geometry": { "type": "Point", "coordinates": [ 136.372761699999955, 36.3435314 ] } },
{ "type": "Feature", "properties": { "内容": "軽費老人ホーム　ケアハウス山代温泉ヴィラ【特定施設入居者生活介護（軽費老人ホーム）】加賀市上野町ケ２４５", "url": "https://www.kaigokensaku.mhlw.go.jp/17/index.php?action_kouhyou_detail_004_kani=true&JigyosyoCd=1770600060-00&ServiceCd=332&Type=search", "url2": "http://www.tokuhoukai.jp/" }, "geometry": { "type": "Point", "coordinates": [ 136.3773294, 36.2929245 ] } },
{ "type": "Feature", "properties": { "内容": "ケアハウス海青【特定施設入居者生活介護（軽費老人ホーム）】石川県かほく市秋浜へ２０番地３ケアハウス海青", "url": "https://www.kaigokensaku.mhlw.go.jp/17/index.php?action_kouhyou_detail_004_kani=true&JigyosyoCd=1772100200-00&ServiceCd=332&Type=search", "url2": "http://www.bijyoukai.net/" }, "geometry": { "type": "Point", "coordinates": [ 136.693139066934265, 36.728028434649453 ] } },
{ "type": "Feature", "properties": { "内容": "ケアハウス鳥越【特定施設入居者生活介護（軽費老人ホーム）】石川県白山市若原町甲86", "url": "https://www.kaigokensaku.mhlw.go.jp/17/index.php?action_kouhyou_detail_004_kani=true&JigyosyoCd=1772200919-00&ServiceCd=332&Type=search", "url2": "http://www.asagaotv.ne.jp/~ketorige/index.html" }, "geometry": { "type": "Point", "coordinates": [ 136.601907399999959, 36.3862024 ] } },
{ "type": "Feature", "properties": { "内容": "ケアハウス　メゾンウルーズ【特定施設入居者生活介護（軽費老人ホーム）】石川県白山市松任駅北相木第2土地区画整理事業施行地区内19街区1ケアハウス　メゾンウルーズ", "url": "https://www.kaigokensaku.mhlw.go.jp/17/index.php?action_kouhyou_detail_004_kani=true&JigyosyoCd=1772201073-00&ServiceCd=332&Type=search", "url2": "https://kihoukai.jp/facilities/#neagari" }, "geometry": { "type": "Point", "coordinates": [ 136.565825291794454, 36.532478804159581 ] } },
{ "type": "Feature", "properties": { "内容": "ケアハウス　キラッと白山【特定施設入居者生活介護（軽費老人ホーム）】石川県白山市美川和波町カ1-3", "url": "https://www.kaigokensaku.mhlw.go.jp/17/index.php?action_kouhyou_detail_004_kani=true&JigyosyoCd=1772200893-00&ServiceCd=332&Type=search", "url2": "http://www.tokuhoukai.jp/" }, "geometry": { "type": "Point", "coordinates": [ 136.487879600000042, 36.491817 ] } },
{ "type": "Feature", "properties": { "内容": "ケアハウス剣崎【特定施設入居者生活介護（軽費老人ホーム）】石川県白山市剣崎町1488番地", "url": "https://www.kaigokensaku.mhlw.go.jp/17/index.php?action_kouhyou_detail_004_kani=true&JigyosyoCd=1772200349-00&ServiceCd=332&Type=search", "url2": "http://www.fukujyukai.jp/" }, "geometry": { "type": "Point", "coordinates": [ 136.56513910000001, 36.4987597 ] } },
{ "type": "Feature", "properties": { "内容": "特定施設・介護予防入居者生活介護　　ケアハウス　メゾン　スワニエ【特定施設入居者生活介護（軽費老人ホーム）】石川県能美市下ノ江町イ207番地ケアハウス　メゾン　スワニエ", "url": "https://www.kaigokensaku.mhlw.go.jp/17/index.php?action_kouhyou_detail_004_kani=true&JigyosyoCd=1772300040-00&ServiceCd=332&Type=search", "url2": "https://kihoukai.jp/" }, "geometry": { "type": "Point", "coordinates": [ 136.453258300000016, 36.4380988 ] } },
{ "type": "Feature", "properties": { "内容": "ケアハウス白帆台【特定施設入居者生活介護（軽費老人ホーム）】石川県河北郡内灘町白帆台1丁目1-5ケアハウス白帆台", "url": "https://www.kaigokensaku.mhlw.go.jp/17/index.php?action_kouhyou_detail_004_kani=true&JigyosyoCd=1771400726-00&ServiceCd=332&Type=search", "url2": "https://www.shirahodai.jp/" }, "geometry": { "type": "Point", "coordinates": [ 136.654340777840389, 36.666258100336449 ] } },
{ "type": "Feature", "properties": { "内容": "ケアハウス縄文【特定施設入居者生活介護（軽費老人ホーム）】石川県鳳珠郡能登町字宇出津新港2-23-1", "url": "https://www.kaigokensaku.mhlw.go.jp/17/index.php?action_kouhyou_detail_004_kani=true&JigyosyoCd=1771700372-00&ServiceCd=332&Type=search", "url2": "htttp://okunotofk.wixsite.com/my-site-1" }, "geometry": { "type": "Point", "coordinates": [ 137.147633300000024, 37.298721899999983 ] } }
]
}
