{
"type": "FeatureCollection",
"name": "geo_17_認知症対応型共同生活介護",
"crs": { "type": "name", "properties": { "name": "urn:ogc:def:crs:OGC:1.3:CRS84" } },
"features": [
{ "type": "Feature", "properties": { "内容": "株式会社　ケアネット千壽【認知症対応型共同生活介護】金沢市小立野４－４－３１", "url": "https://www.kaigokensaku.mhlw.go.jp/17/index.php?action_kouhyou_detail_004_kani=true&JigyosyoCd=1770101713-00&ServiceCd=320&Type=search", "url2": null }, "geometry": { "type": "Point", "coordinates": [ 136.677540200000067, 36.552296 ] } },
{ "type": "Feature", "properties": { "内容": "ぐるーぷほーむ　杜の郷　本多【認知症対応型共同生活介護】石川県金沢市本多町３丁目１１番２３号", "url": "https://www.kaigokensaku.mhlw.go.jp/17/index.php?action_kouhyou_detail_004_kani=true&JigyosyoCd=1770101721-00&ServiceCd=320&Type=search", "url2": null }, "geometry": { "type": "Point", "coordinates": [ 136.658799499999986, 36.5559066 ] } },
{ "type": "Feature", "properties": { "内容": "グループホーム夢の里すみよし【認知症対応型共同生活介護】１－１１－３８", "url": "https://www.kaigokensaku.mhlw.go.jp/17/index.php?action_kouhyou_detail_004_kani=true&JigyosyoCd=1770102331-00&ServiceCd=320&Type=search", "url2": "http://www16.plala.or.jp/kyouseinet/" }, "geometry": { "type": "Point", "coordinates": [ 136.504967099999931, 36.0589648 ] } },
{ "type": "Feature", "properties": { "内容": "老人グループホームこころ【認知症対応型共同生活介護】石川県金沢市御影町21-11", "url": "https://www.kaigokensaku.mhlw.go.jp/17/index.php?action_kouhyou_detail_004_kani=true&JigyosyoCd=1770100947-00&ServiceCd=320&Type=search", "url2": "http://www.okabe-net.jp/kokoro-gh" }, "geometry": { "type": "Point", "coordinates": [ 136.639042300000028, 36.56324690000001 ] } },
{ "type": "Feature", "properties": { "内容": "グループホーム　ひまわり【認知症対応型共同生活介護】金沢市三十苅町丁148番地", "url": "https://www.kaigokensaku.mhlw.go.jp/17/index.php?action_kouhyou_detail_004_kani=true&JigyosyoCd=1770101432-00&ServiceCd=320&Type=search", "url2": null }, "geometry": { "type": "Point", "coordinates": [ 136.6151539, 36.5067976 ] } },
{ "type": "Feature", "properties": { "内容": "グループホーム新保家【認知症対応型共同生活介護】彦三町１丁目１２番３号", "url": "https://www.kaigokensaku.mhlw.go.jp/17/index.php?action_kouhyou_detail_004_kani=true&JigyosyoCd=1770102471-00&ServiceCd=320&Type=search", "url2": "http://www.shinboya.com" }, "geometry": { "type": "Point", "coordinates": [ 136.660234250664473, 36.575585625370927 ] } },
{ "type": "Feature", "properties": { "内容": "医療法人社団　仁智会【認知症対応型共同生活介護】金沢市神宮寺2丁目12番12号", "url": "https://www.kaigokensaku.mhlw.go.jp/17/index.php?action_kouhyou_detail_004_kani=true&JigyosyoCd=1770101192-00&ServiceCd=320&Type=search", "url2": "http://www.jintikai.com" }, "geometry": { "type": "Point", "coordinates": [ 136.668528299999906, 36.5877247 ] } },
{ "type": "Feature", "properties": { "内容": "group-Home五番丁【認知症対応型共同生活介護】金沢市茨木町64番地", "url": "https://www.kaigokensaku.mhlw.go.jp/17/index.php?action_kouhyou_detail_004_kani=true&JigyosyoCd=1770102463-00&ServiceCd=320&Type=search", "url2": "http://www.bijyoukai.net/" }, "geometry": { "type": "Point", "coordinates": [ 136.657082899999978, 36.557212 ] } },
{ "type": "Feature", "properties": { "内容": "グループホーム桜丘【認知症対応型共同生活介護】金沢市鳴和台318番地", "url": "https://www.kaigokensaku.mhlw.go.jp/17/index.php?action_kouhyou_detail_004_kani=true&JigyosyoCd=1770102299-00&ServiceCd=320&Type=search", "url2": "https://dream21-group.com" }, "geometry": { "type": "Point", "coordinates": [ 136.67925020000007, 36.5781706 ] } },
{ "type": "Feature", "properties": { "内容": "グループホームよりそい【認知症対応型共同生活介護】石川県金沢市千木1丁目36番地", "url": "https://www.kaigokensaku.mhlw.go.jp/17/index.php?action_kouhyou_detail_004_kani=true&JigyosyoCd=1770101630-00&ServiceCd=320&Type=search", "url2": "https://www.kanazawa-fukushi.co.jp/" }, "geometry": { "type": "Point", "coordinates": [ 136.671294, 36.6054446 ] } },
{ "type": "Feature", "properties": { "内容": "グループホーム　レインボー2【認知症対応型共同生活介護】入江2丁目210", "url": "https://www.kaigokensaku.mhlw.go.jp/17/index.php?action_kouhyou_detail_004_kani=true&JigyosyoCd=1770101598-00&ServiceCd=320&Type=search", "url2": "http://www.hk-rainbou.co.jp/" }, "geometry": { "type": "Point", "coordinates": [ 136.627523500000052, 36.5652047 ] } },
{ "type": "Feature", "properties": { "内容": "イエローガーデン有松【認知症対応型共同生活介護】金沢市有松２丁目４番１０号", "url": "https://www.kaigokensaku.mhlw.go.jp/17/index.php?action_kouhyou_detail_004_kani=true&JigyosyoCd=1770101689-00&ServiceCd=320&Type=search", "url2": "http://www.ryg.jp/" }, "geometry": { "type": "Point", "coordinates": [ 136.640309699999989, 36.5428494 ] } },
{ "type": "Feature", "properties": { "内容": "グループホーム花園の里【認知症対応型共同生活介護】金沢市岸川町に２０番地", "url": "https://www.kaigokensaku.mhlw.go.jp/17/index.php?action_kouhyou_detail_004_kani=true&JigyosyoCd=1770101671-00&ServiceCd=320&Type=search", "url2": "http://www.welfare-dream21.com/" }, "geometry": { "type": "Point", "coordinates": [ 136.711601074868781, 36.638553046072545 ] } },
{ "type": "Feature", "properties": { "内容": "グループホーム　おんぼらーと【認知症対応型共同生活介護】金沢市浅野本町2-23-21", "url": "https://www.kaigokensaku.mhlw.go.jp/17/index.php?action_kouhyou_detail_004_kani=true&JigyosyoCd=1770101523-00&ServiceCd=320&Type=search", "url2": "http://ishi-kinikyo.net/onborat/" }, "geometry": { "type": "Point", "coordinates": [ 136.660962299999937, 36.5853166 ] } },
{ "type": "Feature", "properties": { "内容": "グループホーム　なでしこの丘【認知症対応型共同生活介護】金沢市馬替2丁目7番1号", "url": "https://www.kaigokensaku.mhlw.go.jp/17/index.php?action_kouhyou_detail_004_kani=true&JigyosyoCd=1770101580-00&ServiceCd=320&Type=search", "url2": "https://www.nadesikonooka.jp/group_n/index.html" }, "geometry": { "type": "Point", "coordinates": [ 136.621781100000021, 36.5247733 ] } },
{ "type": "Feature", "properties": { "内容": "ホームあさぎり台【認知症対応型共同生活介護】田上本町テ55-5", "url": "https://www.kaigokensaku.mhlw.go.jp/17/index.php?action_kouhyou_detail_004_kani=true&JigyosyoCd=1790100133-00&ServiceCd=320&Type=search", "url2": "http://m-aiiku.jp/asagiridai/" }, "geometry": { "type": "Point", "coordinates": [ 136.6933616, 36.5311738 ] } },
{ "type": "Feature", "properties": { "内容": "新竪縁【認知症対応型共同生活介護】金沢市下本多町五番丁１４番地", "url": "https://www.kaigokensaku.mhlw.go.jp/17/index.php?action_kouhyou_detail_004_kani=true&JigyosyoCd=1790100331-00&ServiceCd=320&Type=search", "url2": "shintateen@bijyoukai.net" }, "geometry": { "type": "Point", "coordinates": [ 136.658390224606364, 36.556795599664646 ] } },
{ "type": "Feature", "properties": { "内容": "グループホーム元菊【認知症対応型共同生活介護】金沢市元菊町20番1号", "url": "https://www.kaigokensaku.mhlw.go.jp/17/index.php?action_kouhyou_detail_004_kani=true&JigyosyoCd=1790100034-00&ServiceCd=320&Type=search", "url2": "http://www.jintikai.com" }, "geometry": { "type": "Point", "coordinates": [ 136.642261100000042, 36.573679 ] } },
{ "type": "Feature", "properties": { "内容": "グループホーム　田上さくらの里【認知症対応型共同生活介護】石川県金沢市田上さくら1丁目123番地", "url": "https://www.kaigokensaku.mhlw.go.jp/17/index.php?action_kouhyou_detail_004_kani=true&JigyosyoCd=1790100844-00&ServiceCd=320&Type=search", "url2": "http//houjyunoda.jp" }, "geometry": { "type": "Point", "coordinates": [ 136.690331300000025, 36.5422833 ] } },
{ "type": "Feature", "properties": { "内容": "グループホーム大桑【認知症対応型共同生活介護】金沢市大桑２丁目２５０番地", "url": "https://www.kaigokensaku.mhlw.go.jp/17/index.php?action_kouhyou_detail_004_kani=true&JigyosyoCd=1790100083-00&ServiceCd=320&Type=search", "url2": "https://www.dream21-group.com" }, "geometry": { "type": "Point", "coordinates": [ 136.674713099999963, 36.5357535 ] } },
{ "type": "Feature", "properties": { "内容": "グループホーム　あんのん山科【認知症対応型共同生活介護】金沢市窪6丁目141番1", "url": "https://www.kaigokensaku.mhlw.go.jp/17/index.php?action_kouhyou_detail_004_kani=true&JigyosyoCd=1790100349-00&ServiceCd=320&Type=search", "url2": "http://www.hosphy.jp" }, "geometry": { "type": "Point", "coordinates": [ 136.645329, 36.528018 ] } },
{ "type": "Feature", "properties": { "内容": "伏見台ふれあいの家【認知症対応型共同生活介護】金沢市伏見台1丁目14番30号伏見台ふれあいの家", "url": "https://www.kaigokensaku.mhlw.go.jp/17/index.php?action_kouhyou_detail_004_kani=true&JigyosyoCd=1790100372-00&ServiceCd=320&Type=search", "url2": "http://kanazawa-shika.net/fureai.html" }, "geometry": { "type": "Point", "coordinates": [ 136.639337899999987, 36.5341588 ] } },
{ "type": "Feature", "properties": { "内容": "グループホームほたる直江【認知症対応型共同生活介護】石川県金沢市直江東1丁目48番地", "url": "https://www.kaigokensaku.mhlw.go.jp/17/index.php?action_kouhyou_detail_004_kani=true&JigyosyoCd=1790101339-00&ServiceCd=320&Type=search", "url2": "https://hotaru-home.com" }, "geometry": { "type": "Point", "coordinates": [ 136.637047670639049, 36.613817347807206 ] } },
{ "type": "Feature", "properties": { "内容": "高齢者グループホーム愛蓮【認知症対応型共同生活介護】石川県金沢市平和町3丁目14番地8", "url": "https://www.kaigokensaku.mhlw.go.jp/17/index.php?action_kouhyou_detail_004_kani=true&JigyosyoCd=1790100513-00&ServiceCd=320&Type=search", "url2": "https://www.swc-alicefukushikai.com/" }, "geometry": { "type": "Point", "coordinates": [ 136.66431004896549, 36.540285770286829 ] } },
{ "type": "Feature", "properties": { "内容": "グループホームめぐみ【認知症対応型共同生活介護】金沢市彦三町２丁目６番１３号ロイヤルハイム彦三　１階", "url": "https://www.kaigokensaku.mhlw.go.jp/17/index.php?action_kouhyou_detail_004_kani=true&JigyosyoCd=1790100091-00&ServiceCd=320&Type=search", "url2": "g.h-megumi@orion.ocn.ne.jp" }, "geometry": { "type": "Point", "coordinates": [ 136.657271300000048, 36.575082 ] } },
{ "type": "Feature", "properties": { "内容": "グループホーム駅西【認知症対応型共同生活介護】金沢市駅西新町2丁目12番1号", "url": "https://www.kaigokensaku.mhlw.go.jp/17/index.php?action_kouhyou_detail_004_kani=true&JigyosyoCd=1790100042-00&ServiceCd=320&Type=search", "url2": "http://www.jintikai.com" }, "geometry": { "type": "Point", "coordinates": [ 136.638852300000053, 36.5949927 ] } },
{ "type": "Feature", "properties": { "内容": "グループホーム西南縁【認知症対応型共同生活介護】石川県金沢市新保本２丁目４８４番地", "url": "https://www.kaigokensaku.mhlw.go.jp/17/index.php?action_kouhyou_detail_004_kani=true&JigyosyoCd=1790100588-00&ServiceCd=320&Type=search", "url2": "https://www.goodrelate.com" }, "geometry": { "type": "Point", "coordinates": [ 136.603168200000027, 36.5534476 ] } },
{ "type": "Feature", "properties": { "内容": "グループホーム　太陽のプリズム窪【認知症対応型共同生活介護】金沢市窪６－１６", "url": "https://www.kaigokensaku.mhlw.go.jp/17/index.php?action_kouhyou_detail_004_kani=true&JigyosyoCd=1790100273-00&ServiceCd=320&Type=search", "url2": null }, "geometry": { "type": "Point", "coordinates": [ 136.644759600000043, 36.5276208 ] } },
{ "type": "Feature", "properties": { "内容": "グループホームめぐみ黒田【認知症対応型共同生活介護】金沢市黒田１丁目２９１番地", "url": "https://www.kaigokensaku.mhlw.go.jp/17/index.php?action_kouhyou_detail_004_kani=true&JigyosyoCd=1790100216-00&ServiceCd=320&Type=search", "url2": "http://www.megumiikuroda-ishikawa.com" }, "geometry": { "type": "Point", "coordinates": [ 136.611014, 36.5653128 ] } },
{ "type": "Feature", "properties": { "内容": "さくらガーデンもりやま【認知症対応型共同生活介護】石川県金沢市森山2丁目19番13号", "url": "https://www.kaigokensaku.mhlw.go.jp/17/index.php?action_kouhyou_detail_004_kani=true&JigyosyoCd=1790100539-00&ServiceCd=320&Type=search", "url2": "http://www.sakuragarden-m.com" }, "geometry": { "type": "Point", "coordinates": [ 136.666628800000012, 36.5788537 ] } },
{ "type": "Feature", "properties": { "内容": "ハッピーホームわりだし【認知症対応型共同生活介護】石川県金沢市割出町450番地１", "url": "https://www.kaigokensaku.mhlw.go.jp/17/index.php?action_kouhyou_detail_004_kani=true&JigyosyoCd=1790100521-00&ServiceCd=320&Type=search", "url2": "https://www.ghhh-h.jp/" }, "geometry": { "type": "Point", "coordinates": [ 136.641938, 36.6031139 ] } },
{ "type": "Feature", "properties": { "内容": "グループホームほたる寺地【認知症対応型共同生活介護】石川県金沢市寺地1丁目22番12号", "url": "https://www.kaigokensaku.mhlw.go.jp/17/index.php?action_kouhyou_detail_004_kani=true&JigyosyoCd=1790100869-00&ServiceCd=320&Type=search", "url2": "www.hotaru-home.com" }, "geometry": { "type": "Point", "coordinates": [ 136.640972689024352, 36.535385751266674 ] } },
{ "type": "Feature", "properties": { "内容": "サンケア東長江【認知症対応型共同生活介護】石川県金沢市東長江町へ13番地1", "url": "https://www.kaigokensaku.mhlw.go.jp/17/index.php?action_kouhyou_detail_004_kani=true&JigyosyoCd=1790101099-00&ServiceCd=320&Type=search", "url2": "http://www.suncare-life.com" }, "geometry": { "type": "Point", "coordinates": [ 136.692599047029518, 36.575920903357357 ] } },
{ "type": "Feature", "properties": { "内容": "グループホーム　ゆとりの園【認知症対応型共同生活介護】金沢市糸田１丁目１４２番地", "url": "https://www.kaigokensaku.mhlw.go.jp/17/index.php?action_kouhyou_detail_004_kani=true&JigyosyoCd=1790100299-00&ServiceCd=320&Type=search", "url2": "http://www.yutorinosono.com" }, "geometry": { "type": "Point", "coordinates": [ 136.626412800000026, 36.5582111 ] } },
{ "type": "Feature", "properties": { "内容": "itosieグループホーム【認知症対応型共同生活介護】石川県金沢市粟崎町二3番地１", "url": "https://www.kaigokensaku.mhlw.go.jp/17/index.php?action_kouhyou_detail_004_kani=true&JigyosyoCd=1790100562-00&ServiceCd=320&Type=search", "url2": "https://www.itosie.jp/" }, "geometry": { "type": "Point", "coordinates": [ 136.626904471272297, 36.621450047569439 ] } },
{ "type": "Feature", "properties": { "内容": "グループホーム　暁【認知症対応型共同生活介護】神谷内町チ162-1", "url": "https://www.kaigokensaku.mhlw.go.jp/17/index.php?action_kouhyou_detail_004_kani=true&JigyosyoCd=1790100315-00&ServiceCd=320&Type=search", "url2": "http://me-c.jp" }, "geometry": { "type": "Point", "coordinates": [ 136.686767730688388, 36.598504334688599 ] } },
{ "type": "Feature", "properties": { "内容": "古都の家【認知症対応型共同生活介護】金沢市材木町6番18-2号", "url": "https://www.kaigokensaku.mhlw.go.jp/17/index.php?action_kouhyou_detail_004_kani=true&JigyosyoCd=1790100117-00&ServiceCd=320&Type=search", "url2": "http://www.kyuraku.info/index.php" }, "geometry": { "type": "Point", "coordinates": [ 136.6672959, 36.5678524 ] } },
{ "type": "Feature", "properties": { "内容": "大桑の家【認知症対応型共同生活介護】金沢市大桑2丁目339番地", "url": "https://www.kaigokensaku.mhlw.go.jp/17/index.php?action_kouhyou_detail_004_kani=true&JigyosyoCd=1790100190-00&ServiceCd=320&Type=search", "url2": "https://ookuwanoie.com/" }, "geometry": { "type": "Point", "coordinates": [ 136.674846399999979, 36.5349731 ] } },
{ "type": "Feature", "properties": { "内容": "ぐる～ぷほ～む笠市【認知症対応型共同生活介護】石川県金沢市笠市町11-19", "url": "https://www.kaigokensaku.mhlw.go.jp/17/index.php?action_kouhyou_detail_004_kani=true&JigyosyoCd=1790100612-00&ServiceCd=320&Type=search", "url2": "https://kasaichi.care-trust.net/" }, "geometry": { "type": "Point", "coordinates": [ 136.6562659, 36.5786115 ] } },
{ "type": "Feature", "properties": { "内容": "サンケア木越【認知症対応型共同生活介護】石川県金沢市木越町レ31番地1", "url": "https://www.kaigokensaku.mhlw.go.jp/17/index.php?action_kouhyou_detail_004_kani=true&JigyosyoCd=1790100158-00&ServiceCd=320&Type=search", "url2": "http://ｗｗｗ.suncare-life.com" }, "geometry": { "type": "Point", "coordinates": [ 136.657739484566093, 36.62204058523055 ] } },
{ "type": "Feature", "properties": { "内容": "グループホーム花小町もろえ【認知症対応型共同生活介護】石川県金沢市諸江町中丁１５４－１", "url": "https://www.kaigokensaku.mhlw.go.jp/17/index.php?action_kouhyou_detail_004_kani=true&JigyosyoCd=1790100497-00&ServiceCd=320&Type=search", "url2": "http://www.hanamokuren.com/index.html" }, "geometry": { "type": "Point", "coordinates": [ 136.645132500000045, 36.5953816 ] } },
{ "type": "Feature", "properties": { "内容": "グループホーム　あさひ【認知症対応型共同生活介護】石川県金沢市薬師堂町ロ8番地1～２階　表札　No１～９", "url": "https://www.kaigokensaku.mhlw.go.jp/17/index.php?action_kouhyou_detail_004_kani=true&JigyosyoCd=1790100067-00&ServiceCd=320&Type=search", "url2": null }, "geometry": { "type": "Point", "coordinates": [ 136.629675600000041, 36.578092 ] } },
{ "type": "Feature", "properties": { "内容": "グループホーム遊子苑ながた【認知症対応型共同生活介護】石川県金沢市長田本町ホ14番地１", "url": "https://www.kaigokensaku.mhlw.go.jp/17/index.php?action_kouhyou_detail_004_kani=true&JigyosyoCd=1790100323-00&ServiceCd=320&Type=search", "url2": "http://care-net.biz/test/17/yuushien/" }, "geometry": { "type": "Point", "coordinates": [ 136.637336399999981, 36.5749371 ] } },
{ "type": "Feature", "properties": { "内容": "グループホームゆうけあ相河　弐番館【認知症対応型共同生活介護】石川県金沢市西泉６丁目135番地", "url": "https://www.kaigokensaku.mhlw.go.jp/17/index.php?action_kouhyou_detail_004_kani=true&JigyosyoCd=1790101081-00&ServiceCd=320&Type=search", "url2": "http://you-care-aiko.jp" }, "geometry": { "type": "Point", "coordinates": [ 136.627602200000013, 36.5537723 ] } },
{ "type": "Feature", "properties": { "内容": "グループホーム　ゆうけあ相河【認知症対応型共同生活介護】石川県金沢市西泉6丁目134番地", "url": "https://www.kaigokensaku.mhlw.go.jp/17/index.php?action_kouhyou_detail_004_kani=true&JigyosyoCd=1790100240-00&ServiceCd=320&Type=search", "url2": "https://you-care-aiko.jp/" }, "geometry": { "type": "Point", "coordinates": [ 136.626850141000403, 36.554638697211637 ] } },
{ "type": "Feature", "properties": { "内容": "グループホームみらい【認知症対応型共同生活介護】石川県金沢市西都2丁目141番地", "url": "https://www.kaigokensaku.mhlw.go.jp/17/index.php?action_kouhyou_detail_004_kani=true&JigyosyoCd=1790101040-00&ServiceCd=320&Type=search", "url2": null }, "geometry": { "type": "Point", "coordinates": [ 136.625295875959949, 36.589976039927045 ] } },
{ "type": "Feature", "properties": { "内容": "おんまの里【認知症対応型共同生活介護】石川県金沢市大桑1丁目169番地", "url": "https://www.kaigokensaku.mhlw.go.jp/17/index.php?action_kouhyou_detail_004_kani=true&JigyosyoCd=1790100554-00&ServiceCd=320&Type=search", "url2": "https://ookuwanoie.com/" }, "geometry": { "type": "Point", "coordinates": [ 136.678397189163206, 36.532868341652403 ] } },
{ "type": "Feature", "properties": { "内容": "コープいしかわグループホーム戸板【認知症対応型共同生活介護】石川県金沢市戸板2丁目73番地", "url": "https://www.kaigokensaku.mhlw.go.jp/17/index.php?action_kouhyou_detail_004_kani=true&JigyosyoCd=1790100570-00&ServiceCd=320&Type=search", "url2": "http://www.coop-ishikawa.or.jp" }, "geometry": { "type": "Point", "coordinates": [ 136.623950702255229, 36.580126338554734 ] } },
{ "type": "Feature", "properties": { "内容": "グループホーム・小規模多機能居宅介護かないわ【認知症対応型共同生活介護】金沢市金石北1丁目19-16", "url": "https://www.kaigokensaku.mhlw.go.jp/17/index.php?action_kouhyou_detail_004_kani=true&JigyosyoCd=1790100224-00&ServiceCd=320&Type=search", "url2": "kanaiwa-gh.knh.or.jp" }, "geometry": { "type": "Point", "coordinates": [ 136.599380099999962, 36.6040658 ] } },
{ "type": "Feature", "properties": { "内容": "グループホームひきだ【認知症対応型共同生活介護】石川県金沢市疋田3丁目58番地", "url": "https://www.kaigokensaku.mhlw.go.jp/17/index.php?action_kouhyou_detail_004_kani=true&JigyosyoCd=1790100885-00&ServiceCd=320&Type=search", "url2": "http://sengi.jp/fukushisogo-hikida/" }, "geometry": { "type": "Point", "coordinates": [ 136.67308, 36.6040337 ] } },
{ "type": "Feature", "properties": { "内容": "グループホーム　ぽ～れぽ～れ四十万【認知症対応型共同生活介護】金沢市四十万５丁目１２２番地", "url": "https://www.kaigokensaku.mhlw.go.jp/17/index.php?action_kouhyou_detail_004_kani=true&JigyosyoCd=1790100281-00&ServiceCd=320&Type=search", "url2": "http://pole-pore.jp/" }, "geometry": { "type": "Point", "coordinates": [ 136.615981599999941, 36.505283899999966 ] } },
{ "type": "Feature", "properties": { "内容": "イエローガーデン【認知症対応型共同生活介護】金沢市上荒屋１丁目２７５", "url": "https://www.kaigokensaku.mhlw.go.jp/17/index.php?action_kouhyou_detail_004_kani=true&JigyosyoCd=1770101408-00&ServiceCd=320&Type=search", "url2": "http://www.ryg.jp" }, "geometry": { "type": "Point", "coordinates": [ 136.593452699999943, 36.548126 ] } },
{ "type": "Feature", "properties": { "内容": "グループホーム有松【認知症対応型共同生活介護】石川県金沢市有松2丁目4番32号", "url": "https://www.kaigokensaku.mhlw.go.jp/17/index.php?action_kouhyou_detail_004_kani=true&JigyosyoCd=1790101362-00&ServiceCd=320&Type=search", "url2": "http://fureai-town.com" }, "geometry": { "type": "Point", "coordinates": [ 136.639459499999987, 36.542602400000014 ] } },
{ "type": "Feature", "properties": { "内容": "グループホーム　ひと息【認知症対応型共同生活介護】七尾市赤浦町カー34", "url": "https://www.kaigokensaku.mhlw.go.jp/17/index.php?action_kouhyou_detail_004_kani=true&JigyosyoCd=1770200234-00&ServiceCd=320&Type=search", "url2": null }, "geometry": { "type": "Point", "coordinates": [ 136.934523099999979, 37.0544522 ] } },
{ "type": "Feature", "properties": { "内容": "グループホーム菜の花・七尾【認知症対応型共同生活介護】矢田町参号184番地2", "url": "https://www.kaigokensaku.mhlw.go.jp/17/index.php?action_kouhyou_detail_004_kani=true&JigyosyoCd=1770200192-00&ServiceCd=320&Type=search", "url2": null }, "geometry": { "type": "Point", "coordinates": [ 135.580816599999906, 35.0081642 ] } },
{ "type": "Feature", "properties": { "内容": "グループホームいがわの里【認知症対応型共同生活介護】石川県七尾市飯川町４５-３５-１", "url": "https://www.kaigokensaku.mhlw.go.jp/17/index.php?action_kouhyou_detail_004_kani=true&JigyosyoCd=1770200408-00&ServiceCd=320&Type=search", "url2": null }, "geometry": { "type": "Point", "coordinates": [ 136.9369054, 37.0056607 ] } },
{ "type": "Feature", "properties": { "内容": "グループホームひかり【認知症対応型共同生活介護】田鶴浜る部88番1", "url": "https://www.kaigokensaku.mhlw.go.jp/17/index.php?action_kouhyou_detail_004_kani=true&JigyosyoCd=1770200309-00&ServiceCd=320&Type=search", "url2": null }, "geometry": { "type": "Point", "coordinates": [ 136.883103600000027, 37.0634103 ] } },
{ "type": "Feature", "properties": { "内容": "グループホーム　熊木山荘【認知症対応型共同生活介護】石川県七尾市中島町浜田ロ部１１番地５", "url": "https://www.kaigokensaku.mhlw.go.jp/17/index.php?action_kouhyou_detail_004_kani=true&JigyosyoCd=1770200291-00&ServiceCd=320&Type=search", "url2": null }, "geometry": { "type": "Point", "coordinates": [ 136.846296754912771, 37.114924999189078 ] } },
{ "type": "Feature", "properties": { "内容": "グループほーむ楓の家【認知症対応型共同生活介護】七尾市南が丘町64番地", "url": "https://www.kaigokensaku.mhlw.go.jp/17/index.php?action_kouhyou_detail_004_kani=true&JigyosyoCd=1770200218-00&ServiceCd=320&Type=search", "url2": "http://www.kaedenoie.jp" }, "geometry": { "type": "Point", "coordinates": [ 136.963971500000071, 37.019671 ] } },
{ "type": "Feature", "properties": { "内容": "グループホーム　やくしの里【認知症対応型共同生活介護】石川県七尾市黒崎町ヲ部109番地", "url": "https://www.kaigokensaku.mhlw.go.jp/17/index.php?action_kouhyou_detail_004_kani=true&JigyosyoCd=1790200032-00&ServiceCd=320&Type=search", "url2": "http://enyama-hp.jp/senju/" }, "geometry": { "type": "Point", "coordinates": [ 137.049424823942587, 36.981648177737483 ] } },
{ "type": "Feature", "properties": { "内容": "グループほーむ沙羅の郷【認知症対応型共同生活介護】石川県七尾市能登島曲町壱参9番地甲", "url": "https://www.kaigokensaku.mhlw.go.jp/17/index.php?action_kouhyou_detail_004_kani=true&JigyosyoCd=1790200099-00&ServiceCd=320&Type=search", "url2": "http://www.saranosato.com/" }, "geometry": { "type": "Point", "coordinates": [ 136.9883274, 37.1414969 ] } },
{ "type": "Feature", "properties": { "内容": "グループホーム　こうさか【認知症対応型共同生活介護】相生町72番地グルーープホーム　こうさか", "url": "https://www.kaigokensaku.mhlw.go.jp/17/index.php?action_kouhyou_detail_004_kani=true&JigyosyoCd=1790200115-00&ServiceCd=320&Type=search", "url2": null }, "geometry": { "type": "Point", "coordinates": [ 136.967611728836118, 37.044001248083802 ] } },
{ "type": "Feature", "properties": { "内容": "グループホーム　まだら園【認知症対応型共同生活介護】石川県小松市福乃宮町2丁目97番地", "url": "https://www.kaigokensaku.mhlw.go.jp/17/index.php?action_kouhyou_detail_004_kani=true&JigyosyoCd=1750380170-00&ServiceCd=320&Type=search", "url2": null }, "geometry": { "type": "Point", "coordinates": [ 136.456545399999982, 36.3905743 ] } },
{ "type": "Feature", "properties": { "内容": "グループホームとも【認知症対応型共同生活介護】小松市野田町丙110-1", "url": "https://www.kaigokensaku.mhlw.go.jp/17/index.php?action_kouhyou_detail_004_kani=true&JigyosyoCd=1770300091-00&ServiceCd=320&Type=search", "url2": "https://www.dayservicetomo.com" }, "geometry": { "type": "Point", "coordinates": [ 136.4791904, 36.4285116 ] } },
{ "type": "Feature", "properties": { "内容": "グループホームあたかの郷【認知症対応型共同生活介護】石川県小松市安宅町ル１番地２９", "url": "https://www.kaigokensaku.mhlw.go.jp/17/index.php?action_kouhyou_detail_004_kani=true&JigyosyoCd=1770300059-00&ServiceCd=320&Type=search", "url2": "http://www.asahikai.net/" }, "geometry": { "type": "Point", "coordinates": [ 136.423728100000062, 36.4248444 ] } },
{ "type": "Feature", "properties": { "内容": "グループホームセラピィ粟津【認知症対応型共同生活介護】石川県小松市矢田野町ホ１３２", "url": "https://www.kaigokensaku.mhlw.go.jp/17/index.php?action_kouhyou_detail_004_kani=true&JigyosyoCd=1770300265-00&ServiceCd=320&Type=search", "url2": "https://choureikai/com" }, "geometry": { "type": "Point", "coordinates": [ 136.424977799999965, 36.3505118 ] } },
{ "type": "Feature", "properties": { "内容": "医療法人社団　和楽仁　グループホーム陽らら【認知症対応型共同生活介護】石川県小松市西町134番地", "url": "https://www.kaigokensaku.mhlw.go.jp/17/index.php?action_kouhyou_detail_004_kani=true&JigyosyoCd=1710312008-00&ServiceCd=320&Type=search", "url2": "http://www.houju.or.jp" }, "geometry": { "type": "Point", "coordinates": [ 136.448459800000052, 36.405605 ] } },
{ "type": "Feature", "properties": { "内容": "グループホーム自生園ひらんて【認知症対応型共同生活介護】石川県小松市平面町ト26番地", "url": "https://www.kaigokensaku.mhlw.go.jp/17/index.php?action_kouhyou_detail_004_kani=true&JigyosyoCd=1770300042-00&ServiceCd=320&Type=search", "url2": "https://jishoen.com/" }, "geometry": { "type": "Point", "coordinates": [ 136.464847100000043, 36.4161403 ] } },
{ "type": "Feature", "properties": { "内容": "グループホームやたの【認知症対応型共同生活介護】矢田野町イ８番地", "url": "https://www.kaigokensaku.mhlw.go.jp/17/index.php?action_kouhyou_detail_004_kani=true&JigyosyoCd=1770300380-00&ServiceCd=320&Type=search", "url2": "http://www.kyouyuukai.net/" }, "geometry": { "type": "Point", "coordinates": [ 136.420258900000022, 36.3415326 ] } },
{ "type": "Feature", "properties": { "内容": "グループホーム　長寿上小松【認知症対応型共同生活介護】石川県小松市上小松町丙41-1", "url": "https://www.kaigokensaku.mhlw.go.jp/17/index.php?action_kouhyou_detail_004_kani=true&JigyosyoCd=1790300253-00&ServiceCd=320&Type=search", "url2": "https://www.tyouju.co.jp" }, "geometry": { "type": "Point", "coordinates": [ 136.4642534, 36.4078799 ] } },
{ "type": "Feature", "properties": { "内容": "グループホームいきいき長寿【認知症対応型共同生活介護】小松市梯町ト1－6グループホームいきいき長寿", "url": "https://www.kaigokensaku.mhlw.go.jp/17/index.php?action_kouhyou_detail_004_kani=true&JigyosyoCd=1790300147-00&ServiceCd=320&Type=search", "url2": "info@tyouju.co.jp" }, "geometry": { "type": "Point", "coordinates": [ 136.45438379999996, 36.4191999 ] } },
{ "type": "Feature", "properties": { "内容": "松寿園グループホームそよ風【認知症対応型共同生活介護】向本折町ホ３１番地", "url": "https://www.kaigokensaku.mhlw.go.jp/17/index.php?action_kouhyou_detail_004_kani=true&JigyosyoCd=1790300154-00&ServiceCd=320&Type=search", "url2": "https://syoujyuen.jp/" }, "geometry": { "type": "Point", "coordinates": [ 136.43974419999995, 36.3968306 ] } },
{ "type": "Feature", "properties": { "内容": "グループホーム　さとやま【認知症対応型共同生活介護】石川県小松市西軽海町1丁目48番地", "url": "https://www.kaigokensaku.mhlw.go.jp/17/index.php?action_kouhyou_detail_004_kani=true&JigyosyoCd=1790300113-00&ServiceCd=320&Type=search", "url2": "http://mukaide.jp/" }, "geometry": { "type": "Point", "coordinates": [ 136.500368145368981, 36.398189075688641 ] } },
{ "type": "Feature", "properties": { "内容": "グループホームわくわく長寿【認知症対応型共同生活介護】符津町カ24番地1", "url": "https://www.kaigokensaku.mhlw.go.jp/17/index.php?action_kouhyou_detail_004_kani=true&JigyosyoCd=1790300220-00&ServiceCd=320&Type=search", "url2": "https://www.tyouju.co.jp/" }, "geometry": { "type": "Point", "coordinates": [ 136.431424769311548, 36.358905640312415 ] } },
{ "type": "Feature", "properties": { "内容": "グループホーム　ひなたぼっこ【認知症対応型共同生活介護】輪島市山本町矢本前17番地2", "url": "https://www.kaigokensaku.mhlw.go.jp/17/index.php?action_kouhyou_detail_004_kani=true&JigyosyoCd=1770400073-00&ServiceCd=320&Type=search", "url2": "https://www.hinatabokkowajima.jimdo.com" }, "geometry": { "type": "Point", "coordinates": [ 136.8764013, 37.3769766 ] } },
{ "type": "Feature", "properties": { "内容": "グループほーむ　もんぜん楓の家【認知症対応型共同生活介護】輪島市門前町道下よ25番地", "url": "https://www.kaigokensaku.mhlw.go.jp/17/index.php?action_kouhyou_detail_004_kani=true&JigyosyoCd=1790400046-00&ServiceCd=320&Type=search", "url2": "http://www.kaedenoie.jp" }, "geometry": { "type": "Point", "coordinates": [ 136.755864651945387, 37.290866376248488 ] } },
{ "type": "Feature", "properties": { "内容": "グループホーム　まちのの里【認知症対応型共同生活介護】石川県輪島市町野町寺地１０２７番地", "url": "https://www.kaigokensaku.mhlw.go.jp/17/index.php?action_kouhyou_detail_004_kani=true&JigyosyoCd=1790400095-00&ServiceCd=320&Type=search", "url2": null }, "geometry": { "type": "Point", "coordinates": [ 137.08687690516814, 37.434916870860157 ] } },
{ "type": "Feature", "properties": { "内容": "グループホーム　倫【認知症対応型共同生活介護】石川県珠洲市三崎町小泊ト部４番１", "url": "https://www.kaigokensaku.mhlw.go.jp/17/index.php?action_kouhyou_detail_004_kani=true&JigyosyoCd=1790500035-00&ServiceCd=320&Type=search", "url2": null }, "geometry": { "type": "Point", "coordinates": [ 137.357877300000041, 37.4492144 ] } },
{ "type": "Feature", "properties": { "内容": "グループホーム　とうほうの里【認知症対応型共同生活介護】石川県珠洲市宝立町宗玄２４－２－１", "url": "https://www.kaigokensaku.mhlw.go.jp/17/index.php?action_kouhyou_detail_004_kani=true&JigyosyoCd=1770500096-00&ServiceCd=320&Type=search", "url2": null }, "geometry": { "type": "Point", "coordinates": [ 137.237684700000045, 37.377287 ] } },
{ "type": "Feature", "properties": { "内容": "しらさぎ苑グループホーム【認知症対応型共同生活介護】石川県加賀市山中温泉長谷田町チ17-1", "url": "https://www.kaigokensaku.mhlw.go.jp/17/index.php?action_kouhyou_detail_004_kani=true&JigyosyoCd=1750680215-00&ServiceCd=320&Type=search", "url2": "http://www.tokuhoukai.jp" }, "geometry": { "type": "Point", "coordinates": [ 136.361171, 36.2677826 ] } },
{ "type": "Feature", "properties": { "内容": "加賀中央グループホーム【認知症対応型共同生活介護】石川県加賀市山田町蛇谷1-16", "url": "https://www.kaigokensaku.mhlw.go.jp/17/index.php?action_kouhyou_detail_004_kani=true&JigyosyoCd=1770600052-00&ServiceCd=320&Type=search", "url2": "http://www.tokuhoukai.jp/facility/02-05/" }, "geometry": { "type": "Point", "coordinates": [ 136.334483336106842, 36.326205050162784 ] } },
{ "type": "Feature", "properties": { "内容": "グループホームまどい【認知症対応型共同生活介護】直下町イ３２の１", "url": "https://www.kaigokensaku.mhlw.go.jp/17/index.php?action_kouhyou_detail_004_kani=true&JigyosyoCd=1770600102-00&ServiceCd=320&Type=search", "url2": "http://www.kaganozomien.jp/" }, "geometry": { "type": "Point", "coordinates": [ 136.322263300000031, 36.2862015 ] } },
{ "type": "Feature", "properties": { "内容": "高齢者グループホーム　いこいの家【認知症対応型共同生活介護】石川県加賀市山代温泉11の108番地2", "url": "https://www.kaigokensaku.mhlw.go.jp/17/index.php?action_kouhyou_detail_004_kani=true&JigyosyoCd=1770600144-00&ServiceCd=320&Type=search", "url2": "http://www.kaganozomien.jp/service/ikoi.html" }, "geometry": { "type": "Point", "coordinates": [ 136.354123800000025, 36.2880578 ] } },
{ "type": "Feature", "properties": { "内容": "グループホーム　いろり【認知症対応型共同生活介護】加賀市幸町1丁目14番地", "url": "https://www.kaigokensaku.mhlw.go.jp/17/index.php?action_kouhyou_detail_004_kani=true&JigyosyoCd=1770600078-00&ServiceCd=320&Type=search", "url2": "https://chokyuhukushi.jp/" }, "geometry": { "type": "Point", "coordinates": [ 136.316724199999953, 36.3013995 ] } },
{ "type": "Feature", "properties": { "内容": "篤寿苑グループホーム【認知症対応型共同生活介護】石川県加賀市上野町ケ245", "url": "https://www.kaigokensaku.mhlw.go.jp/17/index.php?action_kouhyou_detail_004_kani=true&JigyosyoCd=1770600060-00&ServiceCd=320&Type=search", "url2": "http：//www.tokuhoukai.jp" }, "geometry": { "type": "Point", "coordinates": [ 136.3771744, 36.2929185 ] } },
{ "type": "Feature", "properties": { "内容": "グループホーム片山津【認知症対応型共同生活介護】加賀市片山津温泉ア96番地1", "url": "https://www.kaigokensaku.mhlw.go.jp/17/index.php?action_kouhyou_detail_004_kani=true&JigyosyoCd=1770600177-00&ServiceCd=320&Type=search", "url2": "http://www.tokuhoukai.jp" }, "geometry": { "type": "Point", "coordinates": [ 136.363810949737484, 36.348844700283777 ] } },
{ "type": "Feature", "properties": { "内容": "ぬくもりの里【認知症対応型共同生活介護】石川県加賀市片山津町北118番地", "url": "https://www.kaigokensaku.mhlw.go.jp/17/index.php?action_kouhyou_detail_004_kani=true&JigyosyoCd=1770600169-00&ServiceCd=320&Type=search", "url2": null }, "geometry": { "type": "Point", "coordinates": [ 136.372725, 36.3412237 ] } },
{ "type": "Feature", "properties": { "内容": "グループホーム葵の園・東町【認知症対応型共同生活介護】加賀市大聖寺東町2-21", "url": "https://www.kaigokensaku.mhlw.go.jp/17/index.php?action_kouhyou_detail_004_kani=true&JigyosyoCd=1770600268-00&ServiceCd=320&Type=search", "url2": "http://www.aoikai.jp/" }, "geometry": { "type": "Point", "coordinates": [ 136.319623155923864, 36.304913155189411 ] } },
{ "type": "Feature", "properties": { "内容": "グループホーム葵の園・じざい【認知症対応型共同生活介護】冨塚町中尾1-23", "url": "https://www.kaigokensaku.mhlw.go.jp/17/index.php?action_kouhyou_detail_004_kani=true&JigyosyoCd=1790600215-00&ServiceCd=320&Type=search", "url2": "http://www.aoikai.jp/" }, "geometry": { "type": "Point", "coordinates": [ 136.361985299999986, 36.3349605 ] } },
{ "type": "Feature", "properties": { "内容": "グループホーム桜の園【認知症対応型共同生活介護】石川県加賀市松が丘１丁目１５番地１５", "url": "https://www.kaigokensaku.mhlw.go.jp/17/index.php?action_kouhyou_detail_004_kani=true&JigyosyoCd=1770600243-00&ServiceCd=320&Type=search", "url2": "http://www.shibuyagroup.jp/sakura/sindex.html" }, "geometry": { "type": "Point", "coordinates": [ 136.34487630000001, 36.323856 ] } },
{ "type": "Feature", "properties": { "内容": "グループホームつなぐる山中【認知症対応型共同生活介護】石川県加賀市山中温泉長谷田町リ386番地", "url": "https://www.kaigokensaku.mhlw.go.jp/17/index.php?action_kouhyou_detail_004_kani=true&JigyosyoCd=1790600413-00&ServiceCd=320&Type=search", "url2": "https://suzuki-kenko.jp" }, "geometry": { "type": "Point", "coordinates": [ 136.3610086, 36.2641439 ] } },
{ "type": "Feature", "properties": { "内容": "株式会社さくらさくら【認知症対応型共同生活介護】石川県羽咋市東川原町古川田２３－１", "url": "https://www.kaigokensaku.mhlw.go.jp/17/index.php?action_kouhyou_detail_004_kani=true&JigyosyoCd=1790700098-00&ServiceCd=320&Type=search", "url2": null }, "geometry": { "type": "Point", "coordinates": [ 136.787211899999988, 36.8969427 ] } },
{ "type": "Feature", "properties": { "内容": "グループほーむ　はくい楓の家【認知症対応型共同生活介護】羽咋市寺家町テ48番地1", "url": "https://www.kaigokensaku.mhlw.go.jp/17/index.php?action_kouhyou_detail_004_kani=true&JigyosyoCd=1790700064-00&ServiceCd=320&Type=search", "url2": "http://www.kaedenoie.jp" }, "geometry": { "type": "Point", "coordinates": [ 136.768670082092285, 36.927493016206654 ] } },
{ "type": "Feature", "properties": { "内容": "ぐるーぷほーむ　福の神【認知症対応型共同生活介護】石川県羽咋市四柳町つ１７番地", "url": "https://www.kaigokensaku.mhlw.go.jp/17/index.php?action_kouhyou_detail_004_kani=true&JigyosyoCd=1790700080-00&ServiceCd=320&Type=search", "url2": "http://www.swkouwa.com" }, "geometry": { "type": "Point", "coordinates": [ 136.857936500000051, 36.9337234 ] } },
{ "type": "Feature", "properties": { "内容": "グループホーム　わたぼうし【認知症対応型共同生活介護】石川県羽咋市福水町ろ３３番１", "url": "https://www.kaigokensaku.mhlw.go.jp/17/index.php?action_kouhyou_detail_004_kani=true&JigyosyoCd=1770700167-00&ServiceCd=320&Type=search", "url2": null }, "geometry": { "type": "Point", "coordinates": [ 136.834456664417985, 36.885636087819023 ] } },
{ "type": "Feature", "properties": { "内容": "グループホーム　学園台【認知症対応型共同生活介護】石川県かほく市学園台5丁目66番地", "url": "https://www.kaigokensaku.mhlw.go.jp/17/index.php?action_kouhyou_detail_004_kani=true&JigyosyoCd=1792100032-00&ServiceCd=320&Type=search", "url2": null }, "geometry": { "type": "Point", "coordinates": [ 136.731508299999973, 36.7811824 ] } },
{ "type": "Feature", "properties": { "内容": "グループホームあいおい【認知症対応型共同生活介護】石川県かほく市宇気イ51番地1高齢者複合施設あいおい　3階", "url": "https://www.kaigokensaku.mhlw.go.jp/17/index.php?action_kouhyou_detail_004_kani=true&JigyosyoCd=1792100065-00&ServiceCd=320&Type=search", "url2": null }, "geometry": { "type": "Point", "coordinates": [ 136.712945, 36.7355823 ] } },
{ "type": "Feature", "properties": { "内容": "グループホーム　芙蓉【認知症対応型共同生活介護】石川県かほく市二ツ屋ソ103番地3グループホーム芙蓉", "url": "https://www.kaigokensaku.mhlw.go.jp/17/index.php?action_kouhyou_detail_004_kani=true&JigyosyoCd=1772100010-00&ServiceCd=320&Type=search", "url2": "https://f-kotobukien.jp" }, "geometry": { "type": "Point", "coordinates": [ 136.7390677, 36.7860544 ] } },
{ "type": "Feature", "properties": { "内容": "ハートフルデイズかほく【認知症対応型共同生活介護】石川県かほく市宇野気ロ23-2", "url": "https://www.kaigokensaku.mhlw.go.jp/17/index.php?action_kouhyou_detail_004_kani=true&JigyosyoCd=1772100176-00&ServiceCd=320&Type=search", "url2": null }, "geometry": { "type": "Point", "coordinates": [ 136.703417301177979, 36.710906196111075 ] } },
{ "type": "Feature", "properties": { "内容": "グループホーム　たかまつ【認知症対応型共同生活介護】中沼ル113-1", "url": "https://www.kaigokensaku.mhlw.go.jp/17/index.php?action_kouhyou_detail_004_kani=true&JigyosyoCd=1772100077-00&ServiceCd=320&Type=search", "url2": null }, "geometry": { "type": "Point", "coordinates": [ 136.742549100000019, 36.7791021 ] } },
{ "type": "Feature", "properties": { "内容": "グループホームおもしろ荘【認知症対応型共同生活介護】石川県かほく市秋浜ロ11-1", "url": "https://www.kaigokensaku.mhlw.go.jp/17/index.php?action_kouhyou_detail_004_kani=true&JigyosyoCd=1772100069-00&ServiceCd=320&Type=search", "url2": null }, "geometry": { "type": "Point", "coordinates": [ 136.701904900000045, 36.7277695 ] } },
{ "type": "Feature", "properties": { "内容": "グループホームたから【認知症対応型共同生活介護】石川県かほく市白尾ナ42番地1", "url": "https://www.kaigokensaku.mhlw.go.jp/17/index.php?action_kouhyou_detail_004_kani=true&JigyosyoCd=1772100101-00&ServiceCd=320&Type=search", "url2": "http://nakamura-takara.com/" }, "geometry": { "type": "Point", "coordinates": [ 136.6903678, 36.7129851 ] } },
{ "type": "Feature", "properties": { "内容": "グループホームかほくの郷【認知症対応型共同生活介護】石川県かほく市高松ム74-5", "url": "https://www.kaigokensaku.mhlw.go.jp/17/index.php?action_kouhyou_detail_004_kani=true&JigyosyoCd=1792100099-00&ServiceCd=320&Type=search", "url2": "http://care-net.biz/17/kahokucare" }, "geometry": { "type": "Point", "coordinates": [ 136.7246833, 36.7707385 ] } },
{ "type": "Feature", "properties": { "内容": "認知症高齢者グループホーム　　ほほえみホーム【認知症対応型共同生活介護】石川県白山市米永町303番地5", "url": "https://www.kaigokensaku.mhlw.go.jp/17/index.php?action_kouhyou_detail_004_kani=true&JigyosyoCd=1752280055-00&ServiceCd=320&Type=search", "url2": "http://www.hakusankai.jp/" }, "geometry": { "type": "Point", "coordinates": [ 136.542629499999947, 36.5156066 ] } },
{ "type": "Feature", "properties": { "内容": "ぐるーぷほーむ　暖暖【認知症対応型共同生活介護】石川県白山市北安田町５３８０番地", "url": "https://www.kaigokensaku.mhlw.go.jp/17/index.php?action_kouhyou_detail_004_kani=true&JigyosyoCd=1792200014-00&ServiceCd=320&Type=search", "url2": "https://yowakai.jp" }, "geometry": { "type": "Point", "coordinates": [ 136.547601100000094, 36.5221864 ] } },
{ "type": "Feature", "properties": { "内容": "ぐる～ぷほ～む源兵島【認知症対応型共同生活介護】石川県白山市源兵島町967", "url": "https://www.kaigokensaku.mhlw.go.jp/17/index.php?action_kouhyou_detail_004_kani=true&JigyosyoCd=1792200154-00&ServiceCd=320&Type=search", "url2": "https://genpeijima.care-trust.net/" }, "geometry": { "type": "Point", "coordinates": [ 136.519193050708964, 36.487284197092386 ] } },
{ "type": "Feature", "properties": { "内容": "グループホームほたる横江【認知症対応型共同生活介護】石川県白山市横江町48番地１", "url": "https://www.kaigokensaku.mhlw.go.jp/17/index.php?action_kouhyou_detail_004_kani=true&JigyosyoCd=1792200170-00&ServiceCd=320&Type=search", "url2": "hotaru-home.com" }, "geometry": { "type": "Point", "coordinates": [ 136.591613768817126, 36.542068864783481 ] } },
{ "type": "Feature", "properties": { "内容": "白山ぬくもりホーム【認知症対応型共同生活介護】石川県白山市八ツ矢町124番地1", "url": "https://www.kaigokensaku.mhlw.go.jp/17/index.php?action_kouhyou_detail_004_kani=true&JigyosyoCd=1792200105-00&ServiceCd=320&Type=search", "url2": null }, "geometry": { "type": "Point", "coordinates": [ 136.570358706607067, 36.527599285086083 ] } },
{ "type": "Feature", "properties": { "内容": "太陽のプリズム徳光【認知症対応型共同生活介護】石川県白山市徳光町2665番17グループホーム太陽のプリズム徳光", "url": "https://www.kaigokensaku.mhlw.go.jp/17/index.php?action_kouhyou_detail_004_kani=true&JigyosyoCd=1792200147-00&ServiceCd=320&Type=search", "url2": "https://sunwels.jp/service/facilities/prism_tokumitsu/index.html" }, "geometry": { "type": "Point", "coordinates": [ 136.530160600000045, 36.5360222 ] } },
{ "type": "Feature", "properties": { "内容": "グループホーム遊子苑【認知症対応型共同生活介護】石川県白山市乙丸町484番2", "url": "https://www.kaigokensaku.mhlw.go.jp/17/index.php?action_kouhyou_detail_004_kani=true&JigyosyoCd=1772200109-00&ServiceCd=320&Type=search", "url2": "http://care-net.biz/17/yuushien/" }, "geometry": { "type": "Point", "coordinates": [ 136.57664079999995, 36.5006289 ] } },
{ "type": "Feature", "properties": { "内容": "グループホームほたる【認知症対応型共同生活介護】石同新町155番地", "url": "https://www.kaigokensaku.mhlw.go.jp/17/index.php?action_kouhyou_detail_004_kani=true&JigyosyoCd=1772200083-00&ServiceCd=320&Type=search", "url2": "www.hotaru-home.com" }, "geometry": { "type": "Point", "coordinates": [ 136.569918799999982, 36.5221233 ] } },
{ "type": "Feature", "properties": { "内容": "グループホーム共永【認知症対応型共同生活介護】白山市上野町東９５番地１", "url": "https://www.kaigokensaku.mhlw.go.jp/17/index.php?action_kouhyou_detail_004_kani=true&JigyosyoCd=1772200240-00&ServiceCd=320&Type=search", "url2": null }, "geometry": { "type": "Point", "coordinates": [ 136.607754200000045, 36.3744234 ] } },
{ "type": "Feature", "properties": { "内容": "グループホーム　くろゆり【認知症対応型共同生活介護】石川県白山市吉野東2-1", "url": "https://www.kaigokensaku.mhlw.go.jp/17/index.php?action_kouhyou_detail_004_kani=true&JigyosyoCd=1772200232-00&ServiceCd=320&Type=search", "url2": null }, "geometry": { "type": "Point", "coordinates": [ 136.6262, 36.3510078 ] } },
{ "type": "Feature", "properties": { "内容": "グループホーム　ぼたん【認知症対応型共同生活介護】石川県白山市明島町西１１５－３", "url": "https://www.kaigokensaku.mhlw.go.jp/17/index.php?action_kouhyou_detail_004_kani=true&JigyosyoCd=1772200364-00&ServiceCd=320&Type=search", "url2": "http://www.sion-botan.com" }, "geometry": { "type": "Point", "coordinates": [ 136.603197300000033, 36.4684972 ] } },
{ "type": "Feature", "properties": { "内容": "グループホーム　キラッと篤寿苑【認知症対応型共同生活介護】白山市平加町ヌ110-1", "url": "https://www.kaigokensaku.mhlw.go.jp/17/index.php?action_kouhyou_detail_004_kani=true&JigyosyoCd=1772200133-00&ServiceCd=320&Type=search", "url2": "http://www.tokuhoukai.jp/" }, "geometry": { "type": "Point", "coordinates": [ 136.489871274343869, 36.493558326532096 ] } },
{ "type": "Feature", "properties": { "内容": "グループホーム野の花【認知症対応型共同生活介護】石川県白山市今平町111番地1", "url": "https://www.kaigokensaku.mhlw.go.jp/17/index.php?action_kouhyou_detail_004_kani=true&JigyosyoCd=1792200188-00&ServiceCd=320&Type=search", "url2": null }, "geometry": { "type": "Point", "coordinates": [ 136.577766929608174, 36.497945996524535 ] } },
{ "type": "Feature", "properties": { "内容": "グループホームほたる田中【認知症対応型共同生活介護】石川県白山市田中町818番地", "url": "https://www.kaigokensaku.mhlw.go.jp/17/index.php?action_kouhyou_detail_004_kani=true&JigyosyoCd=1792200238-00&ServiceCd=320&Type=search", "url2": "hotaru-home.com" }, "geometry": { "type": "Point", "coordinates": [ 136.589382108358819, 36.529647871673774 ] } },
{ "type": "Feature", "properties": { "内容": "グループホームあいけむ【認知症対応型共同生活介護】石川県白山市宮保町１１６０番地４", "url": "https://www.kaigokensaku.mhlw.go.jp/17/index.php?action_kouhyou_detail_004_kani=true&JigyosyoCd=1792200162-00&ServiceCd=320&Type=search", "url2": null }, "geometry": { "type": "Point", "coordinates": [ 136.534699700000033, 36.5139508 ] } },
{ "type": "Feature", "properties": { "内容": "ハッピーホーム【認知症対応型共同生活介護】松が岡1-14", "url": "https://www.kaigokensaku.mhlw.go.jp/17/index.php?action_kouhyou_detail_004_kani=true&JigyosyoCd=1772300123-00&ServiceCd=320&Type=search", "url2": "http://www.ghhh-h.jp" }, "geometry": { "type": "Point", "coordinates": [ 136.530080199999929, 36.4403882 ] } },
{ "type": "Feature", "properties": { "内容": "ぐるーぷほーむ杜の郷あさがお【認知症対応型共同生活介護】石川県能美市寺井町ニ28番地1", "url": "https://www.kaigokensaku.mhlw.go.jp/17/index.php?action_kouhyou_detail_004_kani=true&JigyosyoCd=1792300194-00&ServiceCd=320&Type=search", "url2": "https://goodstation.co.jp" }, "geometry": { "type": "Point", "coordinates": [ 136.501634599999988, 36.4448685 ] } },
{ "type": "Feature", "properties": { "内容": "ぐるーぷほーむ杜の郷能美つつじ【認知症対応型共同生活介護】石川県能美市寺井町ニ28-1", "url": "https://www.kaigokensaku.mhlw.go.jp/17/index.php?action_kouhyou_detail_004_kani=true&JigyosyoCd=1792300095-00&ServiceCd=320&Type=search", "url2": "https://goodstation.co.jp/company" }, "geometry": { "type": "Point", "coordinates": [ 136.5016716, 36.4449166 ] } },
{ "type": "Feature", "properties": { "内容": "グループホーム　ゆず【認知症対応型共同生活介護】石川県能美市火釜町リ１番８", "url": "https://www.kaigokensaku.mhlw.go.jp/17/index.php?action_kouhyou_detail_004_kani=true&JigyosyoCd=1792300103-00&ServiceCd=320&Type=search", "url2": null }, "geometry": { "type": "Point", "coordinates": [ 136.560416, 36.449313 ] } },
{ "type": "Feature", "properties": { "内容": "グループホーム金さん銀さん【認知症対応型共同生活介護】石川県能美市西二口町丙27番地", "url": "https://www.kaigokensaku.mhlw.go.jp/17/index.php?action_kouhyou_detail_004_kani=true&JigyosyoCd=1792300061-00&ServiceCd=320&Type=search", "url2": "http://idagroupde.biz/" }, "geometry": { "type": "Point", "coordinates": [ 136.469101499999965, 36.4483075 ] } },
{ "type": "Feature", "properties": { "内容": "ぐるうぷほうむ杜の郷てらい【認知症対応型共同生活介護】石川県能美市寺井町二31-1", "url": "https://www.kaigokensaku.mhlw.go.jp/17/index.php?action_kouhyou_detail_004_kani=true&JigyosyoCd=1792300111-00&ServiceCd=320&Type=search", "url2": "https://goodstation.co.jp" }, "geometry": { "type": "Point", "coordinates": [ 136.49353629999996, 36.437381 ] } },
{ "type": "Feature", "properties": { "内容": "有限会社　花街道【認知症対応型共同生活介護】能美市泉台町西50番地", "url": "https://www.kaigokensaku.mhlw.go.jp/17/index.php?action_kouhyou_detail_004_kani=true&JigyosyoCd=1772300131-00&ServiceCd=320&Type=search", "url2": null }, "geometry": { "type": "Point", "coordinates": [ 136.5199165, 36.4311059 ] } },
{ "type": "Feature", "properties": { "内容": "ぐるーぷほーむ杜の郷能美【認知症対応型共同生活介護】能美市寺井町二28番地1", "url": "https://www.kaigokensaku.mhlw.go.jp/17/index.php?action_kouhyou_detail_004_kani=true&JigyosyoCd=1772300248-00&ServiceCd=320&Type=search", "url2": "http://morinosato-nomi.at.webry.info/" }, "geometry": { "type": "Point", "coordinates": [ 136.501663, 36.4449496 ] } },
{ "type": "Feature", "properties": { "内容": "グループホーム　ゆうゆう能美【認知症対応型共同生活介護】山口町へ５２番地３", "url": "https://www.kaigokensaku.mhlw.go.jp/17/index.php?action_kouhyou_detail_004_kani=true&JigyosyoCd=1772300230-00&ServiceCd=320&Type=search", "url2": null }, "geometry": { "type": "Point", "coordinates": [ 136.436746099999937, 36.4338295 ] } },
{ "type": "Feature", "properties": { "内容": "ぐるーぷほーむ杜の郷秋桜【認知症対応型共同生活介護】石川県能美市寺井町ニ２０番地", "url": "https://www.kaigokensaku.mhlw.go.jp/17/index.php?action_kouhyou_detail_004_kani=true&JigyosyoCd=1792300202-00&ServiceCd=320&Type=search", "url2": "http://goodstation.co.jp" }, "geometry": { "type": "Point", "coordinates": [ 136.4990917, 36.4415583 ] } },
{ "type": "Feature", "properties": { "内容": "グループホーム　あんのん【認知症対応型共同生活介護】石川県野々市市新庄2丁目14番地", "url": "https://www.kaigokensaku.mhlw.go.jp/17/index.php?action_kouhyou_detail_004_kani=true&JigyosyoCd=1751380088-00&ServiceCd=320&Type=search", "url2": "http://youwakai.jp" }, "geometry": { "type": "Point", "coordinates": [ 136.610620899999986, 36.4975899 ] } },
{ "type": "Feature", "properties": { "内容": "グループホーム　めいりんの里【認知症対応型共同生活介護】石川県野々市市下林３丁目２８０番地", "url": "https://www.kaigokensaku.mhlw.go.jp/17/index.php?action_kouhyou_detail_004_kani=true&JigyosyoCd=1791300013-00&ServiceCd=320&Type=search", "url2": "http//houjyunoda.jp" }, "geometry": { "type": "Point", "coordinates": [ 136.600730200000044, 36.5229457 ] } },
{ "type": "Feature", "properties": { "内容": "イエローガーデン野々市【認知症対応型共同生活介護】石川県野々市市柳町36番2", "url": "https://www.kaigokensaku.mhlw.go.jp/17/index.php?action_kouhyou_detail_004_kani=true&JigyosyoCd=1771300454-00&ServiceCd=320&Type=search", "url2": "https://tensyo-g.com/" }, "geometry": { "type": "Point", "coordinates": [ 136.584446410650855, 36.528499943251717 ] } },
{ "type": "Feature", "properties": { "内容": "グループホーム　つつじ【認知症対応型共同生活介護】石川県河北郡津幡町字川尻ツ１０１番", "url": "https://www.kaigokensaku.mhlw.go.jp/17/index.php?action_kouhyou_detail_004_kani=true&JigyosyoCd=1791400011-00&ServiceCd=320&Type=search", "url2": null }, "geometry": { "type": "Point", "coordinates": [ 136.714168200000017, 36.6732758 ] } },
{ "type": "Feature", "properties": { "内容": "ぐるーぷほーむかえで【認知症対応型共同生活介護】字横浜ほ14番２", "url": "https://www.kaigokensaku.mhlw.go.jp/17/index.php?action_kouhyou_detail_004_kani=true&JigyosyoCd=1771400312-00&ServiceCd=320&Type=search", "url2": null }, "geometry": { "type": "Point", "coordinates": [ 136.729605499999934, 36.665927 ] } },
{ "type": "Feature", "properties": { "内容": "グループホーム愛の風【認知症対応型共同生活介護】石川県河北郡津幡町字倉見カ１９９番地３グループホーム愛の風", "url": "https://www.kaigokensaku.mhlw.go.jp/17/index.php?action_kouhyou_detail_004_kani=true&JigyosyoCd=1771400395-00&ServiceCd=320&Type=search", "url2": "https://ai-no-kaze.com" }, "geometry": { "type": "Point", "coordinates": [ 136.7545911, 36.6719718 ] } },
{ "type": "Feature", "properties": { "内容": "グループホームかたばたの里【認知症対応型共同生活介護】河北郡津幡町字潟端つ5番地8", "url": "https://www.kaigokensaku.mhlw.go.jp/17/index.php?action_kouhyou_detail_004_kani=true&JigyosyoCd=1771400387-00&ServiceCd=320&Type=search", "url2": "http://www.katabatanosato.jp" }, "geometry": { "type": "Point", "coordinates": [ 136.708739400000013, 36.6451178 ] } },
{ "type": "Feature", "properties": { "内容": "グループホームつばた【認知症対応型共同生活介護】河北郡津幡町字太田ろ１４４番地２", "url": "https://www.kaigokensaku.mhlw.go.jp/17/index.php?action_kouhyou_detail_004_kani=true&JigyosyoCd=1771400403-00&ServiceCd=320&Type=search", "url2": "group-home.1.2.SUN@orion.com.ne.jp" }, "geometry": { "type": "Point", "coordinates": [ 136.7164272, 36.6516867 ] } },
{ "type": "Feature", "properties": { "内容": "グループホームつばた福老園【認知症対応型共同生活介護】石川県河北郡津幡町字潟端つ5番地8", "url": "https://www.kaigokensaku.mhlw.go.jp/17/index.php?action_kouhyou_detail_004_kani=true&JigyosyoCd=1771400452-00&ServiceCd=320&Type=search", "url2": "http://www.katabatanosato.jp" }, "geometry": { "type": "Point", "coordinates": [ 136.708739400000013, 36.6451178 ] } },
{ "type": "Feature", "properties": { "内容": "グループホーム庄の里【認知症対応型共同生活介護】河北郡津幡町庄ニ69番地", "url": "https://www.kaigokensaku.mhlw.go.jp/17/index.php?action_kouhyou_detail_004_kani=true&JigyosyoCd=1771400379-00&ServiceCd=320&Type=search", "url2": "https://www.dream21-group.com/" }, "geometry": { "type": "Point", "coordinates": [ 136.7249974, 36.6746287 ] } },
{ "type": "Feature", "properties": { "内容": "グループホーム１・２・SUN【認知症対応型共同生活介護】石川県河北郡津幡町字太田ろ１２８番地", "url": "https://www.kaigokensaku.mhlw.go.jp/17/index.php?action_kouhyou_detail_004_kani=true&JigyosyoCd=1771400270-00&ServiceCd=320&Type=search", "url2": "group-home.1.2.sun@orion.com.ne.jp" }, "geometry": { "type": "Point", "coordinates": [ 136.7168117, 36.651882 ] } },
{ "type": "Feature", "properties": { "内容": "あすなろ【認知症対応型共同生活介護】石川県河北郡津幡町御門ろ64-2", "url": "https://www.kaigokensaku.mhlw.go.jp/17/index.php?action_kouhyou_detail_004_kani=true&JigyosyoCd=1771400411-00&ServiceCd=320&Type=search", "url2": null }, "geometry": { "type": "Point", "coordinates": [ 136.735165599999959, 36.6971406 ] } },
{ "type": "Feature", "properties": { "内容": "グループホームみんなの杜【認知症対応型共同生活介護】石川県河北郡内灘町向陽台２丁目２６７番地", "url": "https://www.kaigokensaku.mhlw.go.jp/17/index.php?action_kouhyou_detail_004_kani=true&JigyosyoCd=1791400144-00&ServiceCd=320&Type=search", "url2": "https://seikonomori.com" }, "geometry": { "type": "Point", "coordinates": [ 136.635409500000037, 36.6406254 ] } },
{ "type": "Feature", "properties": { "内容": "グループホーム白帆台【認知症対応型共同生活介護】白帆台２丁目422番地", "url": "https://www.kaigokensaku.mhlw.go.jp/17/index.php?action_kouhyou_detail_004_kani=true&JigyosyoCd=1791400045-00&ServiceCd=320&Type=search", "url2": "yuu-shirahodai@eco.ocn.ne.jp" }, "geometry": { "type": "Point", "coordinates": [ 136.6618264, 36.6774911 ] } },
{ "type": "Feature", "properties": { "内容": "グループホーム華【認知症対応型共同生活介護】河北郡内灘町大根布1丁目98番地", "url": "https://www.kaigokensaku.mhlw.go.jp/17/index.php?action_kouhyou_detail_004_kani=true&JigyosyoCd=1771400502-00&ServiceCd=320&Type=search", "url2": "eight-con.jp" }, "geometry": { "type": "Point", "coordinates": [ 136.647436299999981, 36.6497191 ] } },
{ "type": "Feature", "properties": { "内容": "グループホーム遊子苑うちなだ【認知症対応型共同生活介護】石川県河北郡内灘町大根布５丁目40番地", "url": "https://www.kaigokensaku.mhlw.go.jp/17/index.php?action_kouhyou_detail_004_kani=true&JigyosyoCd=1771400510-00&ServiceCd=320&Type=search", "url2": "https://care-net.biz/17/yuushien/index.html" }, "geometry": { "type": "Point", "coordinates": [ 136.6516701, 36.656054 ] } },
{ "type": "Feature", "properties": { "内容": "グループホームあかり【認知症対応型共同生活介護】河北郡内灘町千鳥台2丁目190番地", "url": "https://www.kaigokensaku.mhlw.go.jp/17/index.php?action_kouhyou_detail_004_kani=true&JigyosyoCd=1771400478-00&ServiceCd=320&Type=search", "url2": "http://grouphome-akari.com" }, "geometry": { "type": "Point", "coordinates": [ 136.632518, 36.6418141 ] } },
{ "type": "Feature", "properties": { "内容": "イエローガーデン内灘【認知症対応型共同生活介護】河北郡内灘町千鳥台３丁目２０１番地１８", "url": "https://www.kaigokensaku.mhlw.go.jp/17/index.php?action_kouhyou_detail_004_kani=true&JigyosyoCd=1791400037-00&ServiceCd=320&Type=search", "url2": null }, "geometry": { "type": "Point", "coordinates": [ 136.62711, 36.640553 ] } },
{ "type": "Feature", "properties": { "内容": "グループホーム　あじさい高浜【認知症対応型共同生活介護】羽咋郡志賀町高浜町ク12－14", "url": "https://www.kaigokensaku.mhlw.go.jp/17/index.php?action_kouhyou_detail_004_kani=true&JigyosyoCd=1771500186-00&ServiceCd=320&Type=search", "url2": "http://care-net.biz/17/takahama" }, "geometry": { "type": "Point", "coordinates": [ 136.778599, 37.0041346 ] } },
{ "type": "Feature", "properties": { "内容": "グループホームまごころの家すみよし【認知症対応型共同生活介護】石川県羽咋郡志賀町富来領家町甲の13番地", "url": "https://www.kaigokensaku.mhlw.go.jp/17/index.php?action_kouhyou_detail_004_kani=true&JigyosyoCd=1771500269-00&ServiceCd=320&Type=search", "url2": null }, "geometry": { "type": "Point", "coordinates": [ 136.726318399999968, 37.1445377 ] } },
{ "type": "Feature", "properties": { "内容": "グループホーム　おしまの里【認知症対応型共同生活介護】石川県羽咋郡志賀町大島耕１１０－１", "url": "https://www.kaigokensaku.mhlw.go.jp/17/index.php?action_kouhyou_detail_004_kani=true&JigyosyoCd=1791500141-00&ServiceCd=320&Type=search", "url2": null }, "geometry": { "type": "Point", "coordinates": [ 136.776736827646289, 36.978558620441277 ] } },
{ "type": "Feature", "properties": { "内容": "グループホーム　あじさい【認知症対応型共同生活介護】羽咋郡志賀町仏木ク15-20", "url": "https://www.kaigokensaku.mhlw.go.jp/17/index.php?action_kouhyou_detail_004_kani=true&JigyosyoCd=1751580182-00&ServiceCd=320&Type=search", "url2": "http://care-net.biz/17/douhoukai/" }, "geometry": { "type": "Point", "coordinates": [ 136.818042600000012, 37.0529764 ] } },
{ "type": "Feature", "properties": { "内容": "楓の家　リゾート【認知症対応型共同生活介護】石川県羽咋郡志賀町安部屋戌18番4", "url": "https://www.kaigokensaku.mhlw.go.jp/17/index.php?action_kouhyou_detail_004_kani=true&JigyosyoCd=1791500109-00&ServiceCd=320&Type=search", "url2": "http://www.kaedenoie.jp" }, "geometry": { "type": "Point", "coordinates": [ 136.760850099999971, 37.0211369 ] } },
{ "type": "Feature", "properties": { "内容": "グループホーム第二さくらがい【認知症対応型共同生活介護】石川県羽咋郡志賀町給分ホの3番1", "url": "https://www.kaigokensaku.mhlw.go.jp/17/index.php?action_kouhyou_detail_004_kani=true&JigyosyoCd=1791500117-00&ServiceCd=320&Type=search", "url2": "http://care-net.biz/17/reishinkai/" }, "geometry": { "type": "Point", "coordinates": [ 136.725820723278844, 37.151975586118091 ] } },
{ "type": "Feature", "properties": { "内容": "グループホーム志賀の里すみよし【認知症対応型共同生活介護】⽯川県⽻咋郡志賀町高浜町マの16番地25", "url": "https://www.kaigokensaku.mhlw.go.jp/17/index.php?action_kouhyou_detail_004_kani=true&JigyosyoCd=1791500067-00&ServiceCd=320&Type=search", "url2": null }, "geometry": { "type": "Point", "coordinates": [ 136.781729600000062, 36.9973551 ] } },
{ "type": "Feature", "properties": { "内容": "グループホームはまなす園【認知症対応型共同生活介護】石川県羽咋郡志賀町赤住ハ-4-１", "url": "https://www.kaigokensaku.mhlw.go.jp/17/index.php?action_kouhyou_detail_004_kani=true&JigyosyoCd=1771500095-00&ServiceCd=320&Type=search", "url2": "http://www.hamanasuen.jp" }, "geometry": { "type": "Point", "coordinates": [ 136.740196450262488, 37.049530563843582 ] } },
{ "type": "Feature", "properties": { "内容": "グループホームさくらがい【認知症対応型共同生活介護】羽咋郡志賀町給分ホの3番1", "url": "https://www.kaigokensaku.mhlw.go.jp/17/index.php?action_kouhyou_detail_004_kani=true&JigyosyoCd=1771500160-00&ServiceCd=320&Type=search", "url2": "http://care-net.biz/17/reishinkai/" }, "geometry": { "type": "Point", "coordinates": [ 136.72619692517037, 37.151950690139181 ] } },
{ "type": "Feature", "properties": { "内容": "（有）のぞみの里【認知症対応型共同生活介護】羽咋郡志賀町鹿頭井137", "url": "https://www.kaigokensaku.mhlw.go.jp/17/index.php?action_kouhyou_detail_004_kani=true&JigyosyoCd=1771500285-00&ServiceCd=320&Type=search", "url2": null }, "geometry": { "type": "Point", "coordinates": [ 136.679715699999946, 37.1828822 ] } },
{ "type": "Feature", "properties": { "内容": "グル－プホーム虹の羽【認知症対応型共同生活介護】羽咋郡宝達清水町今浜カ10番地", "url": "https://www.kaigokensaku.mhlw.go.jp/17/index.php?action_kouhyou_detail_004_kani=true&JigyosyoCd=1791500034-00&ServiceCd=320&Type=search", "url2": null }, "geometry": { "type": "Point", "coordinates": [ 136.753141, 36.8297127 ] } },
{ "type": "Feature", "properties": { "内容": "グループホーム志雄【認知症対応型共同生活介護】柳瀬レ１０５－１", "url": "https://www.kaigokensaku.mhlw.go.jp/17/index.php?action_kouhyou_detail_004_kani=true&JigyosyoCd=1791500018-00&ServiceCd=320&Type=search", "url2": "https://i-us-group.com" }, "geometry": { "type": "Point", "coordinates": [ 136.76520210000001, 36.8611423 ] } },
{ "type": "Feature", "properties": { "内容": "グループホーム押水【認知症対応型共同生活介護】石川県羽咋郡宝達志水町今浜えびすが丘59番地", "url": "https://www.kaigokensaku.mhlw.go.jp/17/index.php?action_kouhyou_detail_004_kani=true&JigyosyoCd=1771500194-00&ServiceCd=320&Type=search", "url2": "http://www.wel-wel.co.jp" }, "geometry": { "type": "Point", "coordinates": [ 136.754346700000013, 36.8243238 ] } },
{ "type": "Feature", "properties": { "内容": "グループホーム宝達の郷【認知症対応型共同生活介護】石川県羽咋郡宝達志水町今浜ラ148番地1", "url": "https://www.kaigokensaku.mhlw.go.jp/17/index.php?action_kouhyou_detail_004_kani=true&JigyosyoCd=1771500277-00&ServiceCd=320&Type=search", "url2": "http://www.wel-wel.co.jp" }, "geometry": { "type": "Point", "coordinates": [ 136.7520782, 36.8279945 ] } },
{ "type": "Feature", "properties": { "内容": "グループホーム　なごみの里鹿島【認知症対応型共同生活介護】石川県鹿島郡中能登町浅井ろ部107番地", "url": "https://www.kaigokensaku.mhlw.go.jp/17/index.php?action_kouhyou_detail_004_kani=true&JigyosyoCd=1791600024-00&ServiceCd=320&Type=search", "url2": "https://www.eijyukai-nagomi.com" }, "geometry": { "type": "Point", "coordinates": [ 136.902, 36.98 ] } },
{ "type": "Feature", "properties": { "内容": "グループホーム鹿寿苑【認知症対応型共同生活介護】石川県鹿島郡中能登町西馬場エ部５６番地", "url": "https://www.kaigokensaku.mhlw.go.jp/17/index.php?action_kouhyou_detail_004_kani=true&JigyosyoCd=1771600051-00&ServiceCd=320&Type=search", "url2": "https://www.rokujyuen.con" }, "geometry": { "type": "Point", "coordinates": [ 136.901381799999967, 36.9830497 ] } },
{ "type": "Feature", "properties": { "内容": "グループホーム　しあわせの里【認知症対応型共同生活介護】石川県鹿島郡中能登町能登部下７６部１１５番地", "url": "https://www.kaigokensaku.mhlw.go.jp/17/index.php?action_kouhyou_detail_004_kani=true&JigyosyoCd=1771600234-00&ServiceCd=320&Type=search", "url2": null }, "geometry": { "type": "Point", "coordinates": [ 136.8649977, 36.9623797 ] } },
{ "type": "Feature", "properties": { "内容": "グループホーム一青の家【認知症対応型共同生活介護】石川県鹿島郡中能登町一青な部２番地", "url": "https://www.kaigokensaku.mhlw.go.jp/17/index.php?action_kouhyou_detail_004_kani=true&JigyosyoCd=1771600184-00&ServiceCd=320&Type=search", "url2": "https://hitotonoie.com/" }, "geometry": { "type": "Point", "coordinates": [ 136.901381799999967, 36.9830497 ] } },
{ "type": "Feature", "properties": { "内容": "グループホーム　あなみずの里【認知症対応型共同生活介護】石川県鳳珠郡穴水町字大町ハ-89番地", "url": "https://www.kaigokensaku.mhlw.go.jp/17/index.php?action_kouhyou_detail_004_kani=true&JigyosyoCd=1791700147-00&ServiceCd=320&Type=search", "url2": null }, "geometry": { "type": "Point", "coordinates": [ 136.907903800000014, 37.2289931 ] } },
{ "type": "Feature", "properties": { "内容": "グループホーム聖頌園【認知症対応型共同生活介護】石川県鳳珠郡穴水町字大町ほ17番1", "url": "https://www.kaigokensaku.mhlw.go.jp/17/index.php?action_kouhyou_detail_004_kani=true&JigyosyoCd=1771700232-00&ServiceCd=320&Type=search", "url2": "https://www.bokuyoufukushikai.com/" }, "geometry": { "type": "Point", "coordinates": [ 136.903631841755498, 37.231081652483965 ] } },
{ "type": "Feature", "properties": { "内容": "グループホーム朱鷺の苑穴水【認知症対応型共同生活介護】鳳珠郡穴水町志ケ浦１５字１番地３", "url": "https://www.kaigokensaku.mhlw.go.jp/17/index.php?action_kouhyou_detail_004_kani=true&JigyosyoCd=1771700059-00&ServiceCd=320&Type=search", "url2": "http//www.tokinoen.com" }, "geometry": { "type": "Point", "coordinates": [ 136.8980689, 37.2027396 ] } },
{ "type": "Feature", "properties": { "内容": "グループホーム夕凪【認知症対応型共同生活介護】石川県鳳珠郡能登町字藤波21字7番地1", "url": "https://www.kaigokensaku.mhlw.go.jp/17/index.php?action_kouhyou_detail_004_kani=true&JigyosyoCd=1791700105-00&ServiceCd=320&Type=search", "url2": "https://nokky315.wixsite.com/nonkimura" }, "geometry": { "type": "Point", "coordinates": [ 137.137253396958954, 37.297533110910891 ] } },
{ "type": "Feature", "properties": { "内容": "グループホームなかよし【認知症対応型共同生活介護】石川県鳳珠郡能登町字瑞穂10字120番地", "url": "https://www.kaigokensaku.mhlw.go.jp/17/index.php?action_kouhyou_detail_004_kani=true&JigyosyoCd=1791700097-00&ServiceCd=320&Type=search", "url2": "http://www.ishizuekai.org/index.html" }, "geometry": { "type": "Point", "coordinates": [ 137.040944731344524, 37.281525782689904 ] } },
{ "type": "Feature", "properties": { "内容": "グループホーム　いるか乃里【認知症対応型共同生活介護】石川県鳳珠郡能登町字姫3-15", "url": "https://www.kaigokensaku.mhlw.go.jp/17/index.php?action_kouhyou_detail_004_kani=true&JigyosyoCd=1771700208-00&ServiceCd=320&Type=search", "url2": "http://www.irukanosato.jp" }, "geometry": { "type": "Point", "coordinates": [ 137.2128705, 37.298078300000014 ] } },
{ "type": "Feature", "properties": { "内容": "鶴の恩返しホーム【認知症対応型共同生活介護】石川県鳳珠郡能登町字松波26字36番地1", "url": "https://www.kaigokensaku.mhlw.go.jp/17/index.php?action_kouhyou_detail_004_kani=true&JigyosyoCd=1771700281-00&ServiceCd=320&Type=search", "url2": null }, "geometry": { "type": "Point", "coordinates": [ 137.237356823278816, 37.352066592664883 ] } },
{ "type": "Feature", "properties": { "内容": "グループホームぽかぽか【認知症対応型共同生活介護】上町へ部20番地", "url": "https://www.kaigokensaku.mhlw.go.jp/17/index.php?action_kouhyou_detail_004_kani=true&JigyosyoCd=1771700257-00&ServiceCd=320&Type=search", "url2": "gh-pokapoka.com" }, "geometry": { "type": "Point", "coordinates": [ 136.797555500000044, 35.3161612 ] } },
{ "type": "Feature", "properties": { "内容": "グループホーム長寿の郷【認知症対応型共同生活介護】石川県鳳珠郡能登町字布浦ノ字１０番地３", "url": "https://www.kaigokensaku.mhlw.go.jp/17/index.php?action_kouhyou_detail_004_kani=true&JigyosyoCd=1771700265-00&ServiceCd=320&Type=search", "url2": "https://choujukai-isk.jp" }, "geometry": { "type": "Point", "coordinates": [ 137.253179400000022, 37.3449061 ] } }
]
}
