{
"type": "FeatureCollection",
"name": "geo_17_短期大学",
"crs": { "type": "name", "properties": { "name": "urn:ogc:def:crs:EPSG::6668" } },
"features": [
{ "type": "Feature", "properties": { "P29_001": "17201", "P29_002": "F217310105539", "P29_003": "16006", "P29_004": "金沢学院短期大学", "P29_005": "石川県金沢市末町10", "P29_006": "4", "P29_007": "0", "P29_008": "00", "P29_009": null }, "geometry": { "type": "Point", "coordinates": [ 136.69586013628458, 36.517147009893819 ] } },
{ "type": "Feature", "properties": { "P29_001": "17201", "P29_002": "F217310105548", "P29_003": "16006", "P29_004": "北陸学院大学短期大学部", "P29_005": "石川県金沢市三小牛町イ11", "P29_006": "4", "P29_007": "0", "P29_008": "00", "P29_009": null }, "geometry": { "type": "Point", "coordinates": [ 136.670471051764508, 36.51808644985676 ] } },
{ "type": "Feature", "properties": { "P29_001": "17210", "P29_002": "F217310105557", "P29_003": "16006", "P29_004": "金城大学短期大学部", "P29_005": "石川県白山市笠間町1200", "P29_006": "4", "P29_007": "0", "P29_008": "00", "P29_009": null }, "geometry": { "type": "Point", "coordinates": [ 136.530503312157464, 36.508562183676815 ] } },
{ "type": "Feature", "properties": { "P29_001": "17201", "P29_002": "F217310105566", "P29_003": "16006", "P29_004": "金沢星稜大学女子短期大学部", "P29_005": "石川県金沢市御所町丑10-1", "P29_006": "4", "P29_007": "0", "P29_008": "00", "P29_009": null }, "geometry": { "type": "Point", "coordinates": [ 136.681692330504347, 36.583927278608449 ] } }
]
}
