{
"type": "FeatureCollection",
"name": "geo_17_居宅介護支援",
"crs": { "type": "name", "properties": { "name": "urn:ogc:def:crs:OGC:1.3:CRS84" } },
"features": [
{ "type": "Feature", "properties": { "内容": "居宅介護支援事業所ほ～っと【居宅介護支援】石川県金沢市高尾台３丁目７８番地ＧＡＬＡＸＹ高尾台１階", "url2": "https://www.kaigokensaku.mhlw.go.jp/17/index.php?action_kouhyou_detail_004_kani=true&JigyosyoCd=1760191237-00&ServiceCd=430&Type=search" }, "geometry": { "type": "Point", "coordinates": [ 136.627298599999989, 36.5201263 ] } },
{ "type": "Feature", "properties": { "内容": "ルナケアプラン【居宅介護支援】石川県金沢市尾張町1丁目11-2ファミール武蔵９０２号室", "url2": "https://www.kaigokensaku.mhlw.go.jp/17/index.php?action_kouhyou_detail_004_kani=true&JigyosyoCd=1770106332-00&ServiceCd=430&Type=search" }, "geometry": { "type": "Point", "coordinates": [ 136.6590158, 36.5712013 ] } },
{ "type": "Feature", "properties": { "内容": "有限会社さくら介護支援【居宅介護支援】石川県金沢市田上新町235番地1", "url2": "https://www.kaigokensaku.mhlw.go.jp/17/index.php?action_kouhyou_detail_004_kani=true&JigyosyoCd=1770107132-00&ServiceCd=430&Type=search" }, "geometry": { "type": "Point", "coordinates": [ 136.69924560000004, 36.544875 ] } },
{ "type": "Feature", "properties": { "内容": "WyL在宅ケアセンター金沢【居宅介護支援】石川県金沢市吉原町ハ66-1", "url2": "https://www.kaigokensaku.mhlw.go.jp/17/index.php?action_kouhyou_detail_004_kani=true&JigyosyoCd=1770107520-00&ServiceCd=430&Type=search" }, "geometry": { "type": "Point", "coordinates": [ 136.6923473, 36.6134557 ] } },
{ "type": "Feature", "properties": { "内容": "こいけ居宅介護支援事業所【居宅介護支援】金沢市大手町8-20", "url2": "https://www.kaigokensaku.mhlw.go.jp/17/index.php?action_kouhyou_detail_004_kani=true&JigyosyoCd=1710114016-00&ServiceCd=430&Type=search" }, "geometry": { "type": "Point", "coordinates": [ 136.664140500000059, 36.5677136 ] } },
{ "type": "Feature", "properties": { "内容": "とびうめ居宅介護支援センター【居宅介護支援】石川県金沢市飛梅町2番1号", "url2": "https://www.kaigokensaku.mhlw.go.jp/17/index.php?action_kouhyou_detail_004_kani=true&JigyosyoCd=1710112846-00&ServiceCd=430&Type=search" }, "geometry": { "type": "Point", "coordinates": [ 136.667168400000037, 36.5586424 ] } },
{ "type": "Feature", "properties": { "内容": "金沢西居宅介護支援センター【居宅介護支援】金沢市駅西本町6丁目15番８号　藤江南ハイム1階", "url2": "https://www.kaigokensaku.mhlw.go.jp/17/index.php?action_kouhyou_detail_004_kani=true&JigyosyoCd=1710113877-00&ServiceCd=430&Type=search" }, "geometry": { "type": "Point", "coordinates": [ 136.625865685983314, 36.586292466915125 ] } },
{ "type": "Feature", "properties": { "内容": "映寿会在宅介護センター【居宅介護支援】金沢市鞍月東１丁目８番地２武蔵商事ビル３階", "url2": "https://www.kaigokensaku.mhlw.go.jp/17/index.php?action_kouhyou_detail_004_kani=true&JigyosyoCd=1710114420-00&ServiceCd=430&Type=search" }, "geometry": { "type": "Point", "coordinates": [ 136.629594600000019, 36.5942122 ] } },
{ "type": "Feature", "properties": { "内容": "すずみが丘介護センター【居宅介護支援】石川県金沢市もりの里3丁目76番地", "url2": "https://www.kaigokensaku.mhlw.go.jp/17/index.php?action_kouhyou_detail_004_kani=true&JigyosyoCd=1770107488-00&ServiceCd=430&Type=search" }, "geometry": { "type": "Point", "coordinates": [ 136.682281100000012, 36.5621021 ] } },
{ "type": "Feature", "properties": { "内容": "ケアプランセンターそら【居宅介護支援】石川県金沢市春日町8-17", "url2": "https://www.kaigokensaku.mhlw.go.jp/17/index.php?action_kouhyou_detail_004_kani=true&JigyosyoCd=1770107405-00&ServiceCd=430&Type=search" }, "geometry": { "type": "Point", "coordinates": [ 136.681199600000014, 36.554781100000014 ] } },
{ "type": "Feature", "properties": { "内容": "りんくケアプラン【居宅介護支援】石川県金沢市額谷1丁目81番地", "url2": "https://www.kaigokensaku.mhlw.go.jp/17/index.php?action_kouhyou_detail_004_kani=true&JigyosyoCd=1770104196-00&ServiceCd=430&Type=search" }, "geometry": { "type": "Point", "coordinates": [ 136.6282615, 36.5104059 ] } },
{ "type": "Feature", "properties": { "内容": "サンケア城北店【居宅介護支援】石川県金沢市東長江へ13番地１", "url2": "https://www.kaigokensaku.mhlw.go.jp/17/index.php?action_kouhyou_detail_004_kani=true&JigyosyoCd=1770103909-00&ServiceCd=430&Type=search" }, "geometry": { "type": "Point", "coordinates": [ 136.692194971411141, 36.576038164904709 ] } },
{ "type": "Feature", "properties": { "内容": "ファミリーケア城南【居宅介護支援】石川県金沢市城南1丁目21番21号", "url2": "https://www.kaigokensaku.mhlw.go.jp/17/index.php?action_kouhyou_detail_004_kani=true&JigyosyoCd=1770102943-00&ServiceCd=430&Type=search" }, "geometry": { "type": "Point", "coordinates": [ 136.672204599999986, 36.5447496 ] } },
{ "type": "Feature", "properties": { "内容": "居宅介護支援みんちか【居宅介護支援】金沢市北安江４丁目２６番２号", "url2": "https://www.kaigokensaku.mhlw.go.jp/17/index.php?action_kouhyou_detail_004_kani=true&JigyosyoCd=1770102414-00&ServiceCd=430&Type=search" }, "geometry": { "type": "Point", "coordinates": [ 136.642119, 36.5874494 ] } },
{ "type": "Feature", "properties": { "内容": "居宅介護支援事業所こまどり【居宅介護支援】石川県金沢市松島３丁目２０７番地", "url2": "https://www.kaigokensaku.mhlw.go.jp/17/index.php?action_kouhyou_detail_004_kani=true&JigyosyoCd=1770106209-00&ServiceCd=430&Type=search" }, "geometry": { "type": "Point", "coordinates": [ 136.602801297292729, 36.568175604972872 ] } },
{ "type": "Feature", "properties": { "内容": "れんげの郷居宅介護支援事業所【居宅介護支援】石川県金沢市小立野３丁目２４番１３号", "url2": "https://www.kaigokensaku.mhlw.go.jp/17/index.php?action_kouhyou_detail_004_kani=true&JigyosyoCd=1770105714-00&ServiceCd=430&Type=search" }, "geometry": { "type": "Point", "coordinates": [ 136.677455187731539, 36.548955745635361 ] } },
{ "type": "Feature", "properties": { "内容": "居宅介護支援事業所ＯＨＡＮＡ【居宅介護支援】石川県金沢市福久町へ18-4", "url2": "https://www.kaigokensaku.mhlw.go.jp/17/index.php?action_kouhyou_detail_004_kani=true&JigyosyoCd=1770106688-00&ServiceCd=430&Type=search" }, "geometry": { "type": "Point", "coordinates": [ 136.678660984455689, 36.611209742277225 ] } },
{ "type": "Feature", "properties": { "内容": "ケアマネ　りんく【居宅介護支援】金沢市伏見台１丁目１４－２６", "url2": "https://www.kaigokensaku.mhlw.go.jp/17/index.php?action_kouhyou_detail_004_kani=true&JigyosyoCd=1770104386-00&ServiceCd=430&Type=search" }, "geometry": { "type": "Point", "coordinates": [ 136.639190520329294, 36.533752061141065 ] } },
{ "type": "Feature", "properties": { "内容": "居宅介護支援事業所ふくわらい【居宅介護支援】石川県金沢市横川5丁目21番地", "url2": "https://www.kaigokensaku.mhlw.go.jp/17/index.php?action_kouhyou_detail_004_kani=true&JigyosyoCd=1770104998-00&ServiceCd=430&Type=search" }, "geometry": { "type": "Point", "coordinates": [ 136.629957293209827, 36.541795860172094 ] } },
{ "type": "Feature", "properties": { "内容": "こみけあ介護相談センター光が丘【居宅介護支援】金沢市光が丘3丁目211番地2こみけあ光が丘（1番館）", "url2": "https://www.kaigokensaku.mhlw.go.jp/17/index.php?action_kouhyou_detail_004_kani=true&JigyosyoCd=1770103420-00&ServiceCd=430&Type=search" }, "geometry": { "type": "Point", "coordinates": [ 136.62732230000006, 36.5121722 ] } },
{ "type": "Feature", "properties": { "内容": "ケアマネセンター金沢【居宅介護支援】石川県金沢市二口町八３０番２", "url2": "https://www.kaigokensaku.mhlw.go.jp/17/index.php?action_kouhyou_detail_004_kani=true&JigyosyoCd=1770105755-00&ServiceCd=430&Type=search" }, "geometry": { "type": "Point", "coordinates": [ 136.634429442189003, 36.577277229801936 ] } },
{ "type": "Feature", "properties": { "内容": "ホームステーションむぎ【居宅介護支援】石川県金沢市千田町イ53番地6", "url2": "https://www.kaigokensaku.mhlw.go.jp/17/index.php?action_kouhyou_detail_004_kani=true&JigyosyoCd=1770106720-00&ServiceCd=430&Type=search" }, "geometry": { "type": "Point", "coordinates": [ 136.6216432, 36.5575876 ] } },
{ "type": "Feature", "properties": { "内容": "すずらん支援センター【居宅介護支援】金沢市二口町イ109番地", "url2": "https://www.kaigokensaku.mhlw.go.jp/17/index.php?action_kouhyou_detail_004_kani=true&JigyosyoCd=1770103008-00&ServiceCd=430&Type=search" }, "geometry": { "type": "Point", "coordinates": [ 136.636125101158086, 36.573492188740083 ] } },
{ "type": "Feature", "properties": { "内容": "社会福祉法人　森山善隣館　居宅介護支援事業所【居宅介護支援】石川県金沢市森山２丁目１８番４号", "url2": "https://www.kaigokensaku.mhlw.go.jp/17/index.php?action_kouhyou_detail_004_kani=true&JigyosyoCd=1770100327-00&ServiceCd=430&Type=search" }, "geometry": { "type": "Point", "coordinates": [ 136.667123299999957, 36.5781788 ] } },
{ "type": "Feature", "properties": { "内容": "居宅介護支援事業所「やわらぎ」【居宅介護支援】石川県金沢市京町１番３０号", "url2": "https://www.kaigokensaku.mhlw.go.jp/17/index.php?action_kouhyou_detail_004_kani=true&JigyosyoCd=1710115591-00&ServiceCd=430&Type=search" }, "geometry": { "type": "Point", "coordinates": [ 136.655671200000029, 36.5807394 ] } },
{ "type": "Feature", "properties": { "内容": "居宅介護支援事業所　れんと【居宅介護支援】大額2丁目67番地", "url2": "https://www.kaigokensaku.mhlw.go.jp/17/index.php?action_kouhyou_detail_004_kani=true&JigyosyoCd=1770104758-00&ServiceCd=430&Type=search" }, "geometry": { "type": "Point", "coordinates": [ 136.625078, 36.5153328 ] } },
{ "type": "Feature", "properties": { "内容": "サンケア米丸店【居宅介護支援】石川県金沢市入江3丁目160番地２", "url2": "https://www.kaigokensaku.mhlw.go.jp/17/index.php?action_kouhyou_detail_004_kani=true&JigyosyoCd=1770106795-00&ServiceCd=430&Type=search" }, "geometry": { "type": "Point", "coordinates": [ 136.622720108598344, 36.568299965351429 ] } },
{ "type": "Feature", "properties": { "内容": "金沢朱鷺の苑居宅介護支援事業所【居宅介護支援】金沢市岸川町ほ５番地", "url2": "https://www.kaigokensaku.mhlw.go.jp/17/index.php?action_kouhyou_detail_004_kani=true&JigyosyoCd=1770100244-00&ServiceCd=430&Type=search" }, "geometry": { "type": "Point", "coordinates": [ 136.711450499999955, 36.6400462 ] } },
{ "type": "Feature", "properties": { "内容": "介護・生活相談　つばき【居宅介護支援】石川県金沢市三口町火44ヴィラ88-T1", "url2": "https://www.kaigokensaku.mhlw.go.jp/17/index.php?action_kouhyou_detail_004_kani=true&JigyosyoCd=1770107165-00&ServiceCd=430&Type=search" }, "geometry": { "type": "Point", "coordinates": [ 136.6432316, 36.6087016 ] } },
{ "type": "Feature", "properties": { "内容": "ケアプランセンターゆとりの園【居宅介護支援】米泉町7-61-5西金沢プリンスビル2F", "url2": "https://www.kaigokensaku.mhlw.go.jp/17/index.php?action_kouhyou_detail_004_kani=true&JigyosyoCd=1770104634-00&ServiceCd=430&Type=search" }, "geometry": { "type": "Point", "coordinates": [ 136.623434834193063, 36.551771379555035 ] } },
{ "type": "Feature", "properties": { "内容": "居宅介護支援事業所サンケア赤土【居宅介護支援】石川県金沢市赤土町カ1-24有料老人ホームサンケア赤土", "url2": "https://www.kaigokensaku.mhlw.go.jp/17/index.php?action_kouhyou_detail_004_kani=true&JigyosyoCd=1770104246-00&ServiceCd=430&Type=search" }, "geometry": { "type": "Point", "coordinates": [ 136.583943800000043, 36.5897305 ] } },
{ "type": "Feature", "properties": { "内容": "第三善隣館　居宅介護支援センター【居宅介護支援】石川県金沢市小将町8番23号", "url2": "https://www.kaigokensaku.mhlw.go.jp/17/index.php?action_kouhyou_detail_004_kani=true&JigyosyoCd=1770100301-00&ServiceCd=430&Type=search" }, "geometry": { "type": "Point", "coordinates": [ 136.6643656, 36.5632558 ] } },
{ "type": "Feature", "properties": { "内容": "居宅介護支援事業所　さんえす【居宅介護支援】石川県金沢市問屋町1丁目48番地", "url2": "https://www.kaigokensaku.mhlw.go.jp/17/index.php?action_kouhyou_detail_004_kani=true&JigyosyoCd=1770101143-00&ServiceCd=430&Type=search" }, "geometry": { "type": "Point", "coordinates": [ 136.63626730874762, 36.606121713492122 ] } },
{ "type": "Feature", "properties": { "内容": "彦三きらく園居宅介護支援事業所【居宅介護支援】彦三町１丁目８番８号", "url2": "https://www.kaigokensaku.mhlw.go.jp/17/index.php?action_kouhyou_detail_004_kani=true&JigyosyoCd=1770100772-00&ServiceCd=430&Type=search" }, "geometry": { "type": "Point", "coordinates": [ 136.6613016, 36.5730989 ] } },
{ "type": "Feature", "properties": { "内容": "いえる居宅介護支援事業所【居宅介護支援】長田２丁目１４番４号", "url2": "https://www.kaigokensaku.mhlw.go.jp/17/index.php?action_kouhyou_detail_004_kani=true&JigyosyoCd=1770105631-00&ServiceCd=430&Type=search" }, "geometry": { "type": "Point", "coordinates": [ 136.63795570000002, 36.5773507 ] } },
{ "type": "Feature", "properties": { "内容": "アスモ介護サービス金沢【居宅介護支援】石川県金沢市新神田三丁目8番16号", "url2": "https://www.kaigokensaku.mhlw.go.jp/17/index.php?action_kouhyou_detail_004_kani=true&JigyosyoCd=1770104527-00&ServiceCd=430&Type=search" }, "geometry": { "type": "Point", "coordinates": [ 136.628865300000029, 36.5603525 ] } },
{ "type": "Feature", "properties": { "内容": "居宅介護支援事業所　ボヌール【居宅介護支援】金沢市朝霧台2丁目166番", "url2": "https://www.kaigokensaku.mhlw.go.jp/17/index.php?action_kouhyou_detail_004_kani=true&JigyosyoCd=1770104691-00&ServiceCd=430&Type=search" }, "geometry": { "type": "Point", "coordinates": [ 136.6968779, 36.5363731 ] } },
{ "type": "Feature", "properties": { "内容": "アシスト介護サービス【居宅介護支援】金沢市十三間町116番地", "url2": "https://www.kaigokensaku.mhlw.go.jp/17/index.php?action_kouhyou_detail_004_kani=true&JigyosyoCd=1770100566-00&ServiceCd=430&Type=search" }, "geometry": { "type": "Point", "coordinates": [ 136.651142299999947, 36.5384947 ] } },
{ "type": "Feature", "properties": { "内容": "居宅介護支援事業所　のんび～っと【居宅介護支援】疋田2丁目94番地有料老人ホーム白寿の里　１Ｆ", "url2": "https://www.kaigokensaku.mhlw.go.jp/17/index.php?action_kouhyou_detail_004_kani=true&JigyosyoCd=1770102687-00&ServiceCd=430&Type=search" }, "geometry": { "type": "Point", "coordinates": [ 136.675026964418066, 36.602794645453955 ] } },
{ "type": "Feature", "properties": { "内容": "ケアプランセンター　ロマン【居宅介護支援】荒屋１丁目３２番地", "url2": "https://www.kaigokensaku.mhlw.go.jp/17/index.php?action_kouhyou_detail_004_kani=true&JigyosyoCd=1770105045-00&ServiceCd=430&Type=search" }, "geometry": { "type": "Point", "coordinates": [ 136.683467699999937, 36.6147852 ] } },
{ "type": "Feature", "properties": { "内容": "やよい介護センター【居宅介護支援】石川県金沢市泉本町4丁目41番地1スプリングホーム泉本町内", "url2": "https://www.kaigokensaku.mhlw.go.jp/17/index.php?action_kouhyou_detail_004_kani=true&JigyosyoCd=1770107074-00&ServiceCd=430&Type=search" }, "geometry": { "type": "Point", "coordinates": [ 136.637772399999989, 36.5515983 ] } },
{ "type": "Feature", "properties": { "内容": "居宅介護支援事業所サンケア兼六店【居宅介護支援】石川県金沢市暁町9番29号サンケア兼六内", "url2": "https://www.kaigokensaku.mhlw.go.jp/17/index.php?action_kouhyou_detail_004_kani=true&JigyosyoCd=1770103834-00&ServiceCd=430&Type=search" }, "geometry": { "type": "Point", "coordinates": [ 136.67326044969758, 36.562871559616426 ] } },
{ "type": "Feature", "properties": { "内容": "済生会金沢居宅介護支援事業所【居宅介護支援】石川県金沢市赤土町二13番地6", "url2": "https://www.kaigokensaku.mhlw.go.jp/17/index.php?action_kouhyou_detail_004_kani=true&JigyosyoCd=1770106373-00&ServiceCd=430&Type=search" }, "geometry": { "type": "Point", "coordinates": [ 136.595732958999633, 36.582822852192429 ] } },
{ "type": "Feature", "properties": { "内容": "ほうしん居宅介護支援事業所【居宅介護支援】石川県金沢市額乙丸町ロ257ウッディハウス１Ａ　102号室", "url2": "https://www.kaigokensaku.mhlw.go.jp/17/index.php?action_kouhyou_detail_004_kani=true&JigyosyoCd=1770106639-00&ServiceCd=430&Type=search" }, "geometry": { "type": "Point", "coordinates": [ 136.62002, 36.509595 ] } },
{ "type": "Feature", "properties": { "内容": "学研ココファン金沢鞍月【居宅介護支援】鞍月5-219", "url2": "https://www.kaigokensaku.mhlw.go.jp/17/index.php?action_kouhyou_detail_004_kani=true&JigyosyoCd=1770105649-00&ServiceCd=430&Type=search" }, "geometry": { "type": "Point", "coordinates": [ 136.626428, 36.5982256 ] } },
{ "type": "Feature", "properties": { "内容": "在宅サポートシニア２１【居宅介護支援】石川県金沢市山科町午40番地1", "url2": "https://www.kaigokensaku.mhlw.go.jp/17/index.php?action_kouhyou_detail_004_kani=true&JigyosyoCd=1770101960-00&ServiceCd=430&Type=search" }, "geometry": { "type": "Point", "coordinates": [ 136.65257280000003, 36.5271156 ] } },
{ "type": "Feature", "properties": { "内容": "石川県八田ホーム居宅介護支援センター【居宅介護支援】金沢市八田町東912番地", "url2": "https://www.kaigokensaku.mhlw.go.jp/17/index.php?action_kouhyou_detail_004_kani=true&JigyosyoCd=1770100699-00&ServiceCd=430&Type=search" }, "geometry": { "type": "Point", "coordinates": [ 136.687955699999947, 36.628375 ] } },
{ "type": "Feature", "properties": { "内容": "ひゃくまん星増泉【居宅介護支援】石川県金沢市増泉1丁目16番41号ひゃくまん星増泉", "url2": "https://www.kaigokensaku.mhlw.go.jp/17/index.php?action_kouhyou_detail_004_kani=true&JigyosyoCd=1770105789-00&ServiceCd=430&Type=search" }, "geometry": { "type": "Point", "coordinates": [ 136.644867100000056, 36.5585838 ] } },
{ "type": "Feature", "properties": { "内容": "なでしこの丘　居宅介護支援事業所【居宅介護支援】金沢市馬替２丁目１４３番地", "url2": "https://www.kaigokensaku.mhlw.go.jp/17/index.php?action_kouhyou_detail_004_kani=true&JigyosyoCd=1750180091-00&ServiceCd=430&Type=search" }, "geometry": { "type": "Point", "coordinates": [ 136.621152490213035, 36.522196601803486 ] } },
{ "type": "Feature", "properties": { "内容": "プラトーケアマネージメント事務所【居宅介護支援】笠舞本町2丁目5番2号", "url2": "https://www.kaigokensaku.mhlw.go.jp/17/index.php?action_kouhyou_detail_004_kani=true&JigyosyoCd=1770103636-00&ServiceCd=430&Type=search" }, "geometry": { "type": "Point", "coordinates": [ 136.671423165641386, 36.547656021772163 ] } },
{ "type": "Feature", "properties": { "内容": "介護支援センターなないろ【居宅介護支援】石川県金沢市神野町西２９２番地", "url2": "https://www.kaigokensaku.mhlw.go.jp/17/index.php?action_kouhyou_detail_004_kani=true&JigyosyoCd=1770103651-00&ServiceCd=430&Type=search" }, "geometry": { "type": "Point", "coordinates": [ 136.593740700000012, 36.5642925 ] } },
{ "type": "Feature", "properties": { "内容": "居宅介護支援事業所　朗　高尾台【居宅介護支援】石川県金沢市高尾台1丁目449番地ほがらかビル", "url2": "https://www.kaigokensaku.mhlw.go.jp/17/index.php?action_kouhyou_detail_004_kani=true&JigyosyoCd=1770106845-00&ServiceCd=430&Type=search" }, "geometry": { "type": "Point", "coordinates": [ 136.639548, 36.5236548 ] } },
{ "type": "Feature", "properties": { "内容": "介護センター五番丁【居宅介護支援】石川県金沢市下本多町五番丁１４番地", "url2": "https://www.kaigokensaku.mhlw.go.jp/17/index.php?action_kouhyou_detail_004_kani=true&JigyosyoCd=1770103073-00&ServiceCd=430&Type=search" }, "geometry": { "type": "Point", "coordinates": [ 136.657971800000041, 36.5567482 ] } },
{ "type": "Feature", "properties": { "内容": "清泉ケアプランセンター【居宅介護支援】石川県金沢市泉本町1丁目107番1号", "url2": "https://www.kaigokensaku.mhlw.go.jp/17/index.php?action_kouhyou_detail_004_kani=true&JigyosyoCd=1770102323-00&ServiceCd=430&Type=search" }, "geometry": { "type": "Point", "coordinates": [ 136.636526600000025, 36.5462184 ] } },
{ "type": "Feature", "properties": { "内容": "ニチイケアセンター笠舞【居宅介護支援】金沢市笠舞町１－４－５", "url2": "https://www.kaigokensaku.mhlw.go.jp/17/index.php?action_kouhyou_detail_004_kani=true&JigyosyoCd=1770101234-00&ServiceCd=430&Type=search" }, "geometry": { "type": "Point", "coordinates": [ 136.675071300000013, 36.5453933 ] } },
{ "type": "Feature", "properties": { "内容": "ひきだ居宅介護支援事業所【居宅介護支援】石川県金沢市疋田3丁目58番地", "url2": "https://www.kaigokensaku.mhlw.go.jp/17/index.php?action_kouhyou_detail_004_kani=true&JigyosyoCd=1770105011-00&ServiceCd=430&Type=search" }, "geometry": { "type": "Point", "coordinates": [ 136.673069656761157, 36.603995740927353 ] } },
{ "type": "Feature", "properties": { "内容": "ニチイケアセンターかないわ【居宅介護支援】石川県金沢市金石本町ロ３１－１", "url2": "https://www.kaigokensaku.mhlw.go.jp/17/index.php?action_kouhyou_detail_004_kani=true&JigyosyoCd=1770101044-00&ServiceCd=430&Type=search" }, "geometry": { "type": "Point", "coordinates": [ 136.596630600000026, 36.5979527 ] } },
{ "type": "Feature", "properties": { "内容": "あっとほーむな居宅介護支援事業所やまと【居宅介護支援】石川県金沢市西泉1丁目149番地2", "url2": "https://www.kaigokensaku.mhlw.go.jp/17/index.php?action_kouhyou_detail_004_kani=true&JigyosyoCd=1770106910-00&ServiceCd=430&Type=search" }, "geometry": { "type": "Point", "coordinates": [ 136.632204752318927, 36.545994541708815 ] } },
{ "type": "Feature", "properties": { "内容": "第四善隣館居宅介護支援事業所【居宅介護支援】金沢市泉野町1丁目1番25号", "url2": "https://www.kaigokensaku.mhlw.go.jp/17/index.php?action_kouhyou_detail_004_kani=true&JigyosyoCd=1770100178-00&ServiceCd=430&Type=search" }, "geometry": { "type": "Point", "coordinates": [ 136.655361099999936, 36.5474743 ] } },
{ "type": "Feature", "properties": { "内容": "居宅介護支援　さくらセンター【居宅介護支援】石川県金沢市湊２丁目１６９番地", "url2": "https://www.kaigokensaku.mhlw.go.jp/17/index.php?action_kouhyou_detail_004_kani=true&JigyosyoCd=1770105813-00&ServiceCd=430&Type=search" }, "geometry": { "type": "Point", "coordinates": [ 136.652475900000013, 36.6350908 ] } },
{ "type": "Feature", "properties": { "内容": "居宅介護支援事業所　白寿園【居宅介護支援】金沢市鞍月4丁目143番地", "url2": "https://www.kaigokensaku.mhlw.go.jp/17/index.php?action_kouhyou_detail_004_kani=true&JigyosyoCd=1770102893-00&ServiceCd=430&Type=search" }, "geometry": { "type": "Point", "coordinates": [ 136.623496390899106, 36.596967934721285 ] } },
{ "type": "Feature", "properties": { "内容": "合同会社　なかよし【居宅介護支援】森山2丁目6－37－1", "url2": "https://www.kaigokensaku.mhlw.go.jp/17/index.php?action_kouhyou_detail_004_kani=true&JigyosyoCd=1770107041-00&ServiceCd=430&Type=search" }, "geometry": { "type": "Point", "coordinates": [ 136.670093799999989, 36.580379700000016 ] } },
{ "type": "Feature", "properties": { "内容": "きじま在宅介護センター【居宅介護支援】金沢市松寺町子41-1", "url2": "https://www.kaigokensaku.mhlw.go.jp/17/index.php?action_kouhyou_detail_004_kani=true&JigyosyoCd=1760190452-00&ServiceCd=430&Type=search" }, "geometry": { "type": "Point", "coordinates": [ 136.653344105522592, 36.601756594586718 ] } },
{ "type": "Feature", "properties": { "内容": "コープいしかわ居宅介護支援事業所【居宅介護支援】石川県金沢市戸板２丁目７３番地", "url2": "https://www.kaigokensaku.mhlw.go.jp/17/index.php?action_kouhyou_detail_004_kani=true&JigyosyoCd=1770105326-00&ServiceCd=430&Type=search" }, "geometry": { "type": "Point", "coordinates": [ 136.624125045841197, 36.580027260063616 ] } },
{ "type": "Feature", "properties": { "内容": "居宅介護支援事業所　白寿園四十万【居宅介護支援】四十万3丁目102番地", "url2": "https://www.kaigokensaku.mhlw.go.jp/17/index.php?action_kouhyou_detail_004_kani=true&JigyosyoCd=1770104956-00&ServiceCd=430&Type=search" }, "geometry": { "type": "Point", "coordinates": [ 136.619911799999954, 36.5024898 ] } },
{ "type": "Feature", "properties": { "内容": "居宅介護支援事業所まほろば四十万【居宅介護支援】石川県金沢市四十万３丁目２８８番地", "url2": "https://www.kaigokensaku.mhlw.go.jp/17/index.php?action_kouhyou_detail_004_kani=true&JigyosyoCd=1770104030-00&ServiceCd=430&Type=search" }, "geometry": { "type": "Point", "coordinates": [ 136.617492699999957, 36.5045368 ] } },
{ "type": "Feature", "properties": { "内容": "なないろケアサポート【居宅介護支援】近岡町388番地1", "url2": "https://www.kaigokensaku.mhlw.go.jp/17/index.php?action_kouhyou_detail_004_kani=true&JigyosyoCd=1760191054-00&ServiceCd=430&Type=search" }, "geometry": { "type": "Point", "coordinates": [ 136.632438586524358, 36.611966829110763 ] } },
{ "type": "Feature", "properties": { "内容": "ツクイ金沢【居宅介護支援】八日市5-460", "url2": "https://www.kaigokensaku.mhlw.go.jp/17/index.php?action_kouhyou_detail_004_kani=true&JigyosyoCd=1770106753-00&ServiceCd=430&Type=search" }, "geometry": { "type": "Point", "coordinates": [ 136.6104288, 36.5503303 ] } },
{ "type": "Feature", "properties": { "内容": "社会福祉法人　北伸福祉会　第二金沢朱鷺の苑【居宅介護支援】石川県金沢市上辰巳町10-211-1", "url2": "https://www.kaigokensaku.mhlw.go.jp/17/index.php?action_kouhyou_detail_004_kani=true&JigyosyoCd=1770100236-00&ServiceCd=430&Type=search" }, "geometry": { "type": "Point", "coordinates": [ 136.702669799999967, 36.5154265 ] } },
{ "type": "Feature", "properties": { "内容": "ケアサポート金沢居宅介護支援事業所【居宅介護支援】石川県金沢市長町2丁目7-22", "url2": "https://www.kaigokensaku.mhlw.go.jp/17/index.php?action_kouhyou_detail_004_kani=true&JigyosyoCd=1770100137-00&ServiceCd=430&Type=search" }, "geometry": { "type": "Point", "coordinates": [ 136.646272299999964, 36.5653275 ] } },
{ "type": "Feature", "properties": { "内容": "居宅介護支援事業所かいてき【居宅介護支援】石川県金沢市間明町1丁目142-1", "url2": "https://www.kaigokensaku.mhlw.go.jp/17/index.php?action_kouhyou_detail_004_kani=true&JigyosyoCd=1770103545-00&ServiceCd=430&Type=search" }, "geometry": { "type": "Point", "coordinates": [ 136.618382399999973, 36.5672071 ] } },
{ "type": "Feature", "properties": { "内容": "居宅介護支援事業所タクト【居宅介護支援】小坂町西8-44", "url2": "https://www.kaigokensaku.mhlw.go.jp/17/index.php?action_kouhyou_detail_004_kani=true&JigyosyoCd=1770106928-00&ServiceCd=430&Type=search" }, "geometry": { "type": "Point", "coordinates": [ 136.670196299999986, 36.5899298 ] } },
{ "type": "Feature", "properties": { "内容": "ピカソ居宅介護支援事業所【居宅介護支援】石川県金沢市田上本町カ45番地1", "url2": "https://www.kaigokensaku.mhlw.go.jp/17/index.php?action_kouhyou_detail_004_kani=true&JigyosyoCd=1750180299-00&ServiceCd=430&Type=search" }, "geometry": { "type": "Point", "coordinates": [ 136.701269, 36.5294132 ] } },
{ "type": "Feature", "properties": { "内容": "ニチイケアセンター大額【居宅介護支援】金沢市大額３丁目213番地", "url2": "https://www.kaigokensaku.mhlw.go.jp/17/index.php?action_kouhyou_detail_004_kani=true&JigyosyoCd=1770102596-00&ServiceCd=430&Type=search" }, "geometry": { "type": "Point", "coordinates": [ 136.622906, 36.5122331 ] } },
{ "type": "Feature", "properties": { "内容": "SOMPOケア　金沢金石　居宅介護支援【居宅介護支援】金沢市桂町ロ45番地1", "url2": "https://www.kaigokensaku.mhlw.go.jp/17/index.php?action_kouhyou_detail_004_kani=true&JigyosyoCd=1770103164-00&ServiceCd=430&Type=search" }, "geometry": { "type": "Point", "coordinates": [ 136.603590102307834, 36.602993112980286 ] } },
{ "type": "Feature", "properties": { "内容": "居宅介護支援事業所　介護相談金沢【居宅介護支援】石川県金沢市元町1-16-22　ルミエール元町107号ルミエール元町107号", "url2": "https://www.kaigokensaku.mhlw.go.jp/17/index.php?action_kouhyou_detail_004_kani=true&JigyosyoCd=1770106803-00&ServiceCd=430&Type=search" }, "geometry": { "type": "Point", "coordinates": [ 136.668718899999988, 36.5806766 ] } },
{ "type": "Feature", "properties": { "内容": "ＳＯＭＰＯケア　金沢笠舞　居宅介護支援【居宅介護支援】石川県金沢市笠舞1-8-18", "url2": "https://www.kaigokensaku.mhlw.go.jp/17/index.php?action_kouhyou_detail_004_kani=true&JigyosyoCd=1770103149-00&ServiceCd=430&Type=search" }, "geometry": { "type": "Point", "coordinates": [ 136.670465599999943, 36.5512294 ] } },
{ "type": "Feature", "properties": { "内容": "居宅介護支援事業所　ありまつ【居宅介護支援】金沢市有松5丁目2番24号", "url2": "https://www.kaigokensaku.mhlw.go.jp/17/index.php?action_kouhyou_detail_004_kani=true&JigyosyoCd=1710119536-00&ServiceCd=430&Type=search" }, "geometry": { "type": "Point", "coordinates": [ 136.638954499999954, 36.5387582 ] } },
{ "type": "Feature", "properties": { "内容": "サンケア城西店【居宅介護支援】石川県金沢市戸板1-26サンケア戸板", "url2": "https://www.kaigokensaku.mhlw.go.jp/17/index.php?action_kouhyou_detail_004_kani=true&JigyosyoCd=1770105300-00&ServiceCd=430&Type=search" }, "geometry": { "type": "Point", "coordinates": [ 136.6246562, 36.5792319 ] } },
{ "type": "Feature", "properties": { "内容": "居宅介護支援事業所朗粟崎【居宅介護支援】金沢市粟崎町２丁目４１４番地", "url2": "https://www.kaigokensaku.mhlw.go.jp/17/index.php?action_kouhyou_detail_004_kani=true&JigyosyoCd=1770100582-00&ServiceCd=430&Type=search" }, "geometry": { "type": "Point", "coordinates": [ 136.628060399999981, 36.6268521 ] } },
{ "type": "Feature", "properties": { "内容": "居宅介護支援事業所　蒼葉【居宅介護支援】石川県金沢市涌波３丁目５番５７号赤坂タウンヒル１階", "url2": "https://www.kaigokensaku.mhlw.go.jp/17/index.php?action_kouhyou_detail_004_kani=true&JigyosyoCd=1770104899-00&ServiceCd=430&Type=search" }, "geometry": { "type": "Point", "coordinates": [ 136.682888207934582, 36.537950271901146 ] } },
{ "type": "Feature", "properties": { "内容": "介護保険相談センター・金沢やすだ【居宅介護支援】石川県金沢市本江町12番10号", "url2": "https://www.kaigokensaku.mhlw.go.jp/17/index.php?action_kouhyou_detail_004_kani=true&JigyosyoCd=1770105565-00&ServiceCd=430&Type=search" }, "geometry": { "type": "Point", "coordinates": [ 136.632570200000032, 36.5685461 ] } },
{ "type": "Feature", "properties": { "内容": "ふくし百選　プランニング金沢【居宅介護支援】石川県金沢市窪七丁目271番地", "url2": "https://www.kaigokensaku.mhlw.go.jp/17/index.php?action_kouhyou_detail_004_kani=true&JigyosyoCd=1770104352-00&ServiceCd=430&Type=search" }, "geometry": { "type": "Point", "coordinates": [ 136.637990285705513, 36.530877231163323 ] } },
{ "type": "Feature", "properties": { "内容": "独立行政法人地域医療機能推進機構金沢病院附属居宅介護支援センター【居宅介護支援】金沢市沖町ハ部１５", "url2": "https://www.kaigokensaku.mhlw.go.jp/17/index.php?action_kouhyou_detail_004_kani=true&JigyosyoCd=1750180315-00&ServiceCd=430&Type=search" }, "geometry": { "type": "Point", "coordinates": [ 136.6514267, 36.5915128 ] } },
{ "type": "Feature", "properties": { "内容": "福久居宅介護支援事業所【居宅介護支援】金沢市福久町ワ１番地１", "url2": "https://www.kaigokensaku.mhlw.go.jp/17/index.php?action_kouhyou_detail_004_kani=true&JigyosyoCd=1750180224-00&ServiceCd=430&Type=search" }, "geometry": { "type": "Point", "coordinates": [ 136.677337599999987, 36.6173959 ] } },
{ "type": "Feature", "properties": { "内容": "itosie居宅介護支援事業所【居宅介護支援】金沢市問屋町1丁目37番地", "url2": "https://www.kaigokensaku.mhlw.go.jp/17/index.php?action_kouhyou_detail_004_kani=true&JigyosyoCd=1770103396-00&ServiceCd=430&Type=search" }, "geometry": { "type": "Point", "coordinates": [ 136.634754304336269, 36.606746520426086 ] } },
{ "type": "Feature", "properties": { "内容": "ケアプランふくすけ【居宅介護支援】石川県金沢市久安１丁目１７２", "url2": "https://www.kaigokensaku.mhlw.go.jp/17/index.php?action_kouhyou_detail_004_kani=true&JigyosyoCd=1770105417-00&ServiceCd=430&Type=search" }, "geometry": { "type": "Point", "coordinates": [ 136.633671239130024, 36.531497596254226 ] } },
{ "type": "Feature", "properties": { "内容": "静港庵【居宅介護支援】金沢市金石北1丁目19番40号", "url2": "https://www.kaigokensaku.mhlw.go.jp/17/index.php?action_kouhyou_detail_004_kani=true&JigyosyoCd=1770104105-00&ServiceCd=430&Type=search" }, "geometry": { "type": "Point", "coordinates": [ 136.599447209465097, 36.603830967678206 ] } },
{ "type": "Feature", "properties": { "内容": "こすもす居宅介護支援事業所金沢【居宅介護支援】諸江町下丁88番地1こすもす居宅支援事業所金沢", "url2": "https://www.kaigokensaku.mhlw.go.jp/17/index.php?action_kouhyou_detail_004_kani=true&JigyosyoCd=1760190791-00&ServiceCd=430&Type=search" }, "geometry": { "type": "Point", "coordinates": [ 136.643776800000069, 36.6042109 ] } },
{ "type": "Feature", "properties": { "内容": "居宅介護支援事業所　あっぷるケアプランサポート【居宅介護支援】金沢市長坂３丁目１－１", "url2": "https://www.kaigokensaku.mhlw.go.jp/17/index.php?action_kouhyou_detail_004_kani=true&JigyosyoCd=1750180125-00&ServiceCd=430&Type=search" }, "geometry": { "type": "Point", "coordinates": [ 136.65628663054963, 36.538217357873201 ] } },
{ "type": "Feature", "properties": { "内容": "公益社団法人石川勤労者医療協会　健生クリニック介護相談センター【居宅介護支援】石川県金沢市平和町３丁目５番２号", "url2": "https://www.kaigokensaku.mhlw.go.jp/17/index.php?action_kouhyou_detail_004_kani=true&JigyosyoCd=1710118223-00&ServiceCd=430&Type=search" }, "geometry": { "type": "Point", "coordinates": [ 136.6609082, 36.5411501 ] } },
{ "type": "Feature", "properties": { "内容": "ケアプランときのえん【居宅介護支援】石川県金沢市弥生2丁目2番20号", "url2": "https://www.kaigokensaku.mhlw.go.jp/17/index.php?action_kouhyou_detail_004_kani=true&JigyosyoCd=1770100277-00&ServiceCd=430&Type=search" }, "geometry": { "type": "Point", "coordinates": [ 136.643083691256209, 36.547183284497557 ] } },
{ "type": "Feature", "properties": { "内容": "ケアマネステーション金沢【居宅介護支援】石川県金沢市本多町3丁目1-22-2", "url2": "https://www.kaigokensaku.mhlw.go.jp/17/index.php?action_kouhyou_detail_004_kani=true&JigyosyoCd=1770106811-00&ServiceCd=430&Type=search" }, "geometry": { "type": "Point", "coordinates": [ 136.659695953130722, 36.560320682742784 ] } },
{ "type": "Feature", "properties": { "内容": "コミット･ケアプラン【居宅介護支援】石川県金沢市新神田1丁目8番12号", "url2": "https://www.kaigokensaku.mhlw.go.jp/17/index.php?action_kouhyou_detail_004_kani=true&JigyosyoCd=1770107108-00&ServiceCd=430&Type=search" }, "geometry": { "type": "Point", "coordinates": [ 136.6317659, 36.5645057 ] } },
{ "type": "Feature", "properties": { "内容": "ケアプラン　うめばち【居宅介護支援】石川県金沢市田上本町3丁目125番地2", "url2": "https://www.kaigokensaku.mhlw.go.jp/17/index.php?action_kouhyou_detail_004_kani=true&JigyosyoCd=1770102448-00&ServiceCd=430&Type=search" }, "geometry": { "type": "Point", "coordinates": [ 136.695460220237663, 36.539261059855008 ] } },
{ "type": "Feature", "properties": { "内容": "サンケア城東店【居宅介護支援】石川県金沢市菊川1丁目32番12号ﾊﾟﾚｽU＆U菊川101号室", "url2": "https://www.kaigokensaku.mhlw.go.jp/17/index.php?action_kouhyou_detail_004_kani=true&JigyosyoCd=1770106043-00&ServiceCd=430&Type=search" }, "geometry": { "type": "Point", "coordinates": [ 136.664989483467139, 36.550476219468671 ] } },
{ "type": "Feature", "properties": { "内容": "金沢春日ケアセンター【居宅介護支援】金沢市元菊町20番1号", "url2": "https://www.kaigokensaku.mhlw.go.jp/17/index.php?action_kouhyou_detail_004_kani=true&JigyosyoCd=1750180018-00&ServiceCd=430&Type=search" }, "geometry": { "type": "Point", "coordinates": [ 136.642261100000042, 36.573679 ] } },
{ "type": "Feature", "properties": { "内容": "居宅介護支援事業所FLOS【居宅介護支援】石川県金沢市小坂町西72番地2", "url2": "https://www.kaigokensaku.mhlw.go.jp/17/index.php?action_kouhyou_detail_004_kani=true&JigyosyoCd=1760191427-00&ServiceCd=430&Type=search" }, "geometry": { "type": "Point", "coordinates": [ 136.670196299999986, 36.5899298 ] } },
{ "type": "Feature", "properties": { "内容": "居宅介護支援事業所　ぽ～れぽ～れ四十万【居宅介護支援】金沢市四十万５丁目１２２番地", "url2": "https://www.kaigokensaku.mhlw.go.jp/17/index.php?action_kouhyou_detail_004_kani=true&JigyosyoCd=1770103990-00&ServiceCd=430&Type=search" }, "geometry": { "type": "Point", "coordinates": [ 136.615981599999941, 36.5052839 ] } },
{ "type": "Feature", "properties": { "内容": "居宅介護支援事業所やすらぎ【居宅介護支援】金沢市上荒屋1-39", "url2": "https://www.kaigokensaku.mhlw.go.jp/17/index.php?action_kouhyou_detail_004_kani=true&JigyosyoCd=1770100186-00&ServiceCd=430&Type=search" }, "geometry": { "type": "Point", "coordinates": [ 136.593050100000028, 36.5456846 ] } },
{ "type": "Feature", "properties": { "内容": "ケアプラン駅西健康企画【居宅介護支援】石川県金沢市駅西本町2丁目1番20号2階", "url2": "https://www.kaigokensaku.mhlw.go.jp/17/index.php?action_kouhyou_detail_004_kani=true&JigyosyoCd=1770106365-00&ServiceCd=430&Type=search" }, "geometry": { "type": "Point", "coordinates": [ 136.635353400000014, 36.5804451 ] } },
{ "type": "Feature", "properties": { "内容": "介護相談センターふれあい（城北）【居宅介護支援】金沢市京町２０番５０号", "url2": "https://www.kaigokensaku.mhlw.go.jp/17/index.php?action_kouhyou_detail_004_kani=true&JigyosyoCd=1710117688-00&ServiceCd=430&Type=search" }, "geometry": { "type": "Point", "coordinates": [ 136.656426600000032, 36.5829169 ] } },
{ "type": "Feature", "properties": { "内容": "介護相談いそべ【居宅介護支援】石川県金沢市磯部町ヲ4－3", "url2": "https://www.kaigokensaku.mhlw.go.jp/17/index.php?action_kouhyou_detail_004_kani=true&JigyosyoCd=1770105581-00&ServiceCd=430&Type=search" }, "geometry": { "type": "Point", "coordinates": [ 136.651411833343445, 36.595290916737397 ] } },
{ "type": "Feature", "properties": { "内容": "金沢健康福祉財団居宅介護支援事業所【居宅介護支援】石川県金沢市大手町３番２３号", "url2": "https://www.kaigokensaku.mhlw.go.jp/17/index.php?action_kouhyou_detail_004_kani=true&JigyosyoCd=1760191393-00&ServiceCd=430&Type=search" }, "geometry": { "type": "Point", "coordinates": [ 136.661164500000041, 36.5688597 ] } },
{ "type": "Feature", "properties": { "内容": "ケアプランすまいる【居宅介護支援】石川県金沢市千木町ヲ５-１", "url2": "https://www.kaigokensaku.mhlw.go.jp/17/index.php?action_kouhyou_detail_004_kani=true&JigyosyoCd=1770106167-00&ServiceCd=430&Type=search" }, "geometry": { "type": "Point", "coordinates": [ 136.669819, 36.6119965 ] } },
{ "type": "Feature", "properties": { "内容": "陽風園生活支援センター【居宅介護支援】石川県金沢市三口新町１丁目８番１号", "url2": "https://www.kaigokensaku.mhlw.go.jp/17/index.php?action_kouhyou_detail_004_kani=true&JigyosyoCd=1770100145-00&ServiceCd=430&Type=search" }, "geometry": { "type": "Point", "coordinates": [ 136.683384599999954, 36.539805800000018 ] } },
{ "type": "Feature", "properties": { "内容": "メディカル居宅介護支援事業所【居宅介護支援】石川県金沢市直江西1-24-1", "url2": "https://www.kaigokensaku.mhlw.go.jp/17/index.php?action_kouhyou_detail_004_kani=true&JigyosyoCd=1770107199-00&ServiceCd=430&Type=search" }, "geometry": { "type": "Point", "coordinates": [ 136.635719200000011, 36.6112097 ] } },
{ "type": "Feature", "properties": { "内容": "居宅介護支援コンパス【居宅介護支援】石川県金沢市三口町金104番地5", "url2": "https://www.kaigokensaku.mhlw.go.jp/17/index.php?action_kouhyou_detail_004_kani=true&JigyosyoCd=1770106381-00&ServiceCd=430&Type=search" }, "geometry": { "type": "Point", "coordinates": [ 136.646334499999966, 36.6078624 ] } },
{ "type": "Feature", "properties": { "内容": "居宅介護支援事業所　まごころ【居宅介護支援】金沢市寺地2丁目１５番５号メゾンドリバー寺地１０１号室", "url2": "https://www.kaigokensaku.mhlw.go.jp/17/index.php?action_kouhyou_detail_004_kani=true&JigyosyoCd=1770102117-00&ServiceCd=430&Type=search" }, "geometry": { "type": "Point", "coordinates": [ 136.635184663008204, 36.537552850220315 ] } },
{ "type": "Feature", "properties": { "内容": "あおいとりケアサービス【居宅介護支援】金沢市久安2-429-2", "url2": "https://www.kaigokensaku.mhlw.go.jp/17/index.php?action_kouhyou_detail_004_kani=true&JigyosyoCd=1770100962-00&ServiceCd=430&Type=search" }, "geometry": { "type": "Point", "coordinates": [ 136.6294332, 36.535775 ] } },
{ "type": "Feature", "properties": { "内容": "居宅ぽかぽか【居宅介護支援】石川県金沢市泉ヶ丘1丁目16番地29", "url2": "https://www.kaigokensaku.mhlw.go.jp/17/index.php?action_kouhyou_detail_004_kani=true&JigyosyoCd=1770106621-00&ServiceCd=430&Type=search" }, "geometry": { "type": "Point", "coordinates": [ 136.645901400000014, 36.545233 ] } },
{ "type": "Feature", "properties": { "内容": "医療法人社団竜山会　金沢古府記念病院　指定居宅介護支援事業所【居宅介護支援】古府一丁目132グリーンヒルズ2　201号室", "url2": "https://www.kaigokensaku.mhlw.go.jp/17/index.php?action_kouhyou_detail_004_kani=true&JigyosyoCd=1710122324-00&ServiceCd=430&Type=search" }, "geometry": { "type": "Point", "coordinates": [ 136.6079929, 36.56393 ] } },
{ "type": "Feature", "properties": { "内容": "幸和快合同会社【居宅介護支援】石川県金沢市戸水1丁目217番地", "url2": "https://www.kaigokensaku.mhlw.go.jp/17/index.php?action_kouhyou_detail_004_kani=true&JigyosyoCd=1770106522-00&ServiceCd=430&Type=search" }, "geometry": { "type": "Point", "coordinates": [ 136.6239573, 36.6041434 ] } },
{ "type": "Feature", "properties": { "内容": "居宅介護支援事業所クリア【居宅介護支援】石川県金沢市高畠1-368", "url2": "https://www.kaigokensaku.mhlw.go.jp/17/index.php?action_kouhyou_detail_004_kani=true&JigyosyoCd=1770107413-00&ServiceCd=430&Type=search" }, "geometry": { "type": "Point", "coordinates": [ 136.6141025, 36.5712037 ] } },
{ "type": "Feature", "properties": { "内容": "東金沢居宅介護支援事業所【居宅介護支援】石川県金沢市小坂町北216エトワール101", "url2": "https://www.kaigokensaku.mhlw.go.jp/17/index.php?action_kouhyou_detail_004_kani=true&JigyosyoCd=1770107082-00&ServiceCd=430&Type=search" }, "geometry": { "type": "Point", "coordinates": [ 136.6786309, 36.5930598 ] } },
{ "type": "Feature", "properties": { "内容": "ふれあいタウン居宅介護支援事業所【居宅介護支援】石川県金沢市有松2-4-32", "url2": "https://www.kaigokensaku.mhlw.go.jp/17/index.php?action_kouhyou_detail_004_kani=true&JigyosyoCd=1770107306-00&ServiceCd=430&Type=search" }, "geometry": { "type": "Point", "coordinates": [ 136.639459499999987, 36.5426024 ] } },
{ "type": "Feature", "properties": { "内容": "介護支援　はぴねす【居宅介護支援】石川県金沢市乙丸町丙54番地３", "url2": "https://www.kaigokensaku.mhlw.go.jp/17/index.php?action_kouhyou_detail_004_kani=true&JigyosyoCd=1770107140-00&ServiceCd=430&Type=search" }, "geometry": { "type": "Point", "coordinates": [ 136.6589851, 36.5888978 ] } },
{ "type": "Feature", "properties": { "内容": "香林苑生活支援センター【居宅介護支援】石川県金沢市野町１丁目３番１５号", "url2": "https://www.kaigokensaku.mhlw.go.jp/17/index.php?action_kouhyou_detail_004_kani=true&JigyosyoCd=1770107322-00&ServiceCd=430&Type=search" }, "geometry": { "type": "Point", "coordinates": [ 136.6484596, 36.5540808 ] } },
{ "type": "Feature", "properties": { "内容": "居宅介護支援事業所　マナの家【居宅介護支援】i石川県金沢市涌波１－１－３２", "url2": "https://www.kaigokensaku.mhlw.go.jp/17/index.php?action_kouhyou_detail_004_kani=true&JigyosyoCd=1770103578-00&ServiceCd=430&Type=search" }, "geometry": { "type": "Point", "coordinates": [ 136.684890200000041, 36.5334594 ] } },
{ "type": "Feature", "properties": { "内容": "居宅介護支援事業所みなみ【居宅介護支援】石川県金沢市馬替2丁目136番地", "url2": "https://www.kaigokensaku.mhlw.go.jp/17/index.php?action_kouhyou_detail_004_kani=true&JigyosyoCd=1770104709-00&ServiceCd=430&Type=search" }, "geometry": { "type": "Point", "coordinates": [ 136.6206994, 36.5209331 ] } },
{ "type": "Feature", "properties": { "内容": "ケアプランセンター医王山【居宅介護支援】石川県金沢市田上さくら1丁目36番地住宅型有料老人ホーム医王山", "url2": "https://www.kaigokensaku.mhlw.go.jp/17/index.php?action_kouhyou_detail_004_kani=true&JigyosyoCd=1770107256-00&ServiceCd=430&Type=search" }, "geometry": { "type": "Point", "coordinates": [ 136.691366499999987, 36.5407419 ] } },
{ "type": "Feature", "properties": { "内容": "いろどりケアプラン【居宅介護支援】石川県金沢市古府3丁目148-3", "url2": "https://www.kaigokensaku.mhlw.go.jp/17/index.php?action_kouhyou_detail_004_kani=true&JigyosyoCd=1770107231-00&ServiceCd=430&Type=search" }, "geometry": { "type": "Point", "coordinates": [ 136.6053415, 36.5704696 ] } },
{ "type": "Feature", "properties": { "内容": "ケアプラン東山【居宅介護支援】石川県金沢市東山2丁目3番11号", "url2": "https://www.kaigokensaku.mhlw.go.jp/17/index.php?action_kouhyou_detail_004_kani=true&JigyosyoCd=1770107546-00&ServiceCd=430&Type=search" }, "geometry": { "type": "Point", "coordinates": [ 136.667414400000013, 36.5746696 ] } },
{ "type": "Feature", "properties": { "内容": "ジュリハキョタクカイゴシエンジギョウショ【居宅介護支援】石川県金沢市富樫3丁目6番17号", "url2": "https://www.kaigokensaku.mhlw.go.jp/17/index.php?action_kouhyou_detail_004_kani=true&JigyosyoCd=1770107660-00&ServiceCd=430&Type=search" }, "geometry": { "type": "Point", "coordinates": [ 136.643163, 36.5375081 ] } },
{ "type": "Feature", "properties": { "内容": "ケアプランマリーナ【居宅介護支援】石川県金沢市粟崎町ル76-23", "url2": "https://www.kaigokensaku.mhlw.go.jp/17/index.php?action_kouhyou_detail_004_kani=true&JigyosyoCd=1770107678-00&ServiceCd=430&Type=search" }, "geometry": { "type": "Point", "coordinates": [ 136.623612, 36.6201725 ] } },
{ "type": "Feature", "properties": { "内容": "ケアプランうちここ【居宅介護支援】石川県金沢市高尾台２丁目149番地", "url2": "https://www.kaigokensaku.mhlw.go.jp/17/index.php?action_kouhyou_detail_004_kani=true&JigyosyoCd=1770107686-00&ServiceCd=430&Type=search" }, "geometry": { "type": "Point", "coordinates": [ 136.6283359, 36.5227839 ] } },
{ "type": "Feature", "properties": { "内容": "指定居宅介護支援事業所　ブランズ【居宅介護支援】石川県金沢市入江1‐42‐1", "url2": "https://www.kaigokensaku.mhlw.go.jp/17/index.php?action_kouhyou_detail_004_kani=true&JigyosyoCd=1770107694-00&ServiceCd=430&Type=search" }, "geometry": { "type": "Point", "coordinates": [ 136.631021299999986, 36.565549 ] } },
{ "type": "Feature", "properties": { "内容": "株式会社ティーズクルー【居宅介護支援】石川県金沢市末町拾九字87番地１", "url2": "https://www.kaigokensaku.mhlw.go.jp/17/index.php?action_kouhyou_detail_004_kani=true&JigyosyoCd=1770106886-00&ServiceCd=430&Type=search" }, "geometry": { "type": "Point", "coordinates": [ 136.689260600000011, 36.5176242 ] } },
{ "type": "Feature", "properties": { "内容": "ケアプランすまいる森本【居宅介護支援】石川県金沢市吉原町ホ45番ナカジマビル101・102", "url2": "https://www.kaigokensaku.mhlw.go.jp/17/index.php?action_kouhyou_detail_004_kani=true&JigyosyoCd=1770107637-00&ServiceCd=430&Type=search" }, "geometry": { "type": "Point", "coordinates": [ 136.690693024992385, 36.611915161427667 ] } },
{ "type": "Feature", "properties": { "内容": "居宅介護支援事業所　穀雨【居宅介護支援】石川県金沢市糸田２丁目70番地4", "url2": "https://www.kaigokensaku.mhlw.go.jp/17/index.php?action_kouhyou_detail_004_kani=true&JigyosyoCd=1770107561-00&ServiceCd=430&Type=search" }, "geometry": { "type": "Point", "coordinates": [ 136.6246251, 36.558682407463785 ] } },
{ "type": "Feature", "properties": { "内容": "サンウェルズ金沢居宅介護支援事業所【居宅介護支援】石川県金沢市諸江町27-9HORIビル2F-A号室", "url2": "https://www.kaigokensaku.mhlw.go.jp/17/index.php?action_kouhyou_detail_004_kani=true&JigyosyoCd=1770104261-00&ServiceCd=430&Type=search" }, "geometry": { "type": "Point", "coordinates": [ 136.641459916273533, 36.593615725465504 ] } },
{ "type": "Feature", "properties": { "内容": "ことほぎ居宅介護支援【居宅介護支援】石川県金沢市高柳町ニ37", "url2": "https://www.kaigokensaku.mhlw.go.jp/17/index.php?action_kouhyou_detail_004_kani=true&JigyosyoCd=1770103966-00&ServiceCd=430&Type=search" }, "geometry": { "type": "Point", "coordinates": [ 136.662003411228511, 36.592833585332002 ] } },
{ "type": "Feature", "properties": { "内容": "田中町温泉ケア・センター　居宅介護支援事業所【居宅介護支援】金沢市田中町は16", "url2": "https://www.kaigokensaku.mhlw.go.jp/17/index.php?action_kouhyou_detail_004_kani=true&JigyosyoCd=1750180075-00&ServiceCd=430&Type=search" }, "geometry": { "type": "Point", "coordinates": [ 136.6605396, 36.5995673 ] } },
{ "type": "Feature", "properties": { "内容": "PTKケアプランセンター【居宅介護支援】石川県金沢市専光寺町レ4番地29シーガルⅠ102号", "url2": "https://www.kaigokensaku.mhlw.go.jp/17/index.php?action_kouhyou_detail_004_kani=true&JigyosyoCd=1770107314-00&ServiceCd=430&Type=search" }, "geometry": { "type": "Point", "coordinates": [ 136.58306540000001, 36.5869449 ] } },
{ "type": "Feature", "properties": { "内容": "居宅介護支援事業所　ひなたぼっこ【居宅介護支援】小丸山台３丁目１３番地２", "url2": "https://www.kaigokensaku.mhlw.go.jp/17/index.php?action_kouhyou_detail_004_kani=true&JigyosyoCd=1770200473-00&ServiceCd=430&Type=search" }, "geometry": { "type": "Point", "coordinates": [ 136.9496361, 37.0468278 ] } },
{ "type": "Feature", "properties": { "内容": "浜野居宅介護支援事業所【居宅介護支援】石川県七尾市津向町野中２０番地１", "url2": "https://www.kaigokensaku.mhlw.go.jp/17/index.php?action_kouhyou_detail_004_kani=true&JigyosyoCd=1710210988-00&ServiceCd=430&Type=search" }, "geometry": { "type": "Point", "coordinates": [ 136.954693200000065, 37.0634079 ] } },
{ "type": "Feature", "properties": { "内容": "七尾訪問看護ステーション居宅介護支援事業所【居宅介護支援】石川県七尾市本府中町ソ２０番地", "url2": "https://www.kaigokensaku.mhlw.go.jp/17/index.php?action_kouhyou_detail_004_kani=true&JigyosyoCd=1760290286-00&ServiceCd=430&Type=search" }, "geometry": { "type": "Point", "coordinates": [ 136.969606699999986, 37.0331921 ] } },
{ "type": "Feature", "properties": { "内容": "介護保険サービスセンター寿老園【居宅介護支援】石川県七尾市中島町鹿島台は部14番地1", "url2": "https://www.kaigokensaku.mhlw.go.jp/17/index.php?action_kouhyou_detail_004_kani=true&JigyosyoCd=1750280198-00&ServiceCd=430&Type=search" }, "geometry": { "type": "Point", "coordinates": [ 136.889571199999978, 37.1310423 ] } },
{ "type": "Feature", "properties": { "内容": "ふれあい介護七尾市社協【居宅介護支援】石川県七尾市御祓町1番地パトリア3階", "url2": "https://www.kaigokensaku.mhlw.go.jp/17/index.php?action_kouhyou_detail_004_kani=true&JigyosyoCd=1770200341-00&ServiceCd=430&Type=search" }, "geometry": { "type": "Point", "coordinates": [ 136.963421617758542, 37.043544269794445 ] } },
{ "type": "Feature", "properties": { "内容": "秀楽苑居宅介護支援事務所【居宅介護支援】石川県七尾市中島町鹿島台は部17番地3", "url2": "https://www.kaigokensaku.mhlw.go.jp/17/index.php?action_kouhyou_detail_004_kani=true&JigyosyoCd=1770200259-00&ServiceCd=430&Type=search" }, "geometry": { "type": "Point", "coordinates": [ 136.889571199999978, 37.1310423 ] } },
{ "type": "Feature", "properties": { "内容": "在宅支援サービスステーションさはら【居宅介護支援】石川県七尾市石崎町タ13番地1", "url2": "https://www.kaigokensaku.mhlw.go.jp/17/index.php?action_kouhyou_detail_004_kani=true&JigyosyoCd=1710211150-00&ServiceCd=430&Type=search" }, "geometry": { "type": "Point", "coordinates": [ 136.924775899999986, 37.0761827 ] } },
{ "type": "Feature", "properties": { "内容": "在宅支援サービスステーションえんやま【居宅介護支援】七尾市千野町に部10番地", "url2": "https://www.kaigokensaku.mhlw.go.jp/17/index.php?action_kouhyou_detail_004_kani=true&JigyosyoCd=1710210913-00&ServiceCd=430&Type=search" }, "geometry": { "type": "Point", "coordinates": [ 136.952653199999986, 37.0158738 ] } },
{ "type": "Feature", "properties": { "内容": "居宅介護支援事業所　あっとほーむ若葉【居宅介護支援】石川県七尾市矢田町２２号七株田１２番地５", "url2": "https://www.kaigokensaku.mhlw.go.jp/17/index.php?action_kouhyou_detail_004_kani=true&JigyosyoCd=1770200135-00&ServiceCd=430&Type=search" }, "geometry": { "type": "Point", "coordinates": [ 136.983191799999986, 37.025588 ] } },
{ "type": "Feature", "properties": { "内容": "ケアマネステーション　恵寿【居宅介護支援】石川県七尾市富岡町９5番地", "url2": "https://www.kaigokensaku.mhlw.go.jp/17/index.php?action_kouhyou_detail_004_kani=true&JigyosyoCd=1710210319-00&ServiceCd=430&Type=search" }, "geometry": { "type": "Point", "coordinates": [ 136.96091796375427, 37.050795037396483 ] } },
{ "type": "Feature", "properties": { "内容": "居宅介護支援事業所　ななまつ【居宅介護支援】七尾市本府中町ワ部5番地", "url2": "https://www.kaigokensaku.mhlw.go.jp/17/index.php?action_kouhyou_detail_004_kani=true&JigyosyoCd=1770200655-00&ServiceCd=430&Type=search" }, "geometry": { "type": "Point", "coordinates": [ 136.9698357, 37.0358019 ] } },
{ "type": "Feature", "properties": { "内容": "居宅介護支援事業所　陽だまり【居宅介護支援】石川県小松市吉竹町4丁目４０３", "url2": "https://www.kaigokensaku.mhlw.go.jp/17/index.php?action_kouhyou_detail_004_kani=true&JigyosyoCd=1770300240-00&ServiceCd=430&Type=search" }, "geometry": { "type": "Point", "coordinates": [ 136.471050200000036, 36.3953193 ] } },
{ "type": "Feature", "properties": { "内容": "居宅介護支援事業所　前沢薬局【居宅介護支援】小松市大川町三丁目46番地", "url2": "https://www.kaigokensaku.mhlw.go.jp/17/index.php?action_kouhyou_detail_004_kani=true&JigyosyoCd=1770300349-00&ServiceCd=430&Type=search" }, "geometry": { "type": "Point", "coordinates": [ 136.450495499999988, 36.4117983 ] } },
{ "type": "Feature", "properties": { "内容": "ニシ・ウエルネス居宅介護支援事業所【居宅介護支援】沖町480番地シティライフこまつ", "url2": "https://www.kaigokensaku.mhlw.go.jp/17/index.php?action_kouhyou_detail_004_kani=true&JigyosyoCd=1770300760-00&ServiceCd=430&Type=search" }, "geometry": { "type": "Point", "coordinates": [ 136.463508728521674, 36.396777055356665 ] } },
{ "type": "Feature", "properties": { "内容": "介護相談サンタの家【居宅介護支援】石川県小松市八幡　癸141-5", "url2": "https://www.kaigokensaku.mhlw.go.jp/17/index.php?action_kouhyou_detail_004_kani=true&JigyosyoCd=1770300497-00&ServiceCd=430&Type=search" }, "geometry": { "type": "Point", "coordinates": [ 136.489310199999977, 36.3921542 ] } },
{ "type": "Feature", "properties": { "内容": "居宅介護支援事業所ファミール【居宅介護支援】石川県小松市安宅町ル１番地８", "url2": "https://www.kaigokensaku.mhlw.go.jp/17/index.php?action_kouhyou_detail_004_kani=true&JigyosyoCd=1770300059-00&ServiceCd=430&Type=search" }, "geometry": { "type": "Point", "coordinates": [ 136.424623647221324, 36.425019960776233 ] } },
{ "type": "Feature", "properties": { "内容": "やたの居宅介護支援事業所【居宅介護支援】矢田野町ミ３０番地", "url2": "https://www.kaigokensaku.mhlw.go.jp/17/index.php?action_kouhyou_detail_004_kani=true&JigyosyoCd=1770300786-00&ServiceCd=430&Type=search" }, "geometry": { "type": "Point", "coordinates": [ 136.421394664989634, 36.336930131836688 ] } },
{ "type": "Feature", "properties": { "内容": "みさと居宅介護支援事業所【居宅介護支援】石川県小松市西町85番地", "url2": "https://www.kaigokensaku.mhlw.go.jp/17/index.php?action_kouhyou_detail_004_kani=true&JigyosyoCd=1770300356-00&ServiceCd=430&Type=search" }, "geometry": { "type": "Point", "coordinates": [ 136.449862044366427, 36.405048659275231 ] } },
{ "type": "Feature", "properties": { "内容": "サンプラザ居宅介護支援事業所【居宅介護支援】石川県小松市中町50番地", "url2": "https://www.kaigokensaku.mhlw.go.jp/17/index.php?action_kouhyou_detail_004_kani=true&JigyosyoCd=1770300927-00&ServiceCd=430&Type=search" }, "geometry": { "type": "Point", "coordinates": [ 136.449831416481828, 36.407240663406114 ] } },
{ "type": "Feature", "properties": { "内容": "まだら園居宅介護支援事業所【居宅介護支援】石川県小松市北浅井町り125番地1", "url2": "https://www.kaigokensaku.mhlw.go.jp/17/index.php?action_kouhyou_detail_004_kani=true&JigyosyoCd=1750380170-00&ServiceCd=430&Type=search" }, "geometry": { "type": "Point", "coordinates": [ 136.4570678, 36.3899887 ] } },
{ "type": "Feature", "properties": { "内容": "居宅介護支援事業所　ここ・から【居宅介護支援】小松市城北町258番地", "url2": "https://www.kaigokensaku.mhlw.go.jp/17/index.php?action_kouhyou_detail_004_kani=true&JigyosyoCd=1770300547-00&ServiceCd=430&Type=search" }, "geometry": { "type": "Point", "coordinates": [ 136.455083400000035, 36.4301032 ] } },
{ "type": "Feature", "properties": { "内容": "居宅介護支援事業所　咲の樹【居宅介護支援】石川県小松市大領中町三丁目109番地医療法人社団松陽　咲の樹　事務室", "url2": "https://www.kaigokensaku.mhlw.go.jp/17/index.php?action_kouhyou_detail_004_kani=true&JigyosyoCd=1770300901-00&ServiceCd=430&Type=search" }, "geometry": { "type": "Point", "coordinates": [ 136.447134954492185, 36.38705314526652 ] } },
{ "type": "Feature", "properties": { "内容": "たるる居宅介護支援事業所【居宅介護支援】石川県小松市北浅井町舟津２６たるる北浅井", "url2": "https://www.kaigokensaku.mhlw.go.jp/17/index.php?action_kouhyou_detail_004_kani=true&JigyosyoCd=1770300893-00&ServiceCd=430&Type=search" }, "geometry": { "type": "Point", "coordinates": [ 136.4556901, 36.3894046 ] } },
{ "type": "Feature", "properties": { "内容": "居宅介護支援事業所ソフィア【居宅介護支援】石川県小松市土居原町291番地1", "url2": "https://www.kaigokensaku.mhlw.go.jp/17/index.php?action_kouhyou_detail_004_kani=true&JigyosyoCd=1770300737-00&ServiceCd=430&Type=search" }, "geometry": { "type": "Point", "coordinates": [ 136.450895519235218, 36.401608350414072 ] } },
{ "type": "Feature", "properties": { "内容": "ほっと今江居宅介護支援事業所【居宅介護支援】今江町7丁目18番地1", "url2": "https://www.kaigokensaku.mhlw.go.jp/17/index.php?action_kouhyou_detail_004_kani=true&JigyosyoCd=1770300406-00&ServiceCd=430&Type=search" }, "geometry": { "type": "Point", "coordinates": [ 136.435770300000058, 36.3815603 ] } },
{ "type": "Feature", "properties": { "内容": "森田病院【居宅介護支援】石川県小松市園町ホ99番地1", "url2": "https://www.kaigokensaku.mhlw.go.jp/17/index.php?action_kouhyou_detail_004_kani=true&JigyosyoCd=1710311562-00&ServiceCd=430&Type=search" }, "geometry": { "type": "Point", "coordinates": [ 136.460411499999964, 36.408197 ] } },
{ "type": "Feature", "properties": { "内容": "ウェリナ居宅介護支援事業所【居宅介護支援】石川県小松市八幡ロ41番地12有料老人ホームウェリナ別館内　ウェリナ居宅介護支援事業所", "url2": "https://www.kaigokensaku.mhlw.go.jp/17/index.php?action_kouhyou_detail_004_kani=true&JigyosyoCd=1770300679-00&ServiceCd=430&Type=search" }, "geometry": { "type": "Point", "coordinates": [ 136.490284914155552, 36.389239586932455 ] } },
{ "type": "Feature", "properties": { "内容": "介護相談センター　グリーン・ポート小松【居宅介護支援】石川県小松市岩渕町46番地2", "url2": "https://www.kaigokensaku.mhlw.go.jp/17/index.php?action_kouhyou_detail_004_kani=true&JigyosyoCd=1750380204-00&ServiceCd=430&Type=search" }, "geometry": { "type": "Point", "coordinates": [ 136.526641, 36.3917314 ] } },
{ "type": "Feature", "properties": { "内容": "介護相談センターレイクサイド木場【居宅介護支援】石川県小松市三谷町そ80番地", "url2": "https://www.kaigokensaku.mhlw.go.jp/17/index.php?action_kouhyou_detail_004_kani=true&JigyosyoCd=1750380345-00&ServiceCd=430&Type=search" }, "geometry": { "type": "Point", "coordinates": [ 136.453944408598318, 36.368920656111086 ] } },
{ "type": "Feature", "properties": { "内容": "社会福祉法人天宣会　みゆきの郷居宅介護支援事業所【居宅介護支援】石川県小松市松崎町赤場１－１", "url2": "https://www.kaigokensaku.mhlw.go.jp/17/index.php?action_kouhyou_detail_004_kani=true&JigyosyoCd=1770300422-00&ServiceCd=430&Type=search" }, "geometry": { "type": "Point", "coordinates": [ 136.414245599999958, 36.3718409 ] } },
{ "type": "Feature", "properties": { "内容": "第二松寿園居宅介護支援事業所【居宅介護支援】石川県小松市月津町ヲ９５番地", "url2": "https://www.kaigokensaku.mhlw.go.jp/17/index.php?action_kouhyou_detail_004_kani=true&JigyosyoCd=1770300182-00&ServiceCd=430&Type=search" }, "geometry": { "type": "Point", "coordinates": [ 136.414590099999941, 36.3515556 ] } },
{ "type": "Feature", "properties": { "内容": "介護相談センター田谷医院【居宅介護支援】石川県小松市園町二２９番地１", "url2": "https://www.kaigokensaku.mhlw.go.jp/17/index.php?action_kouhyou_detail_004_kani=true&JigyosyoCd=1710311307-00&ServiceCd=430&Type=search" }, "geometry": { "type": "Point", "coordinates": [ 136.463682881536897, 36.404691819956952 ] } },
{ "type": "Feature", "properties": { "内容": "居宅介護支援事業所　明峰の里【居宅介護支援】石川県小松市蛭川町西１０３番地", "url2": "https://www.kaigokensaku.mhlw.go.jp/17/index.php?action_kouhyou_detail_004_kani=true&JigyosyoCd=1770300521-00&ServiceCd=430&Type=search" }, "geometry": { "type": "Point", "coordinates": [ 136.455213800000024, 36.4341718 ] } },
{ "type": "Feature", "properties": { "内容": "自生園相談室【居宅介護支援】石川県小松市上荒屋町ソ4番地10", "url2": "https://www.kaigokensaku.mhlw.go.jp/17/index.php?action_kouhyou_detail_004_kani=true&JigyosyoCd=1770300034-00&ServiceCd=430&Type=search" }, "geometry": { "type": "Point", "coordinates": [ 136.43120250000004, 36.3281492 ] } },
{ "type": "Feature", "properties": { "内容": "アリシス居宅介護支援事業所【居宅介護支援】上小松町丙41番地１上小松クリニック内", "url2": "https://www.kaigokensaku.mhlw.go.jp/17/index.php?action_kouhyou_detail_004_kani=true&JigyosyoCd=1760390821-00&ServiceCd=430&Type=search" }, "geometry": { "type": "Point", "coordinates": [ 136.46467240000004, 36.4080918 ] } },
{ "type": "Feature", "properties": { "内容": "JAきらら指定居宅介護支援事業所【居宅介護支援】小松市長谷町５０番地５", "url2": "https://www.kaigokensaku.mhlw.go.jp/17/index.php?action_kouhyou_detail_004_kani=true&JigyosyoCd=1770300018-00&ServiceCd=430&Type=search" }, "geometry": { "type": "Point", "coordinates": [ 136.485775099999955, 36.3568784 ] } },
{ "type": "Feature", "properties": { "内容": "やわた居宅介護支援事業所【居宅介護支援】小松市八幡イ12番地７", "url2": "https://www.kaigokensaku.mhlw.go.jp/17/index.php?action_kouhyou_detail_004_kani=true&JigyosyoCd=1710310929-00&ServiceCd=430&Type=search" }, "geometry": { "type": "Point", "coordinates": [ 136.490742621426449, 36.392190011908177 ] } },
{ "type": "Feature", "properties": { "内容": "松寿園介護センター【居宅介護支援】小松市向本折町ホ31番地", "url2": "https://www.kaigokensaku.mhlw.go.jp/17/index.php?action_kouhyou_detail_004_kani=true&JigyosyoCd=1770300083-00&ServiceCd=430&Type=search" }, "geometry": { "type": "Point", "coordinates": [ 136.43974419999995, 36.3968306 ] } },
{ "type": "Feature", "properties": { "内容": "相談室　仁優【居宅介護支援】石川県小松市串町27番地1", "url2": "https://www.kaigokensaku.mhlw.go.jp/17/index.php?action_kouhyou_detail_004_kani=true&JigyosyoCd=1770300935-00&ServiceCd=430&Type=search" }, "geometry": { "type": "Point", "coordinates": [ 136.4156535, 36.370143 ] } },
{ "type": "Feature", "properties": { "内容": "介護相談センターまめさ【居宅介護支援】石川県小松市矢崎町ハ192番地1", "url2": "https://www.kaigokensaku.mhlw.go.jp/17/index.php?action_kouhyou_detail_004_kani=true&JigyosyoCd=1770301016-00&ServiceCd=430&Type=search" }, "geometry": { "type": "Point", "coordinates": [ 136.432607859447046, 36.366210169845907 ] } },
{ "type": "Feature", "properties": { "内容": "居宅介護支援事業所　かいごの相談室【居宅介護支援】上寺町３７番地３", "url2": "https://www.kaigokensaku.mhlw.go.jp/17/index.php?action_kouhyou_detail_004_kani=true&JigyosyoCd=1770301032-00&ServiceCd=430&Type=search" }, "geometry": { "type": "Point", "coordinates": [ 136.446643200000011, 36.4006121 ] } },
{ "type": "Feature", "properties": { "内容": "テラス居宅介護支援事業所【居宅介護支援】石川県小松市中町28番地", "url2": "https://www.kaigokensaku.mhlw.go.jp/17/index.php?action_kouhyou_detail_004_kani=true&JigyosyoCd=1770301073-00&ServiceCd=430&Type=search" }, "geometry": { "type": "Point", "coordinates": [ 136.4497002, 36.4065244 ] } },
{ "type": "Feature", "properties": { "内容": "居宅介護支援事業所ややのいえ【居宅介護支援】石川県小松市小馬出町18番地", "url2": "https://www.kaigokensaku.mhlw.go.jp/17/index.php?action_kouhyou_detail_004_kani=true&JigyosyoCd=1760391167-00&ServiceCd=430&Type=search" }, "geometry": { "type": "Point", "coordinates": [ 136.447733699999986, 36.4064192 ] } },
{ "type": "Feature", "properties": { "内容": "しゃかいふくしほうじんてんせんかい　めぐみのさときょたくかいごしえんじぎょうしょ【居宅介護支援】石川県小松市平面町ヘ１３３番地１", "url2": "https://www.kaigokensaku.mhlw.go.jp/17/index.php?action_kouhyou_detail_004_kani=true&JigyosyoCd=1770301057-00&ServiceCd=430&Type=search" }, "geometry": { "type": "Point", "coordinates": [ 136.467227446032751, 36.420320068338363 ] } },
{ "type": "Feature", "properties": { "内容": "輪島市社会福祉協議会　介護安心センター【居宅介護支援】石川県輪島市河井町１３部１２０番地１", "url2": "https://www.kaigokensaku.mhlw.go.jp/17/index.php?action_kouhyou_detail_004_kani=true&JigyosyoCd=1770400107-00&ServiceCd=430&Type=search" }, "geometry": { "type": "Point", "coordinates": [ 136.907140009227646, 37.392329237986722 ] } },
{ "type": "Feature", "properties": { "内容": "ゆきわりそう居宅介護支援事業所【居宅介護支援】石川県輪島市門前町深田ろ６番地", "url2": "https://www.kaigokensaku.mhlw.go.jp/17/index.php?action_kouhyou_detail_004_kani=true&JigyosyoCd=1770400172-00&ServiceCd=430&Type=search" }, "geometry": { "type": "Point", "coordinates": [ 136.780908700000026, 37.2885921 ] } },
{ "type": "Feature", "properties": { "内容": "あての木園居宅介護支援事務所【居宅介護支援】石川県輪島市三井町小泉上野２番地", "url2": "https://www.kaigokensaku.mhlw.go.jp/17/index.php?action_kouhyou_detail_004_kani=true&JigyosyoCd=1770400016-00&ServiceCd=430&Type=search" }, "geometry": { "type": "Point", "coordinates": [ 136.896431799999959, 37.2970977 ] } },
{ "type": "Feature", "properties": { "内容": "輪島診療所介護相談センター【居宅介護支援】輪島市堀町１字１３―２", "url2": "https://www.kaigokensaku.mhlw.go.jp/17/index.php?action_kouhyou_detail_004_kani=true&JigyosyoCd=1710410380-00&ServiceCd=430&Type=search" }, "geometry": { "type": "Point", "coordinates": [ 136.89511, 37.3893317 ] } },
{ "type": "Feature", "properties": { "内容": "あかかみ居宅サービスセンター【居宅介護支援】石川県輪島市門前町赤神１０の１番地", "url2": "https://www.kaigokensaku.mhlw.go.jp/17/index.php?action_kouhyou_detail_004_kani=true&JigyosyoCd=1770400115-00&ServiceCd=430&Type=search" }, "geometry": { "type": "Point", "coordinates": [ 136.708625466934194, 37.246195100000016 ] } },
{ "type": "Feature", "properties": { "内容": "居宅介護支援事業所　福祉の杜【居宅介護支援】石川県輪島市山岸町い２６番地２", "url2": "https://www.kaigokensaku.mhlw.go.jp/17/index.php?action_kouhyou_detail_004_kani=true&JigyosyoCd=1770400222-00&ServiceCd=430&Type=search" }, "geometry": { "type": "Point", "coordinates": [ 136.9078572, 37.3828896 ] } },
{ "type": "Feature", "properties": { "内容": "長寿園居宅サービスセンター【居宅介護支援】宝立町春日野4字117番地", "url2": "https://www.kaigokensaku.mhlw.go.jp/17/index.php?action_kouhyou_detail_004_kani=true&JigyosyoCd=1770500013-00&ServiceCd=430&Type=search" }, "geometry": { "type": "Point", "coordinates": [ 137.240272199999907, 37.4113186 ] } },
{ "type": "Feature", "properties": { "内容": "珠洲市社会福祉協議会居宅介護支援サービスセンター【居宅介護支援】珠洲市飯田町５部９番地健康増進センター内", "url2": "https://www.kaigokensaku.mhlw.go.jp/17/index.php?action_kouhyou_detail_004_kani=true&JigyosyoCd=1770500021-00&ServiceCd=430&Type=search" }, "geometry": { "type": "Point", "coordinates": [ 137.263275, 37.4363362 ] } },
{ "type": "Feature", "properties": { "内容": "居宅介護支援事業所朗加賀【居宅介護支援】加賀市山代温泉桔梗ヶ丘3-24-3", "url2": "https://www.kaigokensaku.mhlw.go.jp/17/index.php?action_kouhyou_detail_004_kani=true&JigyosyoCd=1770600201-00&ServiceCd=430&Type=search" }, "geometry": { "type": "Point", "coordinates": [ 136.357048599999985, 36.2857303 ] } },
{ "type": "Feature", "properties": { "内容": "居宅介護支援相談室　みつばち【居宅介護支援】石川県加賀市松が丘１丁目７－３１渋谷医院内", "url2": "https://www.kaigokensaku.mhlw.go.jp/17/index.php?action_kouhyou_detail_004_kani=true&JigyosyoCd=1770600466-00&ServiceCd=430&Type=search" }, "geometry": { "type": "Point", "coordinates": [ 136.345154099999945, 36.3242004 ] } },
{ "type": "Feature", "properties": { "内容": "野の花【居宅介護支援】加賀市南郷町ト111番地3", "url2": "https://www.kaigokensaku.mhlw.go.jp/17/index.php?action_kouhyou_detail_004_kani=true&JigyosyoCd=1770600326-00&ServiceCd=430&Type=search" }, "geometry": { "type": "Point", "coordinates": [ 136.329448147609327, 36.302311683440649 ] } },
{ "type": "Feature", "properties": { "内容": "さわらび居宅介護支援事業所【居宅介護支援】石川県加賀市山中温泉塚谷町ロ24番地1", "url2": "https://www.kaigokensaku.mhlw.go.jp/17/index.php?action_kouhyou_detail_004_kani=true&JigyosyoCd=1760690717-00&ServiceCd=430&Type=search" }, "geometry": { "type": "Point", "coordinates": [ 136.36982880000005, 36.2590923 ] } },
{ "type": "Feature", "properties": { "内容": "加賀のぞみ園居宅介護支援事業所【居宅介護支援】南郷町３乙４番地", "url2": "https://www.kaigokensaku.mhlw.go.jp/17/index.php?action_kouhyou_detail_004_kani=true&JigyosyoCd=1750680041-00&ServiceCd=430&Type=search" }, "geometry": { "type": "Point", "coordinates": [ 136.326304199999981, 36.292387 ] } },
{ "type": "Feature", "properties": { "内容": "居宅介護支援事業所　あんしん【居宅介護支援】作見町り７７", "url2": "https://www.kaigokensaku.mhlw.go.jp/17/index.php?action_kouhyou_detail_004_kani=true&JigyosyoCd=1770600482-00&ServiceCd=430&Type=search" }, "geometry": { "type": "Point", "coordinates": [ 136.350266848271218, 36.316668756419091 ] } },
{ "type": "Feature", "properties": { "内容": "株式会社　加賀福祉サービス　ケアセンターえがお【居宅介護支援】加賀市作見町ホ56番地1", "url2": "https://www.kaigokensaku.mhlw.go.jp/17/index.php?action_kouhyou_detail_004_kani=true&JigyosyoCd=1770600011-00&ServiceCd=430&Type=search" }, "geometry": { "type": "Point", "coordinates": [ 136.35798079999995, 36.3159156 ] } },
{ "type": "Feature", "properties": { "内容": "加賀中央居宅介護支援事業所【居宅介護支援】石川県加賀市大聖寺東町1-26-1", "url2": "https://www.kaigokensaku.mhlw.go.jp/17/index.php?action_kouhyou_detail_004_kani=true&JigyosyoCd=1770600045-00&ServiceCd=430&Type=search" }, "geometry": { "type": "Point", "coordinates": [ 136.318267134456477, 36.305603260623379 ] } },
{ "type": "Feature", "properties": { "内容": "サンウェルズ南加賀居宅介護支援事業所【居宅介護支援】河原町ホ36番地", "url2": "https://www.kaigokensaku.mhlw.go.jp/17/index.php?action_kouhyou_detail_004_kani=true&JigyosyoCd=1770600540-00&ServiceCd=430&Type=search" }, "geometry": { "type": "Point", "coordinates": [ 136.773503299999987, 36.816362 ] } },
{ "type": "Feature", "properties": { "内容": "鈴　介護相談室【居宅介護支援】石川県加賀市山中温泉長谷田町ロ４３５番地", "url2": "https://www.kaigokensaku.mhlw.go.jp/17/index.php?action_kouhyou_detail_004_kani=true&JigyosyoCd=1770600656-00&ServiceCd=430&Type=search" }, "geometry": { "type": "Point", "coordinates": [ 136.3564477, 36.2684831 ] } },
{ "type": "Feature", "properties": { "内容": "丘の上居宅介護支援事業所【居宅介護支援】加賀市冨塚町中尾126-2", "url2": "https://www.kaigokensaku.mhlw.go.jp/17/index.php?action_kouhyou_detail_004_kani=true&JigyosyoCd=1770600607-00&ServiceCd=430&Type=search" }, "geometry": { "type": "Point", "coordinates": [ 136.361818699999958, 36.3357132 ] } },
{ "type": "Feature", "properties": { "内容": "医療法人社団加賀白山会板谷医院　居宅介護支援事業所【居宅介護支援】石川県加賀市山代温泉35の14番地の3サービス付き高齢者住宅かがやき", "url2": "https://www.kaigokensaku.mhlw.go.jp/17/index.php?action_kouhyou_detail_004_kani=true&JigyosyoCd=1770600516-00&ServiceCd=430&Type=search" }, "geometry": { "type": "Point", "coordinates": [ 136.358358122090152, 36.301306850863241 ] } },
{ "type": "Feature", "properties": { "内容": "たきの里居宅介護支援事業所【居宅介護支援】石川県加賀市山中温泉滝町リ1番1", "url2": "https://www.kaigokensaku.mhlw.go.jp/17/index.php?action_kouhyou_detail_004_kani=true&JigyosyoCd=1770600698-00&ServiceCd=430&Type=search" }, "geometry": { "type": "Point", "coordinates": [ 136.4008259, 36.259183400000026 ] } },
{ "type": "Feature", "properties": { "内容": "加賀温泉ケアセンター居宅介護支援事業所【居宅介護支援】石川県加賀市直下町ヲ91番地", "url2": "https://www.kaigokensaku.mhlw.go.jp/17/index.php?action_kouhyou_detail_004_kani=true&JigyosyoCd=1750680348-00&ServiceCd=430&Type=search" }, "geometry": { "type": "Point", "coordinates": [ 136.327854900000034, 36.2773916 ] } },
{ "type": "Feature", "properties": { "内容": "羽咋市在宅総合サービスステーション【居宅介護支援】石川県羽咋市鶴多町亀田17番地羽咋すこやかセンター２階", "url2": "https://www.kaigokensaku.mhlw.go.jp/17/index.php?action_kouhyou_detail_004_kani=true&JigyosyoCd=1760790566-00&ServiceCd=430&Type=search" }, "geometry": { "type": "Point", "coordinates": [ 136.791364199999947, 36.8980509 ] } },
{ "type": "Feature", "properties": { "内容": "介護相談センター羽咋【居宅介護支援】羽咋市柳橋町堂田53-1", "url2": "https://www.kaigokensaku.mhlw.go.jp/17/index.php?action_kouhyou_detail_004_kani=true&JigyosyoCd=1710710342-00&ServiceCd=430&Type=search" }, "geometry": { "type": "Point", "coordinates": [ 136.786426099999971, 36.8928044 ] } },
{ "type": "Feature", "properties": { "内容": "居宅介護支援事業所悠和ウエルネス【居宅介護支援】石川県羽咋市寺家町セ２番地１住宅型有料老人ホーム能登和楽の里", "url2": "https://www.kaigokensaku.mhlw.go.jp/17/index.php?action_kouhyou_detail_004_kani=true&JigyosyoCd=1770700332-00&ServiceCd=430&Type=search" }, "geometry": { "type": "Point", "coordinates": [ 136.76353789999996, 36.9299213 ] } },
{ "type": "Feature", "properties": { "内容": "ＳＯＭＰＯケア　羽咋　居宅介護支援【居宅介護支援】石川県羽咋市南中央町キ154-14和田ビル１階", "url2": "https://www.kaigokensaku.mhlw.go.jp/17/index.php?action_kouhyou_detail_004_kani=true&JigyosyoCd=1770700241-00&ServiceCd=430&Type=search" }, "geometry": { "type": "Point", "coordinates": [ 136.778321639564524, 36.890798111580523 ] } },
{ "type": "Feature", "properties": { "内容": "オールケアサービス羽咋【居宅介護支援】石川県羽咋市大川町2丁目77番地1", "url2": "https://www.kaigokensaku.mhlw.go.jp/17/index.php?action_kouhyou_detail_004_kani=true&JigyosyoCd=1770700316-00&ServiceCd=430&Type=search" }, "geometry": { "type": "Point", "coordinates": [ 136.777820021836334, 36.903183800724833 ] } },
{ "type": "Feature", "properties": { "内容": "介護センター眉丈園【居宅介護支援】石川県羽咋市的場町稲荷山出口26番地2", "url2": "https://www.kaigokensaku.mhlw.go.jp/17/index.php?action_kouhyou_detail_004_kani=true&JigyosyoCd=1770700027-00&ServiceCd=430&Type=search" }, "geometry": { "type": "Point", "coordinates": [ 136.779991650262446, 36.901780736213034 ] } },
{ "type": "Feature", "properties": { "内容": "介護センターおうちの里【居宅介護支援】羽咋市飯山町ル1番地1", "url2": "https://www.kaigokensaku.mhlw.go.jp/17/index.php?action_kouhyou_detail_004_kani=true&JigyosyoCd=1770700050-00&ServiceCd=430&Type=search" }, "geometry": { "type": "Point", "coordinates": [ 136.82832350000001, 36.9026902 ] } },
{ "type": "Feature", "properties": { "内容": "あわら【居宅介護支援】石川県羽咋市粟原町イ109番地", "url2": "https://www.kaigokensaku.mhlw.go.jp/17/index.php?action_kouhyou_detail_004_kani=true&JigyosyoCd=1770700282-00&ServiceCd=430&Type=search" }, "geometry": { "type": "Point", "coordinates": [ 136.7851885, 36.8741461 ] } },
{ "type": "Feature", "properties": { "内容": "中田内科病院　介護保険相談センター【居宅介護支援】石川県かほく市内日角6-35-1中田内科病院", "url2": "https://www.kaigokensaku.mhlw.go.jp/17/index.php?action_kouhyou_detail_004_kani=true&JigyosyoCd=1712110145-00&ServiceCd=430&Type=search" }, "geometry": { "type": "Point", "coordinates": [ 136.696444700000029, 36.7169708 ] } },
{ "type": "Feature", "properties": { "内容": "かほく中央訪問看護ステーション居宅介護支援事業所【居宅介護支援】石川県かほく市遠塚ロ52番地10かほく市七塚健康福祉センター", "url2": "https://www.kaigokensaku.mhlw.go.jp/17/index.php?action_kouhyou_detail_004_kani=true&JigyosyoCd=1762190609-00&ServiceCd=430&Type=search" }, "geometry": { "type": "Point", "coordinates": [ 136.700727, 36.7347602 ] } },
{ "type": "Feature", "properties": { "内容": "かほく高松訪問看護ステーション居宅介護支援事業所【居宅介護支援】かほく市高松ｸ42-1かほく市高松産業文化センター１階", "url2": "https://www.kaigokensaku.mhlw.go.jp/17/index.php?action_kouhyou_detail_004_kani=true&JigyosyoCd=1762190591-00&ServiceCd=430&Type=search" }, "geometry": { "type": "Point", "coordinates": [ 136.72125410000001, 36.7693588 ] } },
{ "type": "Feature", "properties": { "内容": "株式会社中村産業たから居宅介護支援事業所【居宅介護支援】石川県かほく市白尾ナ42－1", "url2": "https://www.kaigokensaku.mhlw.go.jp/17/index.php?action_kouhyou_detail_004_kani=true&JigyosyoCd=1772100101-00&ServiceCd=430&Type=search" }, "geometry": { "type": "Point", "coordinates": [ 136.6903678, 36.7129851 ] } },
{ "type": "Feature", "properties": { "内容": "芙蓉会居宅介護支援センター【居宅介護支援】石川県かほく市学園台5丁目19番地1", "url2": "https://www.kaigokensaku.mhlw.go.jp/17/index.php?action_kouhyou_detail_004_kani=true&JigyosyoCd=1772100010-00&ServiceCd=430&Type=search" }, "geometry": { "type": "Point", "coordinates": [ 136.729632664311538, 36.780038044023357 ] } },
{ "type": "Feature", "properties": { "内容": "介護センター海青【居宅介護支援】石川県かほく市秋浜へ２０番地４", "url2": "https://www.kaigokensaku.mhlw.go.jp/17/index.php?action_kouhyou_detail_004_kani=true&JigyosyoCd=1772100200-00&ServiceCd=430&Type=search" }, "geometry": { "type": "Point", "coordinates": [ 136.692386599999963, 36.7279721 ] } },
{ "type": "Feature", "properties": { "内容": "社会福祉法人かほく市社会福祉協議会中央居宅介護支援事業所【居宅介護支援】石川県かほく市遠塚ロ52番地10かほく市七塚健康福祉センター内", "url2": "https://www.kaigokensaku.mhlw.go.jp/17/index.php?action_kouhyou_detail_004_kani=true&JigyosyoCd=1772100143-00&ServiceCd=430&Type=search" }, "geometry": { "type": "Point", "coordinates": [ 136.700727, 36.7347602 ] } },
{ "type": "Feature", "properties": { "内容": "あいおい居宅介護支援事業所【居宅介護支援】石川県かほく市宇気イ51番地1", "url2": "https://www.kaigokensaku.mhlw.go.jp/17/index.php?action_kouhyou_detail_004_kani=true&JigyosyoCd=1772100028-00&ServiceCd=430&Type=search" }, "geometry": { "type": "Point", "coordinates": [ 136.713174794612996, 36.736588926915267 ] } },
{ "type": "Feature", "properties": { "内容": "なぎさケアサービス【居宅介護支援】かほく市白尾タ19-1", "url2": "https://www.kaigokensaku.mhlw.go.jp/17/index.php?action_kouhyou_detail_004_kani=true&JigyosyoCd=1772100184-00&ServiceCd=430&Type=search" }, "geometry": { "type": "Point", "coordinates": [ 136.695053300000041, 36.7161209 ] } },
{ "type": "Feature", "properties": { "内容": "ただなわケアプランセンター【居宅介護支援】石川県白山市井口町に78番地1", "url2": "https://www.kaigokensaku.mhlw.go.jp/17/index.php?action_kouhyou_detail_004_kani=true&JigyosyoCd=1712210838-00&ServiceCd=430&Type=search" }, "geometry": { "type": "Point", "coordinates": [ 136.602189, 36.4713967 ] } },
{ "type": "Feature", "properties": { "内容": "公立つるぎ病院【居宅介護支援】石川県白山市鶴来水戸町ノ１番地", "url2": "https://www.kaigokensaku.mhlw.go.jp/17/index.php?action_kouhyou_detail_004_kani=true&JigyosyoCd=1712210614-00&ServiceCd=430&Type=search" }, "geometry": { "type": "Point", "coordinates": [ 136.623731600000042, 36.4472426 ] } },
{ "type": "Feature", "properties": { "内容": "白山鶴来訪問看護ステーション居宅介護支援事業所【居宅介護支援】白山市月橋町697-1鶴来保健センター内", "url2": "https://www.kaigokensaku.mhlw.go.jp/17/index.php?action_kouhyou_detail_004_kani=true&JigyosyoCd=1762290631-00&ServiceCd=430&Type=search" }, "geometry": { "type": "Point", "coordinates": [ 136.620078899999953, 36.45673 ] } },
{ "type": "Feature", "properties": { "内容": "白山松任訪問看護ステーション居宅介護支援事業所【居宅介護支援】白山市倉光3丁目100健康ｾﾝﾀｰ松任　１階", "url2": "https://www.kaigokensaku.mhlw.go.jp/17/index.php?action_kouhyou_detail_004_kani=true&JigyosyoCd=1762290623-00&ServiceCd=430&Type=search" }, "geometry": { "type": "Point", "coordinates": [ 136.564499603179911, 36.50996053069877 ] } },
{ "type": "Feature", "properties": { "内容": "居宅介護支援センターえくぼ【居宅介護支援】石川県白山市平加町ニ66-1", "url2": "https://www.kaigokensaku.mhlw.go.jp/17/index.php?action_kouhyou_detail_004_kani=true&JigyosyoCd=1712210705-00&ServiceCd=430&Type=search" }, "geometry": { "type": "Point", "coordinates": [ 136.499715704754635, 36.492772710626923 ] } },
{ "type": "Feature", "properties": { "内容": "ひらまつケアプランセンター【居宅介護支援】白山市村井町322番地6", "url2": "https://www.kaigokensaku.mhlw.go.jp/17/index.php?action_kouhyou_detail_004_kani=true&JigyosyoCd=1772200869-00&ServiceCd=430&Type=search" }, "geometry": { "type": "Point", "coordinates": [ 136.558383699999979, 36.514992 ] } },
{ "type": "Feature", "properties": { "内容": "美杉の郷ケアプランセンター【居宅介護支援】白山市桑島４号８７番地５", "url2": "https://www.kaigokensaku.mhlw.go.jp/17/index.php?action_kouhyou_detail_004_kani=true&JigyosyoCd=1772200257-00&ServiceCd=430&Type=search" }, "geometry": { "type": "Point", "coordinates": [ 136.625598200000013, 36.1985246 ] } },
{ "type": "Feature", "properties": { "内容": "居宅介護支援センター鶴来【居宅介護支援】石川県白山市鶴来本町4丁目リ33番地3", "url2": "https://www.kaigokensaku.mhlw.go.jp/17/index.php?action_kouhyou_detail_004_kani=true&JigyosyoCd=1772200398-00&ServiceCd=430&Type=search" }, "geometry": { "type": "Point", "coordinates": [ 136.623722421314937, 36.454678063048895 ] } },
{ "type": "Feature", "properties": { "内容": "やわらぎ生活研究所【居宅介護支援】白山市美川新町ル121-3", "url2": "https://www.kaigokensaku.mhlw.go.jp/17/index.php?action_kouhyou_detail_004_kani=true&JigyosyoCd=1772201107-00&ServiceCd=430&Type=search" }, "geometry": { "type": "Point", "coordinates": [ 136.4841264, 36.4874757 ] } },
{ "type": "Feature", "properties": { "内容": "Life-works居宅介護支援事業所【居宅介護支援】石川県白山市宮保町1361-1", "url2": "https://www.kaigokensaku.mhlw.go.jp/17/index.php?action_kouhyou_detail_004_kani=true&JigyosyoCd=1772201008-00&ServiceCd=430&Type=search" }, "geometry": { "type": "Point", "coordinates": [ 136.6020045, 36.4915284 ] } },
{ "type": "Feature", "properties": { "内容": "居宅介護支援事業所しおん【居宅介護支援】白山市明島町西115-1", "url2": "https://www.kaigokensaku.mhlw.go.jp/17/index.php?action_kouhyou_detail_004_kani=true&JigyosyoCd=1772200588-00&ServiceCd=430&Type=search" }, "geometry": { "type": "Point", "coordinates": [ 136.603369500000014, 36.468647099999984 ] } },
{ "type": "Feature", "properties": { "内容": "キラッと居宅介護支援事業所【居宅介護支援】石川県白山市湊町カ３７７番地１", "url2": "https://www.kaigokensaku.mhlw.go.jp/17/index.php?action_kouhyou_detail_004_kani=true&JigyosyoCd=1772200638-00&ServiceCd=430&Type=search" }, "geometry": { "type": "Point", "coordinates": [ 136.473470701188717, 36.468788439595798 ] } },
{ "type": "Feature", "properties": { "内容": "つるべ荘居宅介護支援センター【居宅介護支援】石川県白山市一塚町1351番地1", "url2": "https://www.kaigokensaku.mhlw.go.jp/17/index.php?action_kouhyou_detail_004_kani=true&JigyosyoCd=1772200125-00&ServiceCd=430&Type=search" }, "geometry": { "type": "Point", "coordinates": [ 136.558924700000034, 36.5614951 ] } },
{ "type": "Feature", "properties": { "内容": "大門園　居宅サービスセンター【居宅介護支援】佐良ロ１２３番地", "url2": "https://www.kaigokensaku.mhlw.go.jp/17/index.php?action_kouhyou_detail_004_kani=true&JigyosyoCd=1772200224-00&ServiceCd=430&Type=search" }, "geometry": { "type": "Point", "coordinates": [ 136.646557600000051, 36.324617 ] } },
{ "type": "Feature", "properties": { "内容": "居宅介護支援センター松美苑【居宅介護支援】石川県白山市笠間町1738番地", "url2": "https://www.kaigokensaku.mhlw.go.jp/17/index.php?action_kouhyou_detail_004_kani=true&JigyosyoCd=1772200026-00&ServiceCd=430&Type=search" }, "geometry": { "type": "Point", "coordinates": [ 136.522320700000023, 36.5025379 ] } },
{ "type": "Feature", "properties": { "内容": "居宅介護支援事業所　あじさいの郷【居宅介護支援】白山市明島町春130番地", "url2": "https://www.kaigokensaku.mhlw.go.jp/17/index.php?action_kouhyou_detail_004_kani=true&JigyosyoCd=1772200208-00&ServiceCd=430&Type=search" }, "geometry": { "type": "Point", "coordinates": [ 136.61285190000001, 36.4610958 ] } },
{ "type": "Feature", "properties": { "内容": "居宅介護支援事業所　知恵ふくろう【居宅介護支援】石川県白山市若宮2丁目34番地", "url2": "https://www.kaigokensaku.mhlw.go.jp/17/index.php?action_kouhyou_detail_004_kani=true&JigyosyoCd=1772200968-00&ServiceCd=430&Type=search" }, "geometry": { "type": "Point", "coordinates": [ 136.572046499999942, 36.5196514 ] } },
{ "type": "Feature", "properties": { "内容": "居宅介護支援事業所　ケア白山【居宅介護支援】石川県白山市北安田西2丁目83番地", "url2": "https://www.kaigokensaku.mhlw.go.jp/17/index.php?action_kouhyou_detail_004_kani=true&JigyosyoCd=1772200117-00&ServiceCd=430&Type=search" }, "geometry": { "type": "Point", "coordinates": [ 136.5463476, 36.5215446 ] } },
{ "type": "Feature", "properties": { "内容": "居宅介護支援センター剣崎【居宅介護支援】石川県白山市剣崎町1484番地", "url2": "https://www.kaigokensaku.mhlw.go.jp/17/index.php?action_kouhyou_detail_004_kani=true&JigyosyoCd=1772200349-00&ServiceCd=430&Type=search" }, "geometry": { "type": "Point", "coordinates": [ 136.564275299999963, 36.4987597 ] } },
{ "type": "Feature", "properties": { "内容": "白山市社協ケアプランセンター【居宅介護支援】白山市倉光八丁目１６番地１福祉ふれあいセンター", "url2": "https://www.kaigokensaku.mhlw.go.jp/17/index.php?action_kouhyou_detail_004_kani=true&JigyosyoCd=1772200273-00&ServiceCd=430&Type=search" }, "geometry": { "type": "Point", "coordinates": [ 136.572892991401687, 36.515046041693175 ] } },
{ "type": "Feature", "properties": { "内容": "居宅介護支援センター福寿園【居宅介護支援】石川県白山市山島台四丁目１００番地", "url2": "https://www.kaigokensaku.mhlw.go.jp/17/index.php?action_kouhyou_detail_004_kani=true&JigyosyoCd=1772200018-00&ServiceCd=430&Type=search" }, "geometry": { "type": "Point", "coordinates": [ 136.575819599999932, 36.4706687 ] } },
{ "type": "Feature", "properties": { "内容": "居宅介護支援センター光野【居宅介護支援】白山市番匠町443番地", "url2": "https://www.kaigokensaku.mhlw.go.jp/17/index.php?action_kouhyou_detail_004_kani=true&JigyosyoCd=1772200034-00&ServiceCd=430&Type=search" }, "geometry": { "type": "Point", "coordinates": [ 136.580312400000025, 36.5358967 ] } },
{ "type": "Feature", "properties": { "内容": "ケアプラン白山健康企画【居宅介護支援】石川県白山市布市1-241", "url2": "https://www.kaigokensaku.mhlw.go.jp/17/index.php?action_kouhyou_detail_004_kani=true&JigyosyoCd=1772201099-00&ServiceCd=430&Type=search" }, "geometry": { "type": "Point", "coordinates": [ 136.571283434456205, 36.522231304719362 ] } },
{ "type": "Feature", "properties": { "内容": "居宅介護支援センター千代野【居宅介護支援】白山市千代野東５丁目１－２千代野会館", "url2": "https://www.kaigokensaku.mhlw.go.jp/17/index.php?action_kouhyou_detail_004_kani=true&JigyosyoCd=1772200067-00&ServiceCd=430&Type=search" }, "geometry": { "type": "Point", "coordinates": [ 136.543790299999955, 36.5231083 ] } },
{ "type": "Feature", "properties": { "内容": "サンウェルズ白山居宅介護支援事業所【居宅介護支援】石川県白山市相木二丁目1番地２グランシェソワD棟", "url2": "https://www.kaigokensaku.mhlw.go.jp/17/index.php?action_kouhyou_detail_004_kani=true&JigyosyoCd=1772200497-00&ServiceCd=430&Type=search" }, "geometry": { "type": "Point", "coordinates": [ 136.563321506042854, 36.52835877827485 ] } },
{ "type": "Feature", "properties": { "内容": "らっぴぃー居宅介護支援事業所【居宅介護支援】石川県白山市木津町1284-1", "url2": "https://www.kaigokensaku.mhlw.go.jp/17/index.php?action_kouhyou_detail_004_kani=true&JigyosyoCd=1772200448-00&ServiceCd=430&Type=search" }, "geometry": { "type": "Point", "coordinates": [ 136.583748600000035, 36.4979848 ] } },
{ "type": "Feature", "properties": { "内容": "居宅介護支援事業所あゆみ【居宅介護支援】石川県白山市新田町38番地1カーサ・マーサA101号", "url2": "https://www.kaigokensaku.mhlw.go.jp/17/index.php?action_kouhyou_detail_004_kani=true&JigyosyoCd=1772201149-00&ServiceCd=430&Type=search" }, "geometry": { "type": "Point", "coordinates": [ 136.568586399999987, 36.5358511 ] } },
{ "type": "Feature", "properties": { "内容": "ケアかわせみ【居宅介護支援】石川県白山市成町327番地JOYMAPⅠ201号", "url2": "https://www.kaigokensaku.mhlw.go.jp/17/index.php?action_kouhyou_detail_004_kani=true&JigyosyoCd=1772201198-00&ServiceCd=430&Type=search" }, "geometry": { "type": "Point", "coordinates": [ 136.5556298, 36.5209997 ] } },
{ "type": "Feature", "properties": { "内容": "コミット・ケア白山【居宅介護支援】石川県白山市相木町106番地4相木ハイツ101", "url2": "https://www.kaigokensaku.mhlw.go.jp/17/index.php?action_kouhyou_detail_004_kani=true&JigyosyoCd=1772201206-00&ServiceCd=430&Type=search" }, "geometry": { "type": "Point", "coordinates": [ 136.5661462, 36.5291147 ] } },
{ "type": "Feature", "properties": { "内容": "ケアプランセンター空音【居宅介護支援】石川県白山市白山町タ90番地", "url2": "https://www.kaigokensaku.mhlw.go.jp/17/index.php?action_kouhyou_detail_004_kani=true&JigyosyoCd=1772201156-00&ServiceCd=430&Type=search" }, "geometry": { "type": "Point", "coordinates": [ 136.632093, 36.4327261 ] } },
{ "type": "Feature", "properties": { "内容": "ケアマネ　カルナ【居宅介護支援】石川県白山市成町１２９番地２", "url2": "https://www.kaigokensaku.mhlw.go.jp/17/index.php?action_kouhyou_detail_004_kani=true&JigyosyoCd=1772201115-00&ServiceCd=430&Type=search" }, "geometry": { "type": "Point", "coordinates": [ 136.5764734, 36.514030399999989 ] } },
{ "type": "Feature", "properties": { "内容": "居宅介護支援事業所たんぽぽ【居宅介護支援】能美市火釜町リ1番８", "url2": "https://www.kaigokensaku.mhlw.go.jp/17/index.php?action_kouhyou_detail_004_kani=true&JigyosyoCd=1762391009-00&ServiceCd=430&Type=search" }, "geometry": { "type": "Point", "coordinates": [ 136.562342453303557, 36.450012784917504 ] } },
{ "type": "Feature", "properties": { "内容": "居宅介護支援事業所九谷【居宅介護支援】石川県能美市寺井町わ20番地サービス付き高齢者向け住宅九谷内", "url2": "https://www.kaigokensaku.mhlw.go.jp/17/index.php?action_kouhyou_detail_004_kani=true&JigyosyoCd=1762391199-00&ServiceCd=430&Type=search" }, "geometry": { "type": "Point", "coordinates": [ 136.494264, 36.4385448 ] } },
{ "type": "Feature", "properties": { "内容": "寺井病院・手取の里介護総合相談センター【居宅介護支援】石川県能美市寺井町ウ84番地", "url2": "https://www.kaigokensaku.mhlw.go.jp/17/index.php?action_kouhyou_detail_004_kani=true&JigyosyoCd=1752380301-00&ServiceCd=430&Type=search" }, "geometry": { "type": "Point", "coordinates": [ 136.489008900000044, 36.4385639 ] } },
{ "type": "Feature", "properties": { "内容": "国民健康保険能美市立病院居宅介護支援事業所【居宅介護支援】石川県能美市大浜町ノ35番地1", "url2": "https://www.kaigokensaku.mhlw.go.jp/17/index.php?action_kouhyou_detail_004_kani=true&JigyosyoCd=1712310265-00&ServiceCd=430&Type=search" }, "geometry": { "type": "Point", "coordinates": [ 136.460268207457801, 36.454621938276233 ] } },
{ "type": "Feature", "properties": { "内容": "医療法人社団和楽仁　芳珠記念病院【居宅介護支援】石川県能美市緑が丘11丁目71番地", "url2": "https://www.kaigokensaku.mhlw.go.jp/17/index.php?action_kouhyou_detail_004_kani=true&JigyosyoCd=1712310190-00&ServiceCd=430&Type=search" }, "geometry": { "type": "Point", "coordinates": [ 136.536026900000053, 36.4421521 ] } },
{ "type": "Feature", "properties": { "内容": "ニチイケアセンター能美【居宅介護支援】石川県能美市寺井町ぬ８２番地", "url2": "https://www.kaigokensaku.mhlw.go.jp/17/index.php?action_kouhyou_detail_004_kani=true&JigyosyoCd=1772300214-00&ServiceCd=430&Type=search" }, "geometry": { "type": "Point", "coordinates": [ 136.499927299999968, 36.4402393 ] } },
{ "type": "Feature", "properties": { "内容": "湯寿園ケアプランセンター【居宅介護支援】石川県能美市湯谷町乙88番地", "url2": "https://www.kaigokensaku.mhlw.go.jp/17/index.php?action_kouhyou_detail_004_kani=true&JigyosyoCd=1772300057-00&ServiceCd=430&Type=search" }, "geometry": { "type": "Point", "coordinates": [ 136.524228, 36.4361135 ] } },
{ "type": "Feature", "properties": { "内容": "居宅介護支援事業所　笑楽部【居宅介護支援】能美市三道山町ト１１－１", "url2": "https://www.kaigokensaku.mhlw.go.jp/17/index.php?action_kouhyou_detail_004_kani=true&JigyosyoCd=1772300289-00&ServiceCd=430&Type=search" }, "geometry": { "type": "Point", "coordinates": [ 136.506590599999981, 36.4475138 ] } },
{ "type": "Feature", "properties": { "内容": "あんすりー居宅介護支援事業所【居宅介護支援】石川県能美市大浜町ク64番地1", "url2": "https://www.kaigokensaku.mhlw.go.jp/17/index.php?action_kouhyou_detail_004_kani=true&JigyosyoCd=1772300370-00&ServiceCd=430&Type=search" }, "geometry": { "type": "Point", "coordinates": [ 136.456460399999969, 36.456882900000018 ] } },
{ "type": "Feature", "properties": { "内容": "指定居宅介護支援事業所　ボニュール根上苑【居宅介護支援】石川県能美市下ノ江町イ201-2", "url2": "https://www.kaigokensaku.mhlw.go.jp/17/index.php?action_kouhyou_detail_004_kani=true&JigyosyoCd=1772300040-00&ServiceCd=430&Type=search" }, "geometry": { "type": "Point", "coordinates": [ 136.4539916, 36.4385571 ] } },
{ "type": "Feature", "properties": { "内容": "野々市訪問看護ステーション　居宅介護支援事業所【居宅介護支援】石川県野々市市野代2丁目145-2", "url2": "https://www.kaigokensaku.mhlw.go.jp/17/index.php?action_kouhyou_detail_004_kani=true&JigyosyoCd=1761390077-00&ServiceCd=430&Type=search" }, "geometry": { "type": "Point", "coordinates": [ 136.604853534807489, 36.540281621604045 ] } },
{ "type": "Feature", "properties": { "内容": "居宅介護支援事業所きらめき【居宅介護支援】郷2丁目220番地", "url2": "https://www.kaigokensaku.mhlw.go.jp/17/index.php?action_kouhyou_detail_004_kani=true&JigyosyoCd=1761390994-00&ServiceCd=430&Type=search" }, "geometry": { "type": "Point", "coordinates": [ 136.8468196, 35.1380697 ] } },
{ "type": "Feature", "properties": { "内容": "居宅介護支援事業所　四季【居宅介護支援】矢作１丁目120番地サニーデイズ107", "url2": "https://www.kaigokensaku.mhlw.go.jp/17/index.php?action_kouhyou_detail_004_kani=true&JigyosyoCd=1771301015-00&ServiceCd=430&Type=search" }, "geometry": { "type": "Point", "coordinates": [ 136.6141824, 36.5207675 ] } },
{ "type": "Feature", "properties": { "内容": "ケアマネかんじん【居宅介護支援】石川県野々市市新庄２丁目４５番地", "url2": "https://www.kaigokensaku.mhlw.go.jp/17/index.php?action_kouhyou_detail_004_kani=true&JigyosyoCd=1771300496-00&ServiceCd=430&Type=search" }, "geometry": { "type": "Point", "coordinates": [ 136.609785, 36.4968101 ] } },
{ "type": "Feature", "properties": { "内容": "居宅介護支援事業所ニルヴァーナ【居宅介護支援】野々市市住吉町26番46号", "url2": "https://www.kaigokensaku.mhlw.go.jp/17/index.php?action_kouhyou_detail_004_kani=true&JigyosyoCd=1771300686-00&ServiceCd=430&Type=search" }, "geometry": { "type": "Point", "coordinates": [ 136.615545211539455, 36.533285946132608 ] } },
{ "type": "Feature", "properties": { "内容": "居宅介護支援事業所　ちきそら【居宅介護支援】野々市市位川226番地", "url2": "https://www.kaigokensaku.mhlw.go.jp/17/index.php?action_kouhyou_detail_004_kani=true&JigyosyoCd=1771300983-00&ServiceCd=430&Type=search" }, "geometry": { "type": "Point", "coordinates": [ 136.60604810000001, 36.5244477 ] } },
{ "type": "Feature", "properties": { "内容": "富樫苑居宅介護支援事業所【居宅介護支援】石川県野々市市中林4-62", "url2": "https://www.kaigokensaku.mhlw.go.jp/17/index.php?action_kouhyou_detail_004_kani=true&JigyosyoCd=1771300173-00&ServiceCd=430&Type=search" }, "geometry": { "type": "Point", "coordinates": [ 136.600508, 36.5160576 ] } },
{ "type": "Feature", "properties": { "内容": "野々市市社会福祉協議会居宅介護支援事業所【居宅介護支援】石川県野々市市矢作三丁目１番地２老人福祉センター　椿荘", "url2": "https://www.kaigokensaku.mhlw.go.jp/17/index.php?action_kouhyou_detail_004_kani=true&JigyosyoCd=1771300074-00&ServiceCd=430&Type=search" }, "geometry": { "type": "Point", "coordinates": [ 136.611534799999959, 36.523404 ] } },
{ "type": "Feature", "properties": { "内容": "居宅介護支援そよ風【居宅介護支援】石川県野々市市押野4-76", "url2": "https://www.kaigokensaku.mhlw.go.jp/17/index.php?action_kouhyou_detail_004_kani=true&JigyosyoCd=1771300561-00&ServiceCd=430&Type=search" }, "geometry": { "type": "Point", "coordinates": [ 136.613990199999989, 36.5284645 ] } },
{ "type": "Feature", "properties": { "内容": "川北在宅介護センター　ケアプラン【居宅介護支援】石川県能美郡川北町壱ツ屋１９５", "url2": "https://www.kaigokensaku.mhlw.go.jp/17/index.php?action_kouhyou_detail_004_kani=true&JigyosyoCd=1711210524-00&ServiceCd=430&Type=search" }, "geometry": { "type": "Point", "coordinates": [ 136.543079400000011, 36.4674536 ] } },
{ "type": "Feature", "properties": { "内容": "居宅介護支援事業所エール【居宅介護支援】石川県能美郡川北町与九郎島ロ７番地２", "url2": "https://www.kaigokensaku.mhlw.go.jp/17/index.php?action_kouhyou_detail_004_kani=true&JigyosyoCd=1771200233-00&ServiceCd=430&Type=search" }, "geometry": { "type": "Point", "coordinates": [ 136.5421254, 36.4721112 ] } },
{ "type": "Feature", "properties": { "内容": "居宅介護支援事業所うたき【居宅介護支援】石川県河北郡津幡町字太田は169", "url2": "https://www.kaigokensaku.mhlw.go.jp/17/index.php?action_kouhyou_detail_004_kani=true&JigyosyoCd=1711411361-00&ServiceCd=430&Type=search" }, "geometry": { "type": "Point", "coordinates": [ 136.718212799999947, 36.6560528 ] } },
{ "type": "Feature", "properties": { "内容": "津幡訪問看護ステ－ション居宅介護支援事業所【居宅介護支援】石川県河北郡津幡町字津幡ロ５１番地２", "url2": "https://www.kaigokensaku.mhlw.go.jp/17/index.php?action_kouhyou_detail_004_kani=true&JigyosyoCd=1761490059-00&ServiceCd=430&Type=search" }, "geometry": { "type": "Point", "coordinates": [ 136.7365519, 36.6702878 ] } },
{ "type": "Feature", "properties": { "内容": "ＩＭＡ合同会社【居宅介護支援】石川県河北郡津幡町字潟端467番地16", "url2": "https://www.kaigokensaku.mhlw.go.jp/17/index.php?action_kouhyou_detail_004_kani=true&JigyosyoCd=1771400742-00&ServiceCd=430&Type=search" }, "geometry": { "type": "Point", "coordinates": [ 136.713319100000035, 36.6548278 ] } },
{ "type": "Feature", "properties": { "内容": "居宅介護支援事業所　恵比寿【居宅介護支援】石川県河北郡津幡町中橋ロ10番地1aisumaru２階事務所", "url2": "https://www.kaigokensaku.mhlw.go.jp/17/index.php?action_kouhyou_detail_004_kani=true&JigyosyoCd=1771400668-00&ServiceCd=430&Type=search" }, "geometry": { "type": "Point", "coordinates": [ 136.723547907007372, 36.672507250534977 ] } },
{ "type": "Feature", "properties": { "内容": "居宅介護支援センター　かえで【居宅介護支援】河北郡津幡町横浜ほ14-2", "url2": "https://www.kaigokensaku.mhlw.go.jp/17/index.php?action_kouhyou_detail_004_kani=true&JigyosyoCd=1771400312-00&ServiceCd=430&Type=search" }, "geometry": { "type": "Point", "coordinates": [ 136.729605499999934, 36.665927 ] } },
{ "type": "Feature", "properties": { "内容": "ＪＡ石川かほくほのぼのヘルプ【居宅介護支援】石川県河北郡津幡町字川尻タ48番地", "url2": "https://www.kaigokensaku.mhlw.go.jp/17/index.php?action_kouhyou_detail_004_kani=true&JigyosyoCd=1771400064-00&ServiceCd=430&Type=search" }, "geometry": { "type": "Point", "coordinates": [ 136.719810199999984, 36.6730766 ] } },
{ "type": "Feature", "properties": { "内容": "くるみ居宅支援センター【居宅介護支援】石川県河北郡津幡町北中条5丁目82", "url2": "https://www.kaigokensaku.mhlw.go.jp/17/index.php?action_kouhyou_detail_004_kani=true&JigyosyoCd=1771400585-00&ServiceCd=430&Type=search" }, "geometry": { "type": "Point", "coordinates": [ 136.72885926441802, 36.662561509461945 ] } },
{ "type": "Feature", "properties": { "内容": "あがたの里居宅介護支援事業所【居宅介護支援】石川県河北郡津幡町字能瀬イ1番地1あがたの里", "url2": "https://www.kaigokensaku.mhlw.go.jp/17/index.php?action_kouhyou_detail_004_kani=true&JigyosyoCd=1771400148-00&ServiceCd=430&Type=search" }, "geometry": { "type": "Point", "coordinates": [ 136.726180500000027, 36.6895246 ] } },
{ "type": "Feature", "properties": { "内容": "オレンジケア２号店【居宅介護支援】石川県河北郡津幡町字倉見ソ39番地2", "url2": "https://www.kaigokensaku.mhlw.go.jp/17/index.php?action_kouhyou_detail_004_kani=true&JigyosyoCd=1771400882-00&ServiceCd=430&Type=search" }, "geometry": { "type": "Point", "coordinates": [ 136.759951, 36.6791295 ] } },
{ "type": "Feature", "properties": { "内容": "居宅介護支援事業所　ふぃらーじゅ【居宅介護支援】石川県河北郡津幡町字東荒屋４１３番地", "url2": "https://www.kaigokensaku.mhlw.go.jp/17/index.php?action_kouhyou_detail_004_kani=true&JigyosyoCd=1771400775-00&ServiceCd=430&Type=search" }, "geometry": { "type": "Point", "coordinates": [ 136.750967, 36.6634122 ] } },
{ "type": "Feature", "properties": { "内容": "居宅介護支援事業所たちばな【居宅介護支援】石川県河北郡内灘町字大清台194番地3", "url2": "https://www.kaigokensaku.mhlw.go.jp/17/index.php?action_kouhyou_detail_004_kani=true&JigyosyoCd=1771400817-00&ServiceCd=430&Type=search" }, "geometry": { "type": "Point", "coordinates": [ 136.642181099999988, 36.6506694 ] } },
{ "type": "Feature", "properties": { "内容": "居宅介護支援事業所　想クローバー【居宅介護支援】石川県河北郡内灘町大根布１丁目342番地エクセレントⅡ101号室", "url2": "https://www.kaigokensaku.mhlw.go.jp/17/index.php?action_kouhyou_detail_004_kani=true&JigyosyoCd=1771400924-00&ServiceCd=430&Type=search" }, "geometry": { "type": "Point", "coordinates": [ 136.648239, 36.6465204 ] } },
{ "type": "Feature", "properties": { "内容": "居宅介護支援事業所　ぽぷら【居宅介護支援】石川県河北郡内灘町向粟崎3丁目43番地", "url2": "https://www.kaigokensaku.mhlw.go.jp/17/index.php?action_kouhyou_detail_004_kani=true&JigyosyoCd=1771400825-00&ServiceCd=430&Type=search" }, "geometry": { "type": "Point", "coordinates": [ 136.634802400000012, 36.6328753 ] } },
{ "type": "Feature", "properties": { "内容": "夕陽ヶ丘苑在宅相談センター【居宅介護支援】河北郡内灘町字大学１丁目５番地１", "url2": "https://www.kaigokensaku.mhlw.go.jp/17/index.php?action_kouhyou_detail_004_kani=true&JigyosyoCd=1771400098-00&ServiceCd=430&Type=search" }, "geometry": { "type": "Point", "coordinates": [ 136.647652599999986, 36.659879 ] } },
{ "type": "Feature", "properties": { "内容": "内灘町社会福祉協議会居宅介護支援事業所【居宅介護支援】石川県河北郡内灘町字大清台１４０番地", "url2": "https://www.kaigokensaku.mhlw.go.jp/17/index.php?action_kouhyou_detail_004_kani=true&JigyosyoCd=1771400114-00&ServiceCd=430&Type=search" }, "geometry": { "type": "Point", "coordinates": [ 136.64374223876186, 36.650866472629282 ] } },
{ "type": "Feature", "properties": { "内容": "ケアセンター華　居宅介護支援事業所【居宅介護支援】河北郡内灘町千鳥台２丁目143番地", "url2": "https://www.kaigokensaku.mhlw.go.jp/17/index.php?action_kouhyou_detail_004_kani=true&JigyosyoCd=1771400635-00&ServiceCd=430&Type=search" }, "geometry": { "type": "Point", "coordinates": [ 136.631347912526479, 36.641468514025512 ] } },
{ "type": "Feature", "properties": { "内容": "介護支援マルジュ【居宅介護支援】石川県河北郡内灘町鶴ケ丘1丁目262モキュール103", "url2": "https://www.kaigokensaku.mhlw.go.jp/17/index.php?action_kouhyou_detail_004_kani=true&JigyosyoCd=1771400890-00&ServiceCd=430&Type=search" }, "geometry": { "type": "Point", "coordinates": [ 136.641404599999987, 36.6386024 ] } },
{ "type": "Feature", "properties": { "内容": "居宅介護支援事業所　有縁【居宅介護支援】羽咋郡志賀町仏木ク１５番地２０介護老人保健施設　有縁の荘", "url2": "https://www.kaigokensaku.mhlw.go.jp/17/index.php?action_kouhyou_detail_004_kani=true&JigyosyoCd=1751580182-00&ServiceCd=430&Type=search" }, "geometry": { "type": "Point", "coordinates": [ 136.818042600000012, 37.0529764 ] } },
{ "type": "Feature", "properties": { "内容": "居宅介護支援事業所アイリス【居宅介護支援】石川県羽咋郡志賀町給分ニ27番1", "url2": "https://www.kaigokensaku.mhlw.go.jp/17/index.php?action_kouhyou_detail_004_kani=true&JigyosyoCd=1771500418-00&ServiceCd=430&Type=search" }, "geometry": { "type": "Point", "coordinates": [ 136.725933700000041, 37.1511039 ] } },
{ "type": "Feature", "properties": { "内容": "歩っ歩　居宅介護支援事業所【居宅介護支援】石川県羽咋郡志賀町米町ルの５番地ファミリータイズ・歩っ歩_2階", "url2": "https://www.kaigokensaku.mhlw.go.jp/17/index.php?action_kouhyou_detail_004_kani=true&JigyosyoCd=1771500301-00&ServiceCd=430&Type=search" }, "geometry": { "type": "Point", "coordinates": [ 136.779606904476964, 37.058657939306514 ] } },
{ "type": "Feature", "properties": { "内容": "志賀町社会福祉協議会富来居宅介護支援サービスステーション【居宅介護支援】羽咋郡富来領家町甲の10番地富来行政センター内", "url2": "https://www.kaigokensaku.mhlw.go.jp/17/index.php?action_kouhyou_detail_004_kani=true&JigyosyoCd=1771500251-00&ServiceCd=430&Type=search" }, "geometry": { "type": "Point", "coordinates": [ 136.725432400000045, 37.1442599 ] } },
{ "type": "Feature", "properties": { "内容": "志賀町社会福祉協議会居宅介護支援サービスステーション【居宅介護支援】石川県羽咋郡志賀町高浜町カの１番地１志賀町保健福祉センター内", "url2": "https://www.kaigokensaku.mhlw.go.jp/17/index.php?action_kouhyou_detail_004_kani=true&JigyosyoCd=1771500244-00&ServiceCd=430&Type=search" }, "geometry": { "type": "Point", "coordinates": [ 136.775244372907622, 37.010575728197637 ] } },
{ "type": "Feature", "properties": { "内容": "はまなす園生活支援センター【居宅介護支援】石川県羽咋郡志賀町赤住ハ-４-１", "url2": "https://www.kaigokensaku.mhlw.go.jp/17/index.php?action_kouhyou_detail_004_kani=true&JigyosyoCd=1771500095-00&ServiceCd=430&Type=search" }, "geometry": { "type": "Point", "coordinates": [ 136.740475400000037, 37.0498217 ] } },
{ "type": "Feature", "properties": { "内容": "居宅介護支援センター　宝達苑【居宅介護支援】羽咋郡宝達志水町小川ハ250番地", "url2": "https://www.kaigokensaku.mhlw.go.jp/17/index.php?action_kouhyou_detail_004_kani=true&JigyosyoCd=1771500368-00&ServiceCd=430&Type=search" }, "geometry": { "type": "Point", "coordinates": [ 136.758674905418388, 36.821320233222785 ] } },
{ "type": "Feature", "properties": { "内容": "ＪＡはくい介護支援センターたんぽぽ【居宅介護支援】石川県羽咋郡宝達志水町子浦そ16－1多機能ホームＪＡたんぽぽ", "url2": "https://www.kaigokensaku.mhlw.go.jp/17/index.php?action_kouhyou_detail_004_kani=true&JigyosyoCd=1771500178-00&ServiceCd=430&Type=search" }, "geometry": { "type": "Point", "coordinates": [ 136.798106700000062, 36.8622204 ] } },
{ "type": "Feature", "properties": { "内容": "ちどり園　介護相談センター【居宅介護支援】石川県羽咋郡宝達志水町宿五号10番地2", "url2": "https://www.kaigokensaku.mhlw.go.jp/17/index.php?action_kouhyou_detail_004_kani=true&JigyosyoCd=1771500111-00&ServiceCd=430&Type=search" }, "geometry": { "type": "Point", "coordinates": [ 136.7598825, 36.8417618 ] } },
{ "type": "Feature", "properties": { "内容": "宝達志水町社会福祉協議会　居宅介護支援事業所【居宅介護支援】石川県羽咋郡宝達志水町門前サ11番地町民センターアステラス内", "url2": "https://www.kaigokensaku.mhlw.go.jp/17/index.php?action_kouhyou_detail_004_kani=true&JigyosyoCd=1771500228-00&ServiceCd=430&Type=search" }, "geometry": { "type": "Point", "coordinates": [ 136.764385782278396, 36.816430990770321 ] } },
{ "type": "Feature", "properties": { "内容": "なごみの里鹿島居宅介護支援事業所【居宅介護支援】石川県鹿島郡中能登町浅井ろ部106番地", "url2": "https://www.kaigokensaku.mhlw.go.jp/17/index.php?action_kouhyou_detail_004_kani=true&JigyosyoCd=1751680354-00&ServiceCd=430&Type=search" }, "geometry": { "type": "Point", "coordinates": [ 136.902, 36.98 ] } },
{ "type": "Feature", "properties": { "内容": "中能登町社協居宅介護支援センター【居宅介護支援】石川県鹿島郡中能登町能登部上チ部30番地", "url2": "https://www.kaigokensaku.mhlw.go.jp/17/index.php?action_kouhyou_detail_004_kani=true&JigyosyoCd=1771600226-00&ServiceCd=430&Type=search" }, "geometry": { "type": "Point", "coordinates": [ 136.876190492932125, 36.966318558605209 ] } },
{ "type": "Feature", "properties": { "内容": "鹿寿苑居宅介護支援事業所【居宅介護支援】鹿島郡中能登町西馬場エ部56番地", "url2": "https://www.kaigokensaku.mhlw.go.jp/17/index.php?action_kouhyou_detail_004_kani=true&JigyosyoCd=1771600051-00&ServiceCd=430&Type=search" }, "geometry": { "type": "Point", "coordinates": [ 136.887648500000068, 36.9702764 ] } },
{ "type": "Feature", "properties": { "内容": "株式会社まごころ　居宅介護支援事業所ささゆりの丘【居宅介護支援】石川県鳳珠郡穴水町字此木1の120番地", "url2": "https://www.kaigokensaku.mhlw.go.jp/17/index.php?action_kouhyou_detail_004_kani=true&JigyosyoCd=1771700398-00&ServiceCd=430&Type=search" }, "geometry": { "type": "Point", "coordinates": [ 136.900090086122219, 37.243087056842505 ] } },
{ "type": "Feature", "properties": { "内容": "ときのえん居宅介護支援センター【居宅介護支援】鳳珠郡穴水町志ケ浦１５字１番地３", "url2": "https://www.kaigokensaku.mhlw.go.jp/17/index.php?action_kouhyou_detail_004_kani=true&JigyosyoCd=1771700059-00&ServiceCd=430&Type=search" }, "geometry": { "type": "Point", "coordinates": [ 136.898216199999979, 37.2021536 ] } },
{ "type": "Feature", "properties": { "内容": "聖頌園在宅介護支援センター【居宅介護支援】鳳珠郡穴水町字岩車6,27番地2", "url2": "https://www.kaigokensaku.mhlw.go.jp/17/index.php?action_kouhyou_detail_004_kani=true&JigyosyoCd=1771700125-00&ServiceCd=430&Type=search" }, "geometry": { "type": "Point", "coordinates": [ 136.960687199999938, 37.2112538 ] } },
{ "type": "Feature", "properties": { "内容": "清水の里ケアプランセンター穴水【居宅介護支援】石川県鳳珠郡穴水町字宇加川イ142有料老人ホーム能登清水の里穴水", "url2": "https://www.kaigokensaku.mhlw.go.jp/17/index.php?action_kouhyou_detail_004_kani=true&JigyosyoCd=1771700455-00&ServiceCd=430&Type=search" }, "geometry": { "type": "Point", "coordinates": [ 137.065533575393687, 37.224773287340163 ] } },
{ "type": "Feature", "properties": { "内容": "持木メディカルクリニック居宅介護支援事業所【居宅介護支援】鳳珠郡能登町字宇出津タ字61番2地", "url2": "https://www.kaigokensaku.mhlw.go.jp/17/index.php?action_kouhyou_detail_004_kani=true&JigyosyoCd=1711710549-00&ServiceCd=430&Type=search" }, "geometry": { "type": "Point", "coordinates": [ 137.148165723348967, 37.30878622973831 ] } },
{ "type": "Feature", "properties": { "内容": "多花楽会居宅介護支援事業所【居宅介護支援】鳳珠郡能登町字柳田信部1006番地", "url2": "https://www.kaigokensaku.mhlw.go.jp/17/index.php?action_kouhyou_detail_004_kani=true&JigyosyoCd=1771700091-00&ServiceCd=430&Type=search" }, "geometry": { "type": "Point", "coordinates": [ 137.085600515867583, 37.369422192717884 ] } },
{ "type": "Feature", "properties": { "内容": "藤波デイサービスセンター居宅介護支援事業所【居宅介護支援】石川県鳳珠郡能登町字藤波井字４２番地２", "url2": "https://www.kaigokensaku.mhlw.go.jp/17/index.php?action_kouhyou_detail_004_kani=true&JigyosyoCd=1771700117-00&ServiceCd=430&Type=search" }, "geometry": { "type": "Point", "coordinates": [ 137.24452139999994, 37.3532156 ] } },
{ "type": "Feature", "properties": { "内容": "能登町社会福祉協議会ケアセンター能都支所【居宅介護支援】鳳珠郡能登町字崎山1丁目1番地崎山山村開発センター２F", "url2": "https://www.kaigokensaku.mhlw.go.jp/17/index.php?action_kouhyou_detail_004_kani=true&JigyosyoCd=1771700299-00&ServiceCd=430&Type=search" }, "geometry": { "type": "Point", "coordinates": [ 137.148652500000026, 37.3028742 ] } },
{ "type": "Feature", "properties": { "内容": "居宅支援事業所　こすもす【居宅介護支援】居宅支援事業所　こすもす", "url2": "https://www.kaigokensaku.mhlw.go.jp/17/index.php?action_kouhyou_detail_004_kani=true&JigyosyoCd=1771700174-00&ServiceCd=430&Type=search" }, "geometry": { "type": "Point", "coordinates": [ 137.08711979764405, 37.344815765304837 ] } }
]
}
