{
"type": "FeatureCollection",
"name": "geo_17_大学",
"crs": { "type": "name", "properties": { "name": "urn:ogc:def:crs:EPSG::6668" } },
"features": [
{ "type": "Feature", "properties": { "P29_001": "17201", "P29_002": "F117110105393", "P29_003": "16007", "P29_004": "金沢大学", "P29_005": "石川県金沢市角間町", "P29_006": "1", "P29_007": "0", "P29_008": "01", "P29_009": "角間キャンパス" }, "geometry": { "type": "Point", "coordinates": [ 136.711125784548216, 36.550514744212165 ] } },
{ "type": "Feature", "properties": { "P29_001": "17211", "P29_002": "F117110105400", "P29_003": "16007", "P29_004": "北陸先端科学技術大学院大学", "P29_005": "石川県能美市旭台1-1", "P29_006": "1", "P29_007": "0", "P29_008": "00", "P29_009": null }, "geometry": { "type": "Point", "coordinates": [ 136.592648947943559, 36.444478392503399 ] } },
{ "type": "Feature", "properties": { "P29_001": "17203", "P29_002": "F117210105417", "P29_003": "16007", "P29_004": "公立小松大学", "P29_005": "石川県小松市四丁町ヌ1-3", "P29_006": "3", "P29_007": "0", "P29_008": "00", "P29_009": null }, "geometry": { "type": "Point", "coordinates": [ 136.417124186964287, 36.354893377676021 ] } },
{ "type": "Feature", "properties": { "P29_001": "17212", "P29_002": "F117210105426", "P29_003": "16007", "P29_004": "石川県立大学", "P29_005": "石川県野々市市末松1-308", "P29_006": "2", "P29_007": "0", "P29_008": "00", "P29_009": null }, "geometry": { "type": "Point", "coordinates": [ 136.596656864472777, 36.50656398995762 ] } },
{ "type": "Feature", "properties": { "P29_001": "17201", "P29_002": "F117210105435", "P29_003": "16007", "P29_004": "金沢美術工芸大学", "P29_005": "石川県金沢市小立野5-11-1", "P29_006": "3", "P29_007": "0", "P29_008": "00", "P29_009": null }, "geometry": { "type": "Point", "coordinates": [ 136.681344069180966, 36.548033340242085 ] } },
{ "type": "Feature", "properties": { "P29_001": "17209", "P29_002": "F117210105444", "P29_003": "16007", "P29_004": "石川県立看護大学", "P29_005": "石川県かほく市学園台1-1", "P29_006": "2", "P29_007": "0", "P29_008": "00", "P29_009": null }, "geometry": { "type": "Point", "coordinates": [ 136.733800381844731, 36.780874252377735 ] } },
{ "type": "Feature", "properties": { "P29_001": "17201", "P29_002": "F117310105451", "P29_003": "16007", "P29_004": "金沢星稜大学", "P29_005": "石川県金沢市御所町丑10-1", "P29_006": "4", "P29_007": "0", "P29_008": "00", "P29_009": null }, "geometry": { "type": "Point", "coordinates": [ 136.682533089024247, 36.583843373024244 ] } },
{ "type": "Feature", "properties": { "P29_001": "17212", "P29_002": "F117310105460", "P29_003": "16007", "P29_004": "金沢工業大学", "P29_005": "石川県野々市市扇が丘7-1", "P29_006": "4", "P29_007": "0", "P29_008": "00", "P29_009": null }, "geometry": { "type": "Point", "coordinates": [ 136.627788358840036, 36.530462479902525 ] } },
{ "type": "Feature", "properties": { "P29_001": "17365", "P29_002": "F117310105479", "P29_003": "16007", "P29_004": "金沢医科大学", "P29_005": "石川県河北郡内灘町字大学1-1", "P29_006": "4", "P29_007": "0", "P29_008": "00", "P29_009": null }, "geometry": { "type": "Point", "coordinates": [ 136.646473431592909, 36.655344352529198 ] } },
{ "type": "Feature", "properties": { "P29_001": "17201", "P29_002": "F117310105488", "P29_003": "16007", "P29_004": "北陸大学", "P29_005": "石川県金沢市太陽が丘1-1", "P29_006": "4", "P29_007": "0", "P29_008": "01", "P29_009": "太陽が丘キャンパス" }, "geometry": { "type": "Point", "coordinates": [ 136.707503363447785, 36.525448339957101 ] } },
{ "type": "Feature", "properties": { "P29_001": "17201", "P29_002": "F117310105497", "P29_003": "16007", "P29_004": "金沢学院大学", "P29_005": "石川県金沢市末町10-5", "P29_006": "4", "P29_007": "0", "P29_008": "00", "P29_009": null }, "geometry": { "type": "Point", "coordinates": [ 136.695332281882514, 36.517369351225199 ] } },
{ "type": "Feature", "properties": { "P29_001": "17210", "P29_002": "F117310105503", "P29_003": "16007", "P29_004": "金城大学", "P29_005": "石川県白山市笠間町1200", "P29_006": "4", "P29_007": "0", "P29_008": "00", "P29_009": null }, "geometry": { "type": "Point", "coordinates": [ 136.528517134477454, 36.509734876685101 ] } },
{ "type": "Feature", "properties": { "P29_001": "17201", "P29_002": "F117310105512", "P29_003": "16007", "P29_004": "北陸学院大学", "P29_005": "石川県金沢市三小牛町イ11", "P29_006": "4", "P29_007": "0", "P29_008": "00", "P29_009": null }, "geometry": { "type": "Point", "coordinates": [ 136.670835473855107, 36.518206446432679 ] } },
{ "type": "Feature", "properties": { "P29_001": "17210", "P29_002": "F117310111854", "P29_003": "16007", "P29_004": "かなざわ食マネジメント専門職大学", "P29_005": "石川県白山市横江町5250", "P29_006": "4", "P29_007": "0", "P29_008": "00", "P29_009": null }, "geometry": { "type": "Point", "coordinates": [ 136.589885614305587, 36.545061211463327 ] } },
{ "type": "Feature", "properties": { "P29_001": "17201", "P29_002": "F117110105393", "P29_003": "16007", "P29_004": "金沢大学", "P29_005": "石川県金沢市小立野5-11-80", "P29_006": "1", "P29_007": "0", "P29_008": "02", "P29_009": "医薬保健学域保健学類" }, "geometry": { "type": "Point", "coordinates": [ 136.677, 36.555 ] } },
{ "type": "Feature", "properties": { "P29_001": "17201", "P29_002": "F117110105393", "P29_003": "16007", "P29_004": "金沢大学", "P29_005": "石川県金沢市宝町13", "P29_006": "1", "P29_007": "0", "P29_008": "03", "P29_009": "宝町・鶴間キャンパス" }, "geometry": { "type": "Point", "coordinates": [ 136.675131857291717, 36.556495896814361 ] } },
{ "type": "Feature", "properties": { "P29_001": "17201", "P29_002": "F117310105488", "P29_003": "16007", "P29_004": "北陸大学", "P29_005": "石川県金沢市金川町ホ3", "P29_006": "4", "P29_007": "0", "P29_008": "02", "P29_009": "薬学キャンパス" }, "geometry": { "type": "Point", "coordinates": [ 136.721583905596759, 36.520922445663743 ] } }
]
}
