{
"type": "FeatureCollection",
"name": "geo_17_訪問入浴介護",
"crs": { "type": "name", "properties": { "name": "urn:ogc:def:crs:OGC:1.3:CRS84" } },
"features": [
{ "type": "Feature", "properties": { "内容": "ＳＯＭＰＯケア　金沢笠舞　訪問入浴【訪問入浴介護】石川県金沢市笠舞1-8-18", "url2": "https://www.kaigokensaku.mhlw.go.jp/17/index.php?action_kouhyou_detail_004_kani=true&JigyosyoCd=1770103172-00&ServiceCd=120&Type=search" }, "geometry": { "type": "Point", "coordinates": [ 136.672662800000012, 36.5480881 ] } },
{ "type": "Feature", "properties": { "内容": "アースサポート金沢【訪問入浴介護】石川県金沢市西念三丁目11番1号光オフィス1C", "url2": "https://www.kaigokensaku.mhlw.go.jp/17/index.php?action_kouhyou_detail_004_kani=true&JigyosyoCd=1770102216-00&ServiceCd=120&Type=search" }, "geometry": { "type": "Point", "coordinates": [ 136.6378277, 36.58618 ] } },
{ "type": "Feature", "properties": { "内容": "自生園ゆらく【訪問入浴介護】石川県小松市上荒屋町ソ4番地10", "url2": "https://www.kaigokensaku.mhlw.go.jp/17/index.php?action_kouhyou_detail_004_kani=true&JigyosyoCd=1770300034-00&ServiceCd=120&Type=search" }, "geometry": { "type": "Point", "coordinates": [ 136.43120250000004, 36.3281492 ] } },
{ "type": "Feature", "properties": { "内容": "松寿園訪問入浴サービス【訪問入浴介護】石川県小松市向本折町ホ３１番地", "url2": "https://www.kaigokensaku.mhlw.go.jp/17/index.php?action_kouhyou_detail_004_kani=true&JigyosyoCd=1770300083-00&ServiceCd=120&Type=search" }, "geometry": { "type": "Point", "coordinates": [ 136.43974419999995, 36.3968306 ] } },
{ "type": "Feature", "properties": { "内容": "あての木園訪問入浴介護センター【訪問入浴介護】石川県輪島市堀町９字25番地", "url2": "https://www.kaigokensaku.mhlw.go.jp/17/index.php?action_kouhyou_detail_004_kani=true&JigyosyoCd=1770400016-00&ServiceCd=120&Type=search" }, "geometry": { "type": "Point", "coordinates": [ 136.894672270886161, 37.395900220050223 ] } },
{ "type": "Feature", "properties": { "内容": "訪問入浴さくらの湯【訪問入浴介護】輪島市堀町１字13-2", "url2": "https://www.kaigokensaku.mhlw.go.jp/17/index.php?action_kouhyou_detail_004_kani=true&JigyosyoCd=1710410380-00&ServiceCd=120&Type=search" }, "geometry": { "type": "Point", "coordinates": [ 136.89511, 37.3893317 ] } },
{ "type": "Feature", "properties": { "内容": "訪問入浴サービス　湯ったり【訪問入浴介護】南郷町3乙4番地", "url2": "https://www.kaigokensaku.mhlw.go.jp/17/index.php?action_kouhyou_detail_004_kani=true&JigyosyoCd=1750680041-00&ServiceCd=120&Type=search" }, "geometry": { "type": "Point", "coordinates": [ 136.326304199999981, 36.292387 ] } },
{ "type": "Feature", "properties": { "内容": "加賀中央訪問入浴ステーション【訪問入浴介護】石川県加賀市大聖寺東町1-26-1", "url2": "https://www.kaigokensaku.mhlw.go.jp/17/index.php?action_kouhyou_detail_004_kani=true&JigyosyoCd=1770600045-00&ServiceCd=120&Type=search" }, "geometry": { "type": "Point", "coordinates": [ 136.318300629728469, 36.305646372877966 ] } },
{ "type": "Feature", "properties": { "内容": "羽咋市在宅総合サービスステーション【訪問入浴介護】石川県羽咋市鶴多町亀田17番地羽咋すこやかセンター２階", "url2": "https://www.kaigokensaku.mhlw.go.jp/17/index.php?action_kouhyou_detail_004_kani=true&JigyosyoCd=1760790566-00&ServiceCd=120&Type=search" }, "geometry": { "type": "Point", "coordinates": [ 136.791364199999947, 36.8980509 ] } },
{ "type": "Feature", "properties": { "内容": "白山市社協訪問入浴センター【訪問入浴介護】石川県白山市倉光八丁目１６番地１福祉ふれあいセンター", "url2": "https://www.kaigokensaku.mhlw.go.jp/17/index.php?action_kouhyou_detail_004_kani=true&JigyosyoCd=1772200273-00&ServiceCd=120&Type=search" }, "geometry": { "type": "Point", "coordinates": [ 136.572953278634742, 36.514909403310888 ] } },
{ "type": "Feature", "properties": { "内容": "アースサポート白山【訪問入浴介護】石川県白山市村井町1998番地1", "url2": "https://www.kaigokensaku.mhlw.go.jp/17/index.php?action_kouhyou_detail_004_kani=true&JigyosyoCd=1772200687-00&ServiceCd=120&Type=search" }, "geometry": { "type": "Point", "coordinates": [ 136.559919600000057, 36.5188652 ] } },
{ "type": "Feature", "properties": { "内容": "はまなす園訪問入浴センター【訪問入浴介護】石川県羽咋郡志賀町赤住ハの４番地１", "url2": "https://www.kaigokensaku.mhlw.go.jp/17/index.php?action_kouhyou_detail_004_kani=true&JigyosyoCd=1771500095-00&ServiceCd=120&Type=search" }, "geometry": { "type": "Point", "coordinates": [ 136.740475400000037, 37.0498217 ] } },
{ "type": "Feature", "properties": { "内容": "訪問入浴ステーション鹿寿苑【訪問入浴介護】石川県鹿島郡中能登町西馬場エ部56番地", "url2": "https://www.kaigokensaku.mhlw.go.jp/17/index.php?action_kouhyou_detail_004_kani=true&JigyosyoCd=1771600051-00&ServiceCd=120&Type=search" }, "geometry": { "type": "Point", "coordinates": [ 136.901381799999967, 36.9830497 ] } }
]
}
