{
"type": "FeatureCollection",
"name": "geo_17_専修学校",
"crs": { "type": "name", "properties": { "name": "urn:ogc:def:crs:EPSG::6668" } },
"features": [
{ "type": "Feature", "properties": { "P29_001": "17201", "P29_002": "H117220100015", "P29_003": "16016", "P29_004": "石川県立保育専門学園", "P29_005": "石川県金沢市泉1-3-63", "P29_006": "2", "P29_007": "0", "P29_008": "00", "P29_009": null }, "geometry": { "type": "Point", "coordinates": [ 136.64279676173075, 36.55190734613209 ] } },
{ "type": "Feature", "properties": { "P29_001": "17201", "P29_002": "H117220100024", "P29_003": "16016", "P29_004": "石川県立総合看護専門学校", "P29_005": "石川県金沢市鞍月東2-1", "P29_006": "2", "P29_007": "0", "P29_008": "00", "P29_009": null }, "geometry": { "type": "Point", "coordinates": [ 136.630850279497452, 36.595007172838017 ] } },
{ "type": "Feature", "properties": { "P29_001": "17206", "P29_002": "H117220600010", "P29_003": "16016", "P29_004": "加賀看護学校", "P29_005": "石川県加賀市大聖寺八間道12-1", "P29_006": "3", "P29_007": "0", "P29_008": "00", "P29_009": null }, "geometry": { "type": "Point", "coordinates": [ 136.309241915392619, 36.30771144480434 ] } },
{ "type": "Feature", "properties": { "P29_001": "17201", "P29_002": "H117320100013", "P29_003": "16016", "P29_004": "専門学校金沢文化服装学院", "P29_005": "石川県金沢市清川町1-5", "P29_006": "4", "P29_007": "0", "P29_008": "00", "P29_009": null }, "geometry": { "type": "Point", "coordinates": [ 136.650978997248046, 36.556266999690749 ] } },
{ "type": "Feature", "properties": { "P29_001": "17201", "P29_002": "H117320100022", "P29_003": "16016", "P29_004": "専門学校金沢美専", "P29_005": "石川県金沢市南町6-12", "P29_006": "4", "P29_007": "0", "P29_008": "00", "P29_009": null }, "geometry": { "type": "Point", "coordinates": [ 136.654012632472615, 36.56570099875718 ] } },
{ "type": "Feature", "properties": { "P29_001": "17201", "P29_002": "H117320100031", "P29_003": "16016", "P29_004": "北信越柔整専門学校", "P29_005": "石川県金沢市山の上町5-5-2", "P29_006": "4", "P29_007": "0", "P29_008": "00", "P29_009": null }, "geometry": { "type": "Point", "coordinates": [ 136.669951001678896, 36.578303767704377 ] } },
{ "type": "Feature", "properties": { "P29_001": "17201", "P29_002": "H117320100059", "P29_003": "16016", "P29_004": "石川県調理師専門学校", "P29_005": "石川県金沢市油車9", "P29_006": "4", "P29_007": "0", "P29_008": "00", "P29_009": null }, "geometry": { "type": "Point", "coordinates": [ 136.656750300588271, 36.558036481643065 ] } },
{ "type": "Feature", "properties": { "P29_001": "17201", "P29_002": "H117320100068", "P29_003": "16016", "P29_004": "石川県理容美容専門学校", "P29_005": "石川県金沢市三社町11-23", "P29_006": "4", "P29_007": "0", "P29_008": "00", "P29_009": null }, "geometry": { "type": "Point", "coordinates": [ 136.64323930117348, 36.5701478619361 ] } },
{ "type": "Feature", "properties": { "P29_001": "17201", "P29_002": "H117320100077", "P29_003": "16016", "P29_004": "石川県歯科医師会立歯科医療専門学校", "P29_005": "石川県金沢市神宮寺3-20-5", "P29_006": "4", "P29_007": "0", "P29_008": "00", "P29_009": null }, "geometry": { "type": "Point", "coordinates": [ 136.665436534319639, 36.584638805967352 ] } },
{ "type": "Feature", "properties": { "P29_001": "17201", "P29_002": "H117320100086", "P29_003": "16016", "P29_004": "専門学校ファースト学園金沢校", "P29_005": "石川県金沢市北安江1-6-27", "P29_006": "4", "P29_007": "0", "P29_008": "00", "P29_009": null }, "geometry": { "type": "Point", "coordinates": [ 136.649630663862268, 36.582280261051224 ] } },
{ "type": "Feature", "properties": { "P29_001": "17201", "P29_002": "H117320100095", "P29_003": "16016", "P29_004": "大原簿記法律観光専門学校金沢校", "P29_005": "石川県金沢市広岡1-1-15", "P29_006": "4", "P29_007": "0", "P29_008": "00", "P29_009": null }, "geometry": { "type": "Point", "coordinates": [ 136.645408783255562, 36.578416219953937 ] } },
{ "type": "Feature", "properties": { "P29_001": "17201", "P29_002": "H117320100102", "P29_003": "16016", "P29_004": "北陸デザイナー専門学校", "P29_005": "石川県金沢市尾山町5-15", "P29_006": "4", "P29_007": "0", "P29_008": "00", "P29_009": null }, "geometry": { "type": "Point", "coordinates": [ 136.655394776333537, 36.569323271259165 ] } },
{ "type": "Feature", "properties": { "P29_001": "17201", "P29_002": "H117320100111", "P29_003": "16016", "P29_004": "（専）金沢科学技術大学校", "P29_005": "石川県金沢市三社町11-16", "P29_006": "4", "P29_007": "0", "P29_008": "00", "P29_009": null }, "geometry": { "type": "Point", "coordinates": [ 136.64368231057432, 36.570641309018832 ] } },
{ "type": "Feature", "properties": { "P29_001": "17201", "P29_002": "H117320100120", "P29_003": "16016", "P29_004": "金沢製菓調理専門学校", "P29_005": "石川県金沢市長町2-5-30", "P29_006": "4", "P29_007": "0", "P29_008": "00", "P29_009": null }, "geometry": { "type": "Point", "coordinates": [ 136.648152073006344, 36.564665186937461 ] } },
{ "type": "Feature", "properties": { "P29_001": "17201", "P29_002": "H117320100139", "P29_003": "16016", "P29_004": "金沢医療技術専門学校", "P29_005": "石川県金沢市堀川新町7-1", "P29_006": "4", "P29_007": "0", "P29_008": "00", "P29_009": null }, "geometry": { "type": "Point", "coordinates": [ 136.651811954146893, 36.581442009621846 ] } },
{ "type": "Feature", "properties": { "P29_001": "17201", "P29_002": "H117320100148", "P29_003": "16016", "P29_004": "金沢福祉専門学校", "P29_005": "石川県金沢市久安3-430", "P29_006": "4", "P29_007": "0", "P29_008": "00", "P29_009": null }, "geometry": { "type": "Point", "coordinates": [ 136.630658599181857, 36.536875015629931 ] } },
{ "type": "Feature", "properties": { "P29_001": "17201", "P29_002": "H117320100157", "P29_003": "16016", "P29_004": "金沢看護専門学校", "P29_005": "石川県金沢市小坂町北62-1", "P29_006": "4", "P29_007": "0", "P29_008": "00", "P29_009": null }, "geometry": { "type": "Point", "coordinates": [ 136.675525125404363, 36.594298395110513 ] } },
{ "type": "Feature", "properties": { "P29_001": "17210", "P29_002": "H117320100166", "P29_003": "16016", "P29_004": "金沢国際専門学校", "P29_005": "石川県金沢市駅西本町1-1518", "P29_006": "4", "P29_007": "0", "P29_008": "00", "P29_009": null }, "geometry": { "type": "Point", "coordinates": [ 136.651100328649932, 36.288571272019041 ] } },
{ "type": "Feature", "properties": { "P29_001": "17201", "P29_002": "H117320100175", "P29_003": "16016", "P29_004": "専門学校アリス学園", "P29_005": "石川県金沢市円光寺本町8-50", "P29_006": "4", "P29_007": "0", "P29_008": "00", "P29_009": null }, "geometry": { "type": "Point", "coordinates": [ 136.641591473437416, 36.531893567595425 ] } },
{ "type": "Feature", "properties": { "P29_001": "17201", "P29_002": "H117320100184", "P29_003": "16016", "P29_004": "金沢情報ＩＴクリエイター", "P29_005": "石川県金沢市広岡1-1-15", "P29_006": "4", "P29_007": "0", "P29_008": "00", "P29_009": null }, "geometry": { "type": "Point", "coordinates": [ 136.645276996377362, 36.57826699873867 ] } },
{ "type": "Feature", "properties": { "P29_001": "17201", "P29_002": "H117320100193", "P29_003": "16016", "P29_004": "専門学校金沢リハビリテーションアカデミー", "P29_005": "石川県金沢市清川町2-10", "P29_006": "4", "P29_007": "0", "P29_008": "00", "P29_009": null }, "geometry": { "type": "Point", "coordinates": [ 136.651642002586215, 36.555547998728031 ] } },
{ "type": "Feature", "properties": { "P29_001": "17201", "P29_002": "H117320100200", "P29_003": "16016", "P29_004": "金沢ウエディング・ビューティー専門学校", "P29_005": "石川県金沢市広岡1-1-15", "P29_006": "4", "P29_007": "0", "P29_008": "00", "P29_009": null }, "geometry": { "type": "Point", "coordinates": [ 136.6452679231937, 36.578224166234484 ] } },
{ "type": "Feature", "properties": { "P29_001": "17210", "P29_002": "H117320100219", "P29_003": "16016", "P29_004": "スーパースイーツ製菓専門学校", "P29_005": "石川県金沢市南町6-12", "P29_006": "4", "P29_007": "0", "P29_008": "00", "P29_009": null }, "geometry": { "type": "Point", "coordinates": [ 136.590062310473968, 36.545119337703355 ] } },
{ "type": "Feature", "properties": { "P29_001": "17201", "P29_002": "H117320100228", "P29_003": "16016", "P29_004": "大原医療福祉・製菓＆スポーツ専門学校", "P29_005": "石川県金沢市広岡1-1-15", "P29_006": "4", "P29_007": "0", "P29_008": "00", "P29_009": null }, "geometry": { "type": "Point", "coordinates": [ 136.645323997782072, 36.578328000987725 ] } },
{ "type": "Feature", "properties": { "P29_001": "17201", "P29_002": "H117320100237", "P29_003": "16016", "P29_004": "国際ホテル＆ブライダル専門学校", "P29_005": "石川県金沢市南町6-12", "P29_006": "4", "P29_007": "0", "P29_008": "00", "P29_009": null }, "geometry": { "type": "Point", "coordinates": [ 136.65414251240307, 36.565631975235171 ] } },
{ "type": "Feature", "properties": { "P29_001": "17201", "P29_002": "H117320100246", "P29_003": "16016", "P29_004": "金沢医療センター附属金沢看護学校", "P29_005": "石川県金沢市下石引町1-1", "P29_006": "4", "P29_007": "0", "P29_008": "00", "P29_009": null }, "geometry": { "type": "Point", "coordinates": [ 136.666634210942419, 36.560413036543132 ] } },
{ "type": "Feature", "properties": { "P29_001": "17202", "P29_002": "H117320200012", "P29_003": "16016", "P29_004": "七尾服飾専門学校", "P29_005": "石川県七尾市所口町甲3-4", "P29_006": "4", "P29_007": "0", "P29_008": "00", "P29_009": null }, "geometry": { "type": "Point", "coordinates": [ 136.963826000717688, 37.040999002974225 ] } },
{ "type": "Feature", "properties": { "P29_001": "17202", "P29_002": "H117320200021", "P29_003": "16016", "P29_004": "七尾看護専門学校", "P29_005": "石川県七尾市なぎの浦156", "P29_006": "4", "P29_007": "0", "P29_008": "00", "P29_009": null }, "geometry": { "type": "Point", "coordinates": [ 136.955698942683938, 37.055374097663545 ] } },
{ "type": "Feature", "properties": { "P29_001": "17202", "P29_002": "H117320200030", "P29_003": "16016", "P29_004": "国際医療福祉専門学校七尾校", "P29_005": "石川県七尾市藤橋町西部1", "P29_006": "4", "P29_007": "0", "P29_008": "00", "P29_009": null }, "geometry": { "type": "Point", "coordinates": [ 136.949213647943651, 37.043705344102499 ] } },
{ "type": "Feature", "properties": { "P29_001": "17204", "P29_002": "H117320400010", "P29_003": "16016", "P29_004": "（専）日本航空大学校", "P29_005": "石川県輪島市三井町洲衛9部27-7", "P29_006": "4", "P29_007": "0", "P29_008": "00", "P29_009": null }, "geometry": { "type": "Point", "coordinates": [ 136.962298606187744, 37.296378744489928 ] } },
{ "type": "Feature", "properties": { "P29_001": "17206", "P29_002": "H117320600018", "P29_003": "16016", "P29_004": "専門学校アリス学園加賀校", "P29_005": "石川県加賀市大聖寺八間道65", "P29_006": "4", "P29_007": "0", "P29_008": "00", "P29_009": null }, "geometry": { "type": "Point", "coordinates": [ 136.309978132379712, 36.307958922317212 ] } },
{ "type": "Feature", "properties": { "P29_001": "17210", "P29_002": "H117321000012", "P29_003": "16016", "P29_004": "金沢医療事務専門学校", "P29_005": "石川県白山市横江町土地区画整理事業施行地区内8街区1", "P29_006": "4", "P29_007": "0", "P29_008": "00", "P29_009": null }, "geometry": { "type": "Point", "coordinates": [ 136.590054536821356, 36.544991617565643 ] } },
{ "type": "Feature", "properties": { "P29_001": "17210", "P29_002": "H117321000021", "P29_003": "16016", "P29_004": "国際ペット専門学校金沢", "P29_005": "石川県白山市横江町土地区画整理事業施行地区内8街区1", "P29_006": "4", "P29_007": "0", "P29_008": "00", "P29_009": null }, "geometry": { "type": "Point", "coordinates": [ 136.589887521124581, 36.544737062394901 ] } },
{ "type": "Feature", "properties": { "P29_001": "17210", "P29_002": "H117321000049", "P29_003": "16016", "P29_004": "国際調理専門学校", "P29_005": "石川県白山市横江町土地区画整理事業施行地区内8街区1", "P29_006": "4", "P29_007": "0", "P29_008": "00", "P29_009": null }, "geometry": { "type": "Point", "coordinates": [ 136.590050021437804, 36.545244739837123 ] } },
{ "type": "Feature", "properties": { "P29_001": "17210", "P29_002": "H117321000058", "P29_003": "16016", "P29_004": "国際動物看護専門学校", "P29_005": "石川県白山市横江町土地区画整理事業施行地区内8街区2", "P29_006": "4", "P29_007": "0", "P29_008": "00", "P29_009": null }, "geometry": { "type": "Point", "coordinates": [ 136.590054709748273, 36.545162367432319 ] } },
{ "type": "Feature", "properties": { "P29_001": "17361", "P29_002": "H117336100019", "P29_003": "16016", "P29_004": "ハピネス学園プロスポーツ育成専門学校", "P29_005": "石川県河北郡津幡町字種ニ25-4", "P29_006": "4", "P29_007": "0", "P29_008": "00", "P29_009": null }, "geometry": { "type": "Point", "coordinates": [ 136.760282217585342, 36.723587966692513 ] } }
]
}
