{
"type": "FeatureCollection",
"name": "geo_17_看護小規模多機能型居宅介護（複合型サービス）",
"crs": { "type": "name", "properties": { "name": "urn:ogc:def:crs:OGC:1.3:CRS84" } },
"features": [
{ "type": "Feature", "properties": { "内容": "ルナ・ステーション上荒屋【看護小規模多機能型居宅介護（複合型サービス）】石川県金沢市上荒屋1-305和の郷上荒屋", "url2": "https://www.kaigokensaku.mhlw.go.jp/17/index.php?action_kouhyou_detail_004_kani=true&JigyosyoCd=1790101263-00&ServiceCd=&Type=search" }, "geometry": { "type": "Point", "coordinates": [ 136.592885700000011, 36.548511 ] } },
{ "type": "Feature", "properties": { "内容": "サンケア兼六【看護小規模多機能型居宅介護（複合型サービス）】石川県金沢市暁町9番29号", "url2": "https://www.kaigokensaku.mhlw.go.jp/17/index.php?action_kouhyou_detail_004_kani=true&JigyosyoCd=1790101255-00&ServiceCd=&Type=search" }, "geometry": { "type": "Point", "coordinates": [ 136.6733107, 36.563029 ] } },
{ "type": "Feature", "properties": { "内容": "サンケア戸板【看護小規模多機能型居宅介護（複合型サービス）】石川県金沢市戸板１丁目２０番地", "url2": "https://www.kaigokensaku.mhlw.go.jp/17/index.php?action_kouhyou_detail_004_kani=true&JigyosyoCd=1790101164-00&ServiceCd=&Type=search" }, "geometry": { "type": "Point", "coordinates": [ 136.624693400000012, 36.5787308 ] } },
{ "type": "Feature", "properties": { "内容": "看護小規模多機能シェーネアルト　サテライト【看護小規模多機能型居宅介護（複合型サービス）】石川県金沢市馬替2丁目120番地", "url2": "https://www.kaigokensaku.mhlw.go.jp/17/index.php?action_kouhyou_detail_004_kani=true&JigyosyoCd=1790101180-00&ServiceCd=&Type=search" }, "geometry": { "type": "Point", "coordinates": [ 136.6204309, 36.5215653 ] } },
{ "type": "Feature", "properties": { "内容": "看多機つつじの家【看護小規模多機能型居宅介護（複合型サービス）】石川県金沢市つつじが丘53番地", "url2": "https://www.kaigokensaku.mhlw.go.jp/17/index.php?action_kouhyou_detail_004_kani=true&JigyosyoCd=1790101305-00&ServiceCd=&Type=search" }, "geometry": { "type": "Point", "coordinates": [ 136.6785427, 36.5303551 ] } },
{ "type": "Feature", "properties": { "内容": "さくら庵もとまち【看護小規模多機能型居宅介護（複合型サービス）】石川県金沢市元町2丁目6番6号", "url2": "https://www.kaigokensaku.mhlw.go.jp/17/index.php?action_kouhyou_detail_004_kani=true&JigyosyoCd=1790100752-00&ServiceCd=&Type=search" }, "geometry": { "type": "Point", "coordinates": [ 136.6651028, 36.5799894 ] } },
{ "type": "Feature", "properties": { "内容": "看護小規模多機能　憩の家【看護小規模多機能型居宅介護（複合型サービス）】石川県金沢市馬替2丁目8番地1憩の家", "url2": "https://www.kaigokensaku.mhlw.go.jp/17/index.php?action_kouhyou_detail_004_kani=true&JigyosyoCd=1790100901-00&ServiceCd=&Type=search" }, "geometry": { "type": "Point", "coordinates": [ 136.621575600000028, 36.5245983 ] } },
{ "type": "Feature", "properties": { "内容": "看護小規模多機能　シェーネアルト【看護小規模多機能型居宅介護（複合型サービス）】石川県金沢市馬替２丁目124番地1", "url2": "https://www.kaigokensaku.mhlw.go.jp/17/index.php?action_kouhyou_detail_004_kani=true&JigyosyoCd=1790101057-00&ServiceCd=&Type=search" }, "geometry": { "type": "Point", "coordinates": [ 136.620213799999988, 36.521433200000011 ] } },
{ "type": "Feature", "properties": { "内容": "看護小規模多機能型居宅介護事業所こすもすの家【看護小規模多機能型居宅介護（複合型サービス）】石川県金沢市諸江町下丁88番地1", "url2": "https://www.kaigokensaku.mhlw.go.jp/17/index.php?action_kouhyou_detail_004_kani=true&JigyosyoCd=1790100638-00&ServiceCd=&Type=search" }, "geometry": { "type": "Point", "coordinates": [ 136.643765700000017, 36.6041693 ] } },
{ "type": "Feature", "properties": { "内容": "かんたき　かなで【看護小規模多機能型居宅介護（複合型サービス）】石川県金沢市西泉1丁目149番2", "url2": "https://www.kaigokensaku.mhlw.go.jp/17/index.php?action_kouhyou_detail_004_kani=true&JigyosyoCd=1790101123-00&ServiceCd=&Type=search" }, "geometry": { "type": "Point", "coordinates": [ 136.632131057672126, 36.546146992607881 ] } },
{ "type": "Feature", "properties": { "内容": "看護小規模多機能みなみ【看護小規模多機能型居宅介護（複合型サービス）】石川県金沢市馬替２丁目１３６番地", "url2": "https://www.kaigokensaku.mhlw.go.jp/17/index.php?action_kouhyou_detail_004_kani=true&JigyosyoCd=1790101222-00&ServiceCd=&Type=search" }, "geometry": { "type": "Point", "coordinates": [ 136.62058724722138, 36.521114464230038 ] } },
{ "type": "Feature", "properties": { "内容": "看護小規模多機能ホーム　ベル金沢しんぼほん【看護小規模多機能型居宅介護（複合型サービス）】石川県金沢市新保本３丁目130番地", "url2": "https://www.kaigokensaku.mhlw.go.jp/17/index.php?action_kouhyou_detail_004_kani=true&JigyosyoCd=1790101370-00&ServiceCd=&Type=search" }, "geometry": { "type": "Point", "coordinates": [ 136.601389726983626, 36.557208544119206 ] } },
{ "type": "Feature", "properties": { "内容": "看護小規模多機能ホームわらく木曳野【看護小規模多機能型居宅介護（複合型サービス）】石川県金沢市木曳野３丁目２８６番地わらく木曳野", "url2": "https://www.kaigokensaku.mhlw.go.jp/17/index.php?action_kouhyou_detail_004_kani=true&JigyosyoCd=1790100182-00&ServiceCd=&Type=search" }, "geometry": { "type": "Point", "coordinates": [ 136.6065174, 36.6035081 ] } },
{ "type": "Feature", "properties": { "内容": "看護小規模多機能型施設いちえんそう【看護小規模多機能型居宅介護（複合型サービス）】石川県小松市北浅井町ハ77番地", "url2": "https://www.kaigokensaku.mhlw.go.jp/17/index.php?action_kouhyou_detail_004_kani=true&JigyosyoCd=1790300261-00&ServiceCd=&Type=search" }, "geometry": { "type": "Point", "coordinates": [ 136.45968640000001, 36.388195 ] } },
{ "type": "Feature", "properties": { "内容": "複合型施設　和【看護小規模多機能型居宅介護（複合型サービス）】石川県珠洲市飯田町か部14-1", "url2": "https://www.kaigokensaku.mhlw.go.jp/17/index.php?action_kouhyou_detail_004_kani=true&JigyosyoCd=1790500068-00&ServiceCd=&Type=search" }, "geometry": { "type": "Point", "coordinates": [ 137.260979029083245, 37.444816393834238 ] } },
{ "type": "Feature", "properties": { "内容": "看護小規模多機能あわらんち【看護小規模多機能型居宅介護（複合型サービス）】石川県羽咋市粟原町イ110番地", "url2": "https://www.kaigokensaku.mhlw.go.jp/17/index.php?action_kouhyou_detail_004_kani=true&JigyosyoCd=1790700114-00&ServiceCd=&Type=search" }, "geometry": { "type": "Point", "coordinates": [ 136.7851746, 36.8739906 ] } },
{ "type": "Feature", "properties": { "内容": "かほくの郷【看護小規模多機能型居宅介護（複合型サービス）】石川県かほく市高松ム73番地8", "url2": "https://www.kaigokensaku.mhlw.go.jp/17/index.php?action_kouhyou_detail_004_kani=true&JigyosyoCd=1792100081-00&ServiceCd=&Type=search" }, "geometry": { "type": "Point", "coordinates": [ 136.724684, 36.7710182 ] } },
{ "type": "Feature", "properties": { "内容": "看護小規模多機能型居宅介護事業所　やまぼうし【看護小規模多機能型居宅介護（複合型サービス）】石川県能美市火釜町リ1番8", "url2": "https://www.kaigokensaku.mhlw.go.jp/17/index.php?action_kouhyou_detail_004_kani=true&JigyosyoCd=1792300103-00&ServiceCd=&Type=search" }, "geometry": { "type": "Point", "coordinates": [ 136.562293599999947, 36.4501018 ] } }
]
}
