{
"type": "FeatureCollection",
"name": "geo_17_小規模多機能型居宅介護",
"crs": { "type": "name", "properties": { "name": "urn:ogc:def:crs:OGC:1.3:CRS84" } },
"features": [
{ "type": "Feature", "properties": { "内容": "小規模多機能ホーム天神町【小規模多機能型居宅介護】石川県金沢市天神町1-14-33", "url2": "https://www.kaigokensaku.mhlw.go.jp/17/index.php?action_kouhyou_detail_004_kani=true&JigyosyoCd=1790100422-00&ServiceCd=730&Type=search" }, "geometry": { "type": "Point", "coordinates": [ 136.678389899999956, 36.5588702 ] } },
{ "type": "Feature", "properties": { "内容": "ケアホーム大桑【小規模多機能型居宅介護】金沢市大桑2丁目339番地", "url2": "https://www.kaigokensaku.mhlw.go.jp/17/index.php?action_kouhyou_detail_004_kani=true&JigyosyoCd=1790100190-00&ServiceCd=730&Type=search" }, "geometry": { "type": "Point", "coordinates": [ 136.674846399999979, 36.5349731 ] } },
{ "type": "Feature", "properties": { "内容": "小規模多機能型居宅介護　あんのん山科【小規模多機能型居宅介護】石川県金沢市窪６丁目141番地1", "url2": "https://www.kaigokensaku.mhlw.go.jp/17/index.php?action_kouhyou_detail_004_kani=true&JigyosyoCd=1790100349-00&ServiceCd=730&Type=search" }, "geometry": { "type": "Point", "coordinates": [ 136.645329, 36.528018 ] } },
{ "type": "Feature", "properties": { "内容": "たきの～ほ～む笠市【小規模多機能型居宅介護】石川県金沢市笠市11-19", "url2": "https://www.kaigokensaku.mhlw.go.jp/17/index.php?action_kouhyou_detail_004_kani=true&JigyosyoCd=1790100612-00&ServiceCd=730&Type=search" }, "geometry": { "type": "Point", "coordinates": [ 136.6562659, 36.5786115 ] } },
{ "type": "Feature", "properties": { "内容": "小規模多機能型居宅介護事業所　ゆとりの園【小規模多機能型居宅介護】石川県金沢市糸田１丁目１４２番地", "url2": "https://www.kaigokensaku.mhlw.go.jp/17/index.php?action_kouhyou_detail_004_kani=true&JigyosyoCd=1790100299-00&ServiceCd=730&Type=search" }, "geometry": { "type": "Point", "coordinates": [ 136.626412800000026, 36.5582111 ] } },
{ "type": "Feature", "properties": { "内容": "朱鷺の苑西インター小規模多機能型居宅介護事業所【小規模多機能型居宅介護】森戸2丁目20番地", "url2": "https://www.kaigokensaku.mhlw.go.jp/17/index.php?action_kouhyou_detail_004_kani=true&JigyosyoCd=1790100166-00&ServiceCd=730&Type=search" }, "geometry": { "type": "Point", "coordinates": [ 136.598437900000022, 36.5588414 ] } },
{ "type": "Feature", "properties": { "内容": "ケアホーム遊子苑ながた【小規模多機能型居宅介護】石川県金沢市長田本町ホ14番地１", "url2": "https://www.kaigokensaku.mhlw.go.jp/17/index.php?action_kouhyou_detail_004_kani=true&JigyosyoCd=1790100323-00&ServiceCd=730&Type=search" }, "geometry": { "type": "Point", "coordinates": [ 136.637336399999981, 36.5749371 ] } },
{ "type": "Feature", "properties": { "内容": "小規模多機能型居宅介護まほろば四十万【小規模多機能型居宅介護】石川県金沢市四十万３－２８８", "url2": "https://www.kaigokensaku.mhlw.go.jp/17/index.php?action_kouhyou_detail_004_kani=true&JigyosyoCd=1790100307-00&ServiceCd=730&Type=search" }, "geometry": { "type": "Point", "coordinates": [ 136.6174926, 36.5045368 ] } },
{ "type": "Feature", "properties": { "内容": "小規模多機能型居宅介護事業所ゆうけあ相河【小規模多機能型居宅介護】石川県金沢市西泉６丁目１３６番地", "url2": "https://www.kaigokensaku.mhlw.go.jp/17/index.php?action_kouhyou_detail_004_kani=true&JigyosyoCd=1790100240-00&ServiceCd=730&Type=search" }, "geometry": { "type": "Point", "coordinates": [ 136.628329600000029, 36.5537339 ] } },
{ "type": "Feature", "properties": { "内容": "小規模多機能ホームといやまち【小規模多機能型居宅介護】石川県金沢市問屋町1丁目48番地", "url2": "https://www.kaigokensaku.mhlw.go.jp/17/index.php?action_kouhyou_detail_004_kani=true&JigyosyoCd=1790100679-00&ServiceCd=730&Type=search" }, "geometry": { "type": "Point", "coordinates": [ 136.63638549999996, 36.6059551 ] } },
{ "type": "Feature", "properties": { "内容": "新竪縁【小規模多機能型居宅介護】金沢市下本多町五番丁１４番地", "url2": "https://www.kaigokensaku.mhlw.go.jp/17/index.php?action_kouhyou_detail_004_kani=true&JigyosyoCd=1790100331-00&ServiceCd=730&Type=search" }, "geometry": { "type": "Point", "coordinates": [ 136.657971800000041, 36.5567482 ] } },
{ "type": "Feature", "properties": { "内容": "小規模多機能めぐみ黒田【小規模多機能型居宅介護】金沢市黒田１丁目２９１番地", "url2": "https://www.kaigokensaku.mhlw.go.jp/17/index.php?action_kouhyou_detail_004_kani=true&JigyosyoCd=1790100216-00&ServiceCd=730&Type=search" }, "geometry": { "type": "Point", "coordinates": [ 136.611014, 36.5653128 ] } },
{ "type": "Feature", "properties": { "内容": "小規模多機能ホーム　梧【小規模多機能型居宅介護】神谷内町チ１６２－１", "url2": "https://www.kaigokensaku.mhlw.go.jp/17/index.php?action_kouhyou_detail_004_kani=true&JigyosyoCd=1790100315-00&ServiceCd=730&Type=search" }, "geometry": { "type": "Point", "coordinates": [ 136.686649713491732, 36.598332065215203 ] } },
{ "type": "Feature", "properties": { "内容": "小規模多機能型居宅介護ほやね城北【小規模多機能型居宅介護】石川県金沢市浅野本町２丁目18-26", "url2": "https://www.kaigokensaku.mhlw.go.jp/17/index.php?action_kouhyou_detail_004_kani=true&JigyosyoCd=1790100695-00&ServiceCd=730&Type=search" }, "geometry": { "type": "Point", "coordinates": [ 136.659684700000071, 36.5843612 ] } },
{ "type": "Feature", "properties": { "内容": "サンケア　鞍月【小規模多機能型居宅介護】石川県金沢市直江西1-94", "url2": "https://www.kaigokensaku.mhlw.go.jp/17/index.php?action_kouhyou_detail_004_kani=true&JigyosyoCd=1790100950-00&ServiceCd=730&Type=search" }, "geometry": { "type": "Point", "coordinates": [ 136.635283699999945, 36.6125973 ] } },
{ "type": "Feature", "properties": { "内容": "サンケア笠舞【小規模多機能型居宅介護】石川県金沢市笠舞1丁目12番24号", "url2": "https://www.kaigokensaku.mhlw.go.jp/17/index.php?action_kouhyou_detail_004_kani=true&JigyosyoCd=1790101024-00&ServiceCd=730&Type=search" }, "geometry": { "type": "Point", "coordinates": [ 136.674520207409643, 36.547442269114704 ] } },
{ "type": "Feature", "properties": { "内容": "煌【小規模多機能型居宅介護】金沢市南森本町ヌ79番地1", "url2": "https://www.kaigokensaku.mhlw.go.jp/17/index.php?action_kouhyou_detail_004_kani=true&JigyosyoCd=1790100174-00&ServiceCd=730&Type=search" }, "geometry": { "type": "Point", "coordinates": [ 136.695860900000071, 36.6174574 ] } },
{ "type": "Feature", "properties": { "内容": "トオの家　二俣【小規模多機能型居宅介護】石川県金沢市二俣町イ6-1番地", "url2": "https://www.kaigokensaku.mhlw.go.jp/17/index.php?action_kouhyou_detail_004_kani=true&JigyosyoCd=1790100109-00&ServiceCd=730&Type=search" }, "geometry": { "type": "Point", "coordinates": [ 136.762474578643065, 36.558883470663694 ] } },
{ "type": "Feature", "properties": { "内容": "itosie小規模多機能ホーム【小規模多機能型居宅介護】石川県金沢市近岡町849番地1", "url2": "https://www.kaigokensaku.mhlw.go.jp/17/index.php?action_kouhyou_detail_004_kani=true&JigyosyoCd=1790101289-00&ServiceCd=730&Type=search" }, "geometry": { "type": "Point", "coordinates": [ 136.6314133, 36.6133569 ] } },
{ "type": "Feature", "properties": { "内容": "グループホーム・小規模多機能居宅介護かないわ【小規模多機能型居宅介護】金沢市金石北1丁目19-16", "url2": "https://www.kaigokensaku.mhlw.go.jp/17/index.php?action_kouhyou_detail_004_kani=true&JigyosyoCd=1790100224-00&ServiceCd=730&Type=search" }, "geometry": { "type": "Point", "coordinates": [ 136.599380099999962, 36.6040658 ] } },
{ "type": "Feature", "properties": { "内容": "小規模多機能型居宅介護　いろは【小規模多機能型居宅介護】金沢市御所町2丁目302番社会福祉法人達樹会", "url2": "https://www.kaigokensaku.mhlw.go.jp/17/index.php?action_kouhyou_detail_004_kani=true&JigyosyoCd=1790100265-00&ServiceCd=730&Type=search" }, "geometry": { "type": "Point", "coordinates": [ 136.700881500000037, 36.5791126 ] } },
{ "type": "Feature", "properties": { "内容": "小規模多機能型居宅介護事業所こころ　のだの里【小規模多機能型居宅介護】石川県金沢市野田2丁目２６１番地", "url2": "https://www.kaigokensaku.mhlw.go.jp/17/index.php?action_kouhyou_detail_004_kani=true&JigyosyoCd=1790100257-00&ServiceCd=730&Type=search" }, "geometry": { "type": "Point", "coordinates": [ 136.669643899999983, 36.5340454 ] } },
{ "type": "Feature", "properties": { "内容": "プラトーの家【小規模多機能型居宅介護】石川県金沢市二口町ㇵ28-1", "url2": "https://www.kaigokensaku.mhlw.go.jp/17/index.php?action_kouhyou_detail_004_kani=true&JigyosyoCd=1790101404-00&ServiceCd=730&Type=search" }, "geometry": { "type": "Point", "coordinates": [ 136.634458176582342, 36.577456048126002 ] } },
{ "type": "Feature", "properties": { "内容": "ゆうかりの郷　奥原【小規模多機能型居宅介護】七尾市奥原町上部250番地", "url2": "https://www.kaigokensaku.mhlw.go.jp/17/index.php?action_kouhyou_detail_004_kani=true&JigyosyoCd=1790200057-00&ServiceCd=730&Type=search" }, "geometry": { "type": "Point", "coordinates": [ 136.917090700000017, 37.0731604 ] } },
{ "type": "Feature", "properties": { "内容": "なたうちニコニコホーム【小規模多機能型居宅介護】石川県七尾市中島町西谷内ロ部1番地５", "url2": "https://www.kaigokensaku.mhlw.go.jp/17/index.php?action_kouhyou_detail_004_kani=true&JigyosyoCd=1790200073-00&ServiceCd=730&Type=search" }, "geometry": { "type": "Point", "coordinates": [ 136.81157440000004, 37.1504673 ] } },
{ "type": "Feature", "properties": { "内容": "小規模多機能型居宅介護施設　たかしなの里【小規模多機能型居宅介護】石川県七尾市池崎町ソ部77番地1", "url2": "https://www.kaigokensaku.mhlw.go.jp/17/index.php?action_kouhyou_detail_004_kani=true&JigyosyoCd=1790200081-00&ServiceCd=730&Type=search" }, "geometry": { "type": "Point", "coordinates": [ 136.91222609999997, 37.034194542212717 ] } },
{ "type": "Feature", "properties": { "内容": "小規模多機能型居宅介護施設　あっとほーむコモド【小規模多機能型居宅介護】石川県七尾市黒崎町へ部32番地", "url2": "https://www.kaigokensaku.mhlw.go.jp/17/index.php?action_kouhyou_detail_004_kani=true&JigyosyoCd=1790200040-00&ServiceCd=730&Type=search" }, "geometry": { "type": "Point", "coordinates": [ 137.050631817999289, 36.979942629695721 ] } },
{ "type": "Feature", "properties": { "内容": "小規模多機能型居宅介護施設　あっとほーむレガーレ【小規模多機能型居宅介護】石川県七尾市矢田町壱号261", "url2": "https://www.kaigokensaku.mhlw.go.jp/17/index.php?action_kouhyou_detail_004_kani=true&JigyosyoCd=1790200107-00&ServiceCd=730&Type=search" }, "geometry": { "type": "Point", "coordinates": [ 136.982892025295627, 37.040723574745826 ] } },
{ "type": "Feature", "properties": { "内容": "小規模多機能ホームやたの【小規模多機能型居宅介護】石川県小松市矢田野町イ31番地1", "url2": "https://www.kaigokensaku.mhlw.go.jp/17/index.php?action_kouhyou_detail_004_kani=true&JigyosyoCd=1790300238-00&ServiceCd=730&Type=search" }, "geometry": { "type": "Point", "coordinates": [ 136.421969200000035, 36.3412414 ] } },
{ "type": "Feature", "properties": { "内容": "松寿園小規模多機能型居宅介護いまえの家【小規模多機能型居宅介護】石川県小松市今江町六丁目495番地1", "url2": "https://www.kaigokensaku.mhlw.go.jp/17/index.php?action_kouhyou_detail_004_kani=true&JigyosyoCd=1790300188-00&ServiceCd=730&Type=search" }, "geometry": { "type": "Point", "coordinates": [ 136.434652410975673, 36.375924384287885 ] } },
{ "type": "Feature", "properties": { "内容": "松寿園小規模多機能　もとおりの家【小規模多機能型居宅介護】小松市本折町119番地7", "url2": "https://www.kaigokensaku.mhlw.go.jp/17/index.php?action_kouhyou_detail_004_kani=true&JigyosyoCd=1790300022-00&ServiceCd=730&Type=search" }, "geometry": { "type": "Point", "coordinates": [ 136.448135099999945, 36.3973591 ] } },
{ "type": "Feature", "properties": { "内容": "小規模多機能はまひるがお【小規模多機能型居宅介護】下牧町ニ９５番地１", "url2": "https://www.kaigokensaku.mhlw.go.jp/17/index.php?action_kouhyou_detail_004_kani=true&JigyosyoCd=1790300170-00&ServiceCd=730&Type=search" }, "geometry": { "type": "Point", "coordinates": [ 136.423829120515421, 36.412184101477521 ] } },
{ "type": "Feature", "properties": { "内容": "松寿園小規模多機能ひとつはりの家【小規模多機能型居宅介護】石川県小松市一針町62番地24", "url2": "https://www.kaigokensaku.mhlw.go.jp/17/index.php?action_kouhyou_detail_004_kani=true&JigyosyoCd=1790300097-00&ServiceCd=730&Type=search" }, "geometry": { "type": "Point", "coordinates": [ 136.476424299999962, 36.4145165 ] } },
{ "type": "Feature", "properties": { "内容": "自生園為楽庵【小規模多機能型居宅介護】石川県小松市粟津町カ8番地5", "url2": "https://www.kaigokensaku.mhlw.go.jp/17/index.php?action_kouhyou_detail_004_kani=true&JigyosyoCd=1790300162-00&ServiceCd=730&Type=search" }, "geometry": { "type": "Point", "coordinates": [ 136.447006500000043, 36.332555 ] } },
{ "type": "Feature", "properties": { "内容": "自生園好楽庵【小規模多機能型居宅介護】石川県小松市島町ヌ1番地1", "url2": "https://www.kaigokensaku.mhlw.go.jp/17/index.php?action_kouhyou_detail_004_kani=true&JigyosyoCd=1790300055-00&ServiceCd=730&Type=search" }, "geometry": { "type": "Point", "coordinates": [ 136.429096800000025, 36.3480264 ] } },
{ "type": "Feature", "properties": { "内容": "しょうきぼたきのうがたきょたくかいごさくらのさと【小規模多機能型居宅介護】石川県輪島市堀町1字13－2", "url2": "https://www.kaigokensaku.mhlw.go.jp/17/index.php?action_kouhyou_detail_004_kani=true&JigyosyoCd=1790400038-00&ServiceCd=730&Type=search" }, "geometry": { "type": "Point", "coordinates": [ 136.89511, 37.3893317 ] } },
{ "type": "Feature", "properties": { "内容": "ケアほーむ　もんぜん楓の家【小規模多機能型居宅介護】輪島市門前町道下よ２７番地", "url2": "https://www.kaigokensaku.mhlw.go.jp/17/index.php?action_kouhyou_detail_004_kani=true&JigyosyoCd=1790400046-00&ServiceCd=730&Type=search" }, "geometry": { "type": "Point", "coordinates": [ 136.757582700000057, 37.293577 ] } },
{ "type": "Feature", "properties": { "内容": "小規模多機能ホームなんごうえがお【小規模多機能型居宅介護】石川県加賀市上河崎町オ１２０番地", "url2": "https://www.kaigokensaku.mhlw.go.jp/17/index.php?action_kouhyou_detail_004_kani=true&JigyosyoCd=1790600264-00&ServiceCd=730&Type=search" }, "geometry": { "type": "Point", "coordinates": [ 136.335683199999949, 36.3076715 ] } },
{ "type": "Feature", "properties": { "内容": "小規模多機能ハウスさくみ【小規模多機能型居宅介護】石川県加賀市作見町カ１３２番地１", "url2": "https://www.kaigokensaku.mhlw.go.jp/17/index.php?action_kouhyou_detail_004_kani=true&JigyosyoCd=1790600140-00&ServiceCd=730&Type=search" }, "geometry": { "type": "Point", "coordinates": [ 136.349478699999963, 36.3220424 ] } },
{ "type": "Feature", "properties": { "内容": "ニーズ対応型小規模多機能ホーム　ききょうが丘【小規模多機能型居宅介護】石川県加賀市山代温泉桔梗丘４丁目１番１", "url2": "https://www.kaigokensaku.mhlw.go.jp/17/index.php?action_kouhyou_detail_004_kani=true&JigyosyoCd=1790600371-00&ServiceCd=730&Type=search" }, "geometry": { "type": "Point", "coordinates": [ 136.357061850401294, 36.283933036152334 ] } },
{ "type": "Feature", "properties": { "内容": "小規模多機能ホーム　いらっせ山中【小規模多機能型居宅介護】石川県加賀市山中温泉長谷田町リ382", "url2": "https://www.kaigokensaku.mhlw.go.jp/17/index.php?action_kouhyou_detail_004_kani=true&JigyosyoCd=1790600421-00&ServiceCd=730&Type=search" }, "geometry": { "type": "Point", "coordinates": [ 136.360350899999986, 36.2650813 ] } },
{ "type": "Feature", "properties": { "内容": "小規模多機能ホームはしたて【小規模多機能型居宅介護】橋立町イ乙５４番地１", "url2": "https://www.kaigokensaku.mhlw.go.jp/17/index.php?action_kouhyou_detail_004_kani=true&JigyosyoCd=1790600157-00&ServiceCd=730&Type=search" }, "geometry": { "type": "Point", "coordinates": [ 136.311539900000071, 36.351333 ] } },
{ "type": "Feature", "properties": { "内容": "小規模多機能型居宅介護　動橋ひまわりの家【小規模多機能型居宅介護】動橋町イ19-1", "url2": "https://www.kaigokensaku.mhlw.go.jp/17/index.php?action_kouhyou_detail_004_kani=true&JigyosyoCd=1790600116-00&ServiceCd=730&Type=search" }, "geometry": { "type": "Point", "coordinates": [ 136.384896700000013, 36.32692 ] } },
{ "type": "Feature", "properties": { "内容": "小規模多機能ホーム　いらっせ松が丘【小規模多機能型居宅介護】石川県加賀市松が丘１丁目17番地8", "url2": "https://www.kaigokensaku.mhlw.go.jp/17/index.php?action_kouhyou_detail_004_kani=true&JigyosyoCd=1790600298-00&ServiceCd=730&Type=search" }, "geometry": { "type": "Point", "coordinates": [ 136.345773399999985, 36.3248142 ] } },
{ "type": "Feature", "properties": { "内容": "小規模多機能型居宅介護事業所　大聖寺なでしこの家【小規模多機能型居宅介護】加賀市大聖寺番場町２９番４", "url2": "https://www.kaigokensaku.mhlw.go.jp/17/index.php?action_kouhyou_detail_004_kani=true&JigyosyoCd=1790600207-00&ServiceCd=730&Type=search" }, "geometry": { "type": "Point", "coordinates": [ 136.309730299999956, 36.309665 ] } },
{ "type": "Feature", "properties": { "内容": "冨士見通りお茶の間さろん【小規模多機能型居宅介護】石川県加賀市山中温泉白山町ノ14番1", "url2": "https://www.kaigokensaku.mhlw.go.jp/17/index.php?action_kouhyou_detail_004_kani=true&JigyosyoCd=1790600363-00&ServiceCd=730&Type=search" }, "geometry": { "type": "Point", "coordinates": [ 136.373413, 36.2497623 ] } },
{ "type": "Feature", "properties": { "内容": "小規模多機能ホーム　いらっせ湖城【小規模多機能型居宅介護】石川県加賀市湖城町３丁目１２５番地", "url2": "https://www.kaigokensaku.mhlw.go.jp/17/index.php?action_kouhyou_detail_004_kani=true&JigyosyoCd=1790600306-00&ServiceCd=730&Type=search" }, "geometry": { "type": "Point", "coordinates": [ 136.359149699999989, 36.3359105 ] } },
{ "type": "Feature", "properties": { "内容": "山代すみれの家【小規模多機能型居宅介護】加賀市山代温泉八７４－５", "url2": "https://www.kaigokensaku.mhlw.go.jp/17/index.php?action_kouhyou_detail_004_kani=true&JigyosyoCd=1790600173-00&ServiceCd=730&Type=search" }, "geometry": { "type": "Point", "coordinates": [ 136.360337100000038, 36.2862054 ] } },
{ "type": "Feature", "properties": { "内容": "小規模多機能ホーム　きょうまち【小規模多機能型居宅介護】加賀市大聖寺京町27番地小規模多機能ホームきょうまち", "url2": "https://www.kaigokensaku.mhlw.go.jp/17/index.php?action_kouhyou_detail_004_kani=true&JigyosyoCd=1790600074-00&ServiceCd=730&Type=search" }, "geometry": { "type": "Point", "coordinates": [ 136.312396820298829, 36.307076086862011 ] } },
{ "type": "Feature", "properties": { "内容": "小規模多機能ホーム　いらっせ庄【小規模多機能型居宅介護】石川県加賀市庄町ル167番地", "url2": "https://www.kaigokensaku.mhlw.go.jp/17/index.php?action_kouhyou_detail_004_kani=true&JigyosyoCd=1790600330-00&ServiceCd=730&Type=search" }, "geometry": { "type": "Point", "coordinates": [ 136.374417699999981, 36.316688 ] } },
{ "type": "Feature", "properties": { "内容": "いらっせ分校【小規模多機能型居宅介護】分校町リ338番1", "url2": "https://www.kaigokensaku.mhlw.go.jp/17/index.php?action_kouhyou_detail_004_kani=true&JigyosyoCd=1790600348-00&ServiceCd=730&Type=search" }, "geometry": { "type": "Point", "coordinates": [ 136.400015475874113, 36.324851158516793 ] } },
{ "type": "Feature", "properties": { "内容": "小規模多機能ホームきんめい【小規模多機能型居宅介護】石川県加賀市野田町タ８番地１", "url2": "https://www.kaigokensaku.mhlw.go.jp/17/index.php?action_kouhyou_detail_004_kani=true&JigyosyoCd=1790600272-00&ServiceCd=730&Type=search" }, "geometry": { "type": "Point", "coordinates": [ 136.341400900000053, 36.3476085 ] } },
{ "type": "Feature", "properties": { "内容": "ケアほーむはくい楓の家【小規模多機能型居宅介護】羽咋市寺家町テ４８番地１", "url2": "https://www.kaigokensaku.mhlw.go.jp/17/index.php?action_kouhyou_detail_004_kani=true&JigyosyoCd=1790700064-00&ServiceCd=730&Type=search" }, "geometry": { "type": "Point", "coordinates": [ 136.768815300000028, 36.9275023 ] } },
{ "type": "Feature", "properties": { "内容": "ケアホーム　みずほ【小規模多機能型居宅介護】石川県羽咋市深江ト107番地1", "url2": "https://www.kaigokensaku.mhlw.go.jp/17/index.php?action_kouhyou_detail_004_kani=true&JigyosyoCd=1790700130-00&ServiceCd=730&Type=search" }, "geometry": { "type": "Point", "coordinates": [ 136.8015317, 36.9024764 ] } },
{ "type": "Feature", "properties": { "内容": "ケアホームわたぼうし【小規模多機能型居宅介護】石川県羽咋市福水町ろ３３－１番地", "url2": "https://www.kaigokensaku.mhlw.go.jp/17/index.php?action_kouhyou_detail_004_kani=true&JigyosyoCd=1790700031-00&ServiceCd=730&Type=search" }, "geometry": { "type": "Point", "coordinates": [ 136.834451299999955, 36.8855846 ] } },
{ "type": "Feature", "properties": { "内容": "小規模多機能　唐戸山ホーム【小規模多機能型居宅介護】南中央町キ153番地14地域ケアセンター唐戸山", "url2": "https://www.kaigokensaku.mhlw.go.jp/17/index.php?action_kouhyou_detail_004_kani=true&JigyosyoCd=1790700023-00&ServiceCd=730&Type=search" }, "geometry": { "type": "Point", "coordinates": [ 136.777007700000013, 36.8898604 ] } },
{ "type": "Feature", "properties": { "内容": "たきのーほーむ福の神【小規模多機能型居宅介護】石川県羽咋市四柳町つ17番地", "url2": "https://www.kaigokensaku.mhlw.go.jp/17/index.php?action_kouhyou_detail_004_kani=true&JigyosyoCd=1790700072-00&ServiceCd=730&Type=search" }, "geometry": { "type": "Point", "coordinates": [ 136.858065246032766, 36.933654792828641 ] } },
{ "type": "Feature", "properties": { "内容": "たきのーほーむ　風和里【小規模多機能型居宅介護】石川県羽咋市千里浜町ソ3番地３", "url2": "https://www.kaigokensaku.mhlw.go.jp/17/index.php?action_kouhyou_detail_004_kani=true&JigyosyoCd=1790700122-00&ServiceCd=730&Type=search" }, "geometry": { "type": "Point", "coordinates": [ 136.770214429514994, 36.896453548487592 ] } },
{ "type": "Feature", "properties": { "内容": "かほくの郷【小規模多機能型居宅介護】かほく市浜北ニ2番ー７2階", "url2": "https://www.kaigokensaku.mhlw.go.jp/17/index.php?action_kouhyou_detail_004_kani=true&JigyosyoCd=1792100024-00&ServiceCd=730&Type=search" }, "geometry": { "type": "Point", "coordinates": [ 136.698705099999984, 36.733327 ] } },
{ "type": "Feature", "properties": { "内容": "小規模多機能ホーム　絆【小規模多機能型居宅介護】白山市中奥町１７２－１", "url2": "https://www.kaigokensaku.mhlw.go.jp/17/index.php?action_kouhyou_detail_004_kani=true&JigyosyoCd=1792200022-00&ServiceCd=730&Type=search" }, "geometry": { "type": "Point", "coordinates": [ 136.580145899999934, 36.517799 ] } },
{ "type": "Feature", "properties": { "内容": "小規模多機能型居宅介護　鶴来ふくまるハウス【小規模多機能型居宅介護】石川県白山市鶴来本町4丁目リ33番地3", "url2": "https://www.kaigokensaku.mhlw.go.jp/17/index.php?action_kouhyou_detail_004_kani=true&JigyosyoCd=1792200204-00&ServiceCd=730&Type=search" }, "geometry": { "type": "Point", "coordinates": [ 136.623896800000011, 36.4544134 ] } },
{ "type": "Feature", "properties": { "内容": "しょうきぼたきのうホームひなのいえはくさんよこまち【小規模多機能型居宅介護】石川県白山市横町96番地1", "url2": "https://www.kaigokensaku.mhlw.go.jp/17/index.php?action_kouhyou_detail_004_kani=true&JigyosyoCd=1792200246-00&ServiceCd=730&Type=search" }, "geometry": { "type": "Point", "coordinates": [ 136.5624707, 36.5243987 ] } },
{ "type": "Feature", "properties": { "内容": "ケアサービスふたくち屋【小規模多機能型居宅介護】石川県能美市西二口町丙27番地", "url2": "https://www.kaigokensaku.mhlw.go.jp/17/index.php?action_kouhyou_detail_004_kani=true&JigyosyoCd=1792300061-00&ServiceCd=730&Type=search" }, "geometry": { "type": "Point", "coordinates": [ 136.469101499999965, 36.4483075 ] } },
{ "type": "Feature", "properties": { "内容": "小規模多機能型居宅介護事業所　MaisondeBois【小規模多機能型居宅介護】能美市下ノ江町申27-3", "url2": "https://www.kaigokensaku.mhlw.go.jp/17/index.php?action_kouhyou_detail_004_kani=true&JigyosyoCd=1792300012-00&ServiceCd=730&Type=search" }, "geometry": { "type": "Point", "coordinates": [ 136.452985429615666, 36.440847826003576 ] } },
{ "type": "Feature", "properties": { "内容": "ケアホーム杜の郷能美【小規模多機能型居宅介護】石川県能美市寺井町ニ28ー1", "url2": "https://www.kaigokensaku.mhlw.go.jp/17/index.php?action_kouhyou_detail_004_kani=true&JigyosyoCd=1792300095-00&ServiceCd=730&Type=search" }, "geometry": { "type": "Point", "coordinates": [ 136.5016716, 36.4449166 ] } },
{ "type": "Feature", "properties": { "内容": "寺井の家【小規模多機能型居宅介護】能美市寺井町ソ168番地", "url2": "https://www.kaigokensaku.mhlw.go.jp/17/index.php?action_kouhyou_detail_004_kani=true&JigyosyoCd=1792300046-00&ServiceCd=730&Type=search" }, "geometry": { "type": "Point", "coordinates": [ 136.488175599999977, 36.4383139 ] } },
{ "type": "Feature", "properties": { "内容": "みのり【小規模多機能型居宅介護】石川県野々市市新庄3丁目140番地", "url2": "https://www.kaigokensaku.mhlw.go.jp/17/index.php?action_kouhyou_detail_004_kani=true&JigyosyoCd=1791300021-00&ServiceCd=730&Type=search" }, "geometry": { "type": "Point", "coordinates": [ 136.610740399999941, 36.5054311 ] } },
{ "type": "Feature", "properties": { "内容": "小規模多機能ホームひなの家押野【小規模多機能型居宅介護】石川県野々市市押野１丁目31番地", "url2": "https://www.kaigokensaku.mhlw.go.jp/17/index.php?action_kouhyou_detail_004_kani=true&JigyosyoCd=1791300039-00&ServiceCd=730&Type=search" }, "geometry": { "type": "Point", "coordinates": [ 136.615009200000031, 36.5425822 ] } },
{ "type": "Feature", "properties": { "内容": "小規模多機能ホーム愛の風【小規模多機能型居宅介護】河北郡津幡町字倉見ヨ４２番地1", "url2": "https://www.kaigokensaku.mhlw.go.jp/17/index.php?action_kouhyou_detail_004_kani=true&JigyosyoCd=1791400086-00&ServiceCd=730&Type=search" }, "geometry": { "type": "Point", "coordinates": [ 136.754300493640102, 36.671801986952993 ] } },
{ "type": "Feature", "properties": { "内容": "itosie小規模多機能ホームうちなだ【小規模多機能型居宅介護】石川県河北郡内灘町字鶴ヶ丘１丁目８５番地", "url2": "https://www.kaigokensaku.mhlw.go.jp/17/index.php?action_kouhyou_detail_004_kani=true&JigyosyoCd=1791400151-00&ServiceCd=730&Type=search" }, "geometry": { "type": "Point", "coordinates": [ 136.640634299999988, 36.6400511 ] } },
{ "type": "Feature", "properties": { "内容": "ケアほーむ楓の家リゾート【小規模多機能型居宅介護】羽咋郡志賀町安部屋戌18番地14", "url2": "https://www.kaigokensaku.mhlw.go.jp/17/index.php?action_kouhyou_detail_004_kani=true&JigyosyoCd=1791500091-00&ServiceCd=730&Type=search" }, "geometry": { "type": "Point", "coordinates": [ 136.760850099999971, 37.0211369 ] } },
{ "type": "Feature", "properties": { "内容": "多機能ホームＪＡたんぽぽ【小規模多機能型居宅介護】石川県羽咋郡宝達志水町子浦そ16番地1", "url2": "https://www.kaigokensaku.mhlw.go.jp/17/index.php?action_kouhyou_detail_004_kani=true&JigyosyoCd=1791500075-00&ServiceCd=730&Type=search" }, "geometry": { "type": "Point", "coordinates": [ 136.796248699999978, 36.8623953 ] } },
{ "type": "Feature", "properties": { "内容": "聖頌園大町【小規模多機能型居宅介護】石川県鳳珠郡穴水町字大町17番1", "url2": "https://www.kaigokensaku.mhlw.go.jp/17/index.php?action_kouhyou_detail_004_kani=true&JigyosyoCd=1791700030-00&ServiceCd=730&Type=search" }, "geometry": { "type": "Point", "coordinates": [ 136.903631099528582, 37.231097220167598 ] } },
{ "type": "Feature", "properties": { "内容": "小規模多機能型居宅介護　朝凪【小規模多機能型居宅介護】石川県鳳珠郡能登町字藤波21字7番地1", "url2": "https://www.kaigokensaku.mhlw.go.jp/17/index.php?action_kouhyou_detail_004_kani=true&JigyosyoCd=1791700105-00&ServiceCd=730&Type=search" }, "geometry": { "type": "Point", "coordinates": [ 137.137250592590362, 37.29770804934752 ] } },
{ "type": "Feature", "properties": { "内容": "ケアホーム　いるか乃里【小規模多機能型居宅介護】石川県鳳珠郡能登町字姫３丁目１８番地", "url2": "https://www.kaigokensaku.mhlw.go.jp/17/index.php?action_kouhyou_detail_004_kani=true&JigyosyoCd=1791700063-00&ServiceCd=730&Type=search" }, "geometry": { "type": "Point", "coordinates": [ 137.21276910000006, 37.2976266 ] } }
]
}
