{
"type": "FeatureCollection",
"name": "geo_17_義務教育学校",
"crs": { "type": "name", "properties": { "name": "urn:ogc:def:crs:EPSG::6668" } },
"features": [
{ "type": "Feature", "properties": { "P29_001": "17203", "P29_002": "C217220300013", "P29_003": "16014", "P29_004": "松東みどり学園", "P29_005": "石川県小松市江指町丙30", "P29_006": "3", "P29_007": "1", "P29_008": "00", "P29_009": null }, "geometry": { "type": "Point", "coordinates": [ 136.491422541719089, 36.360164615713941 ] } },
{ "type": "Feature", "properties": { "P29_001": "17205", "P29_002": "C217220500011", "P29_003": "16014", "P29_004": "珠洲市立宝立小中学校", "P29_005": "石川県珠洲市宝立町鵜飼丑部83", "P29_006": "3", "P29_007": "1", "P29_008": "00", "P29_009": null }, "geometry": { "type": "Point", "coordinates": [ 137.237695923537842, 37.403226119802561 ] } },
{ "type": "Feature", "properties": { "P29_001": "17205", "P29_002": "C217220500020", "P29_003": "16014", "P29_004": "珠洲市立大谷小中学校", "P29_005": "石川県珠洲市大谷町1字78", "P29_006": "3", "P29_007": "1", "P29_008": "00", "P29_009": null }, "geometry": { "type": "Point", "coordinates": [ 137.176190749987796, 37.499805838991058 ] } }
]
}
