{
"type": "FeatureCollection",
"name": "geo_17_1",
"crs": { "type": "name", "properties": { "name": "urn:ogc:def:crs:OGC:1.3:CRS84" } },
"features": [
{ "type": "Feature", "properties": { "ID": 1711112002, "正式名称": "医療法人社団澄鈴会　粟津神経サナトリウム", "機関区分": 1, "都道府県コード": 17, "市区町村コード": 203, "所在地": "石川県小松市矢田野町", "緯度": 36.351011, "経度": 136.423416, "url": "https://www.iryou.teikyouseido.mhlw.go.jp/znk-web/juminkanja/S2430/initialize?prefCd=17&kikanCd=1112002&kikanKbn=1", "url2": "http://choureikai.jp/", "内容": "医療法人社団澄鈴会　粟津神経サナトリウム【1:病院】【診療科目:0】【一般病床数:0療養病床数:0精神病床数:263感染症病床数:0合計病床数:263】石川県小松市矢田野町" }, "geometry": { "type": "Point", "coordinates": [ 136.423416, 36.351011 ] } },
{ "type": "Feature", "properties": { "ID": 1711112003, "正式名称": "医療法人社団岡本会　岡本病院", "機関区分": 1, "都道府県コード": 17, "市区町村コード": 203, "所在地": "石川県小松市小馬出町１３番地", "緯度": 36.406496, "経度": 136.448238, "url": "https://www.iryou.teikyouseido.mhlw.go.jp/znk-web/juminkanja/S2430/initialize?prefCd=17&kikanCd=1112003&kikanKbn=1", "url2": "http://okamotohospital.sakura.ne.jp", "内容": "医療法人社団岡本会　岡本病院【1:病院】【診療科目:0】【一般病床数:0療養病床数:38精神病床数:0感染症病床数:0合計病床数:38】石川県小松市小馬出町１３番地" }, "geometry": { "type": "Point", "coordinates": [ 136.448238, 36.406496 ] } },
{ "type": "Feature", "properties": { "ID": 1711112004, "正式名称": "医療法人社団　愛康会　小松ソフィア病院", "機関区分": 1, "都道府県コード": 17, "市区町村コード": 203, "所在地": "石川県小松市沖町４７８番地", "緯度": 36.396337, "経度": 136.463692, "url": "https://www.iryou.teikyouseido.mhlw.go.jp/znk-web/juminkanja/S2430/initialize?prefCd=17&kikanCd=1112004&kikanKbn=1", "url2": "http://www.sophia-hosp.jp", "内容": "医療法人社団　愛康会　小松ソフィア病院【1:病院】【診療科目:0】【一般病床数:48療養病床数:0精神病床数:0感染症病床数:0合計病床数:48】石川県小松市沖町４７８番地" }, "geometry": { "type": "Point", "coordinates": [ 136.463692, 36.396337 ] } },
{ "type": "Feature", "properties": { "ID": 1711112005, "正式名称": "恵愛みらいクリニック", "機関区分": 1, "都道府県コード": 17, "市区町村コード": 203, "所在地": "石川県小松市光町１番地１", "緯度": 36.404687, "経度": 136.457415, "url": "https://www.iryou.teikyouseido.mhlw.go.jp/znk-web/juminkanja/S2430/initialize?prefCd=17&kikanCd=1112005&kikanKbn=1", "url2": "https://keiai-kmt.or.jp", "内容": "恵愛みらいクリニック【1:病院】【診療科目:0】【一般病床数:19療養病床数:0精神病床数:0感染症病床数:0合計病床数:19】石川県小松市光町１番地１" }, "geometry": { "type": "Point", "coordinates": [ 136.457415, 36.404687 ] } },
{ "type": "Feature", "properties": { "ID": 1711112006, "正式名称": "国民健康保険　小松市民病院", "機関区分": 1, "都道府県コード": 17, "市区町村コード": 203, "所在地": "石川県小松市向本折町ホ６０番地", "緯度": 36.398852, "経度": 136.439354, "url": "https://www.iryou.teikyouseido.mhlw.go.jp/znk-web/juminkanja/S2430/initialize?prefCd=17&kikanCd=1112006&kikanKbn=1", "url2": "http://www.hosp.komatsu.ishikawa.jp", "内容": "国民健康保険　小松市民病院【1:病院】【診療科目:0】【一般病床数:300療養病床数:0精神病床数:26感染症病床数:4合計病床数:340】石川県小松市向本折町ホ６０番地" }, "geometry": { "type": "Point", "coordinates": [ 136.439354, 36.398852 ] } },
{ "type": "Feature", "properties": { "ID": 1711112007, "正式名称": "小松こども医療福祉センター", "機関区分": 1, "都道府県コード": 17, "市区町村コード": 203, "所在地": "石川県小松市瀬領町丁１番地２", "緯度": 36.331445, "経度": 136.485214, "url": "https://www.iryou.teikyouseido.mhlw.go.jp/znk-web/juminkanja/S2430/initialize?prefCd=17&kikanCd=1112007&kikanKbn=1", "url2": "http://www.komatsu.isg.or.jp", "内容": "小松こども医療福祉センター【1:病院】【診療科目:0】【一般病床数:52療養病床数:0精神病床数:0感染症病床数:0合計病床数:52】石川県小松市瀬領町丁１番地２" }, "geometry": { "type": "Point", "coordinates": [ 136.485214, 36.331445 ] } },
{ "type": "Feature", "properties": { "ID": 1711112008, "正式名称": "東病院", "機関区分": 1, "都道府県コード": 17, "市区町村コード": 203, "所在地": "石川県小松市大領中町３丁目１２１番地", "緯度": 36.387036, "経度": 136.447642, "url": "https://www.iryou.teikyouseido.mhlw.go.jp/znk-web/juminkanja/S2430/initialize?prefCd=17&kikanCd=1112008&kikanKbn=1", "url2": "http://higashi-hospital.jp", "内容": "東病院【1:病院】【診療科目:0】【一般病床数:0療養病床数:33精神病床数:0感染症病床数:0合計病床数:33】石川県小松市大領中町３丁目１２１番地" }, "geometry": { "type": "Point", "coordinates": [ 136.447642, 36.387036 ] } },
{ "type": "Feature", "properties": { "ID": 1711112009, "正式名称": "医療法人社団東野会東野病院", "機関区分": 1, "都道府県コード": 17, "市区町村コード": 203, "所在地": "石川県小松市今江町７丁目４６８番地", "緯度": 36.377437, "経度": 136.432705, "url": "https://www.iryou.teikyouseido.mhlw.go.jp/znk-web/juminkanja/S2430/initialize?prefCd=17&kikanCd=1112009&kikanKbn=1", "url2": "https://higashinohp.jp/", "内容": "医療法人社団東野会東野病院【1:病院】【診療科目:0】【一般病床数:42療養病床数:0精神病床数:0感染症病床数:0合計病床数:42】石川県小松市今江町７丁目４６８番地" }, "geometry": { "type": "Point", "coordinates": [ 136.432705, 36.377437 ] } },
{ "type": "Feature", "properties": { "ID": 1711112011, "正式名称": "医療法人社団さくら会　森田病院", "機関区分": 1, "都道府県コード": 17, "市区町村コード": 203, "所在地": "石川県小松市園町ホ９９－１", "緯度": 36.408249, "経度": 136.460412, "url": "https://www.iryou.teikyouseido.mhlw.go.jp/znk-web/juminkanja/S2430/initialize?prefCd=17&kikanCd=1112011&kikanKbn=1", "url2": "https://morita-hospital.jp/", "内容": "医療法人社団さくら会　森田病院【1:病院】【診療科目:0】【一般病床数:59療養病床数:40精神病床数:0感染症病床数:0合計病床数:99】石川県小松市園町ホ９９－１" }, "geometry": { "type": "Point", "coordinates": [ 136.460412, 36.408249 ] } },
{ "type": "Feature", "properties": { "ID": 1711112012, "正式名称": "特定医療法人社団　勝木会　やわたメディカルセンター", "機関区分": 1, "都道府県コード": 17, "市区町村コード": 203, "所在地": "石川県小松市八幡イ１２番地７", "緯度": 36.391941, "経度": 136.492274, "url": "https://www.iryou.teikyouseido.mhlw.go.jp/znk-web/juminkanja/S2430/initialize?prefCd=17&kikanCd=1112012&kikanKbn=1", "url2": "http://www.yawatamedical.com/", "内容": "特定医療法人社団　勝木会　やわたメディカルセンター【1:病院】【診療科目:0】【一般病床数:200療養病床数:0精神病床数:0感染症病床数:0合計病床数:200】石川県小松市八幡イ１２番地７" }, "geometry": { "type": "Point", "coordinates": [ 136.492274, 36.391941 ] } },
{ "type": "Feature", "properties": { "ID": 1711113013, "正式名称": "国民健康保険能美市立病院", "機関区分": 1, "都道府県コード": 17, "市区町村コード": 211, "所在地": "石川県能美市大浜町ノ８５番地", "緯度": 36.455117, "経度": 136.460023, "url": "https://www.iryou.teikyouseido.mhlw.go.jp/znk-web/juminkanja/S2430/initialize?prefCd=17&kikanCd=1113013&kikanKbn=1", "url2": "http://nomihsp.com/", "内容": "国民健康保険能美市立病院【1:病院】【診療科目:0】【一般病床数:60療養病床数:40精神病床数:0感染症病床数:0合計病床数:100】石川県能美市大浜町ノ８５番地" }, "geometry": { "type": "Point", "coordinates": [ 136.460023, 36.455117 ] } },
{ "type": "Feature", "properties": { "ID": 1711113014, "正式名称": "公益社団法人石川勤労者医療協会　寺井病院", "機関区分": 1, "都道府県コード": 17, "市区町村コード": 211, "所在地": "石川県能美市寺井町ウ８４", "緯度": 36.438564, "経度": 136.489009, "url": "https://www.iryou.teikyouseido.mhlw.go.jp/znk-web/juminkanja/S2430/initialize?prefCd=17&kikanCd=1113014&kikanKbn=1", "url2": "http://terai-hospital.jp/", "内容": "公益社団法人石川勤労者医療協会　寺井病院【1:病院】【診療科目:0】【一般病床数:0療養病床数:55精神病床数:0感染症病床数:0合計病床数:55】石川県能美市寺井町ウ８４" }, "geometry": { "type": "Point", "coordinates": [ 136.489009, 36.438564 ] } },
{ "type": "Feature", "properties": { "ID": 1711113015, "正式名称": "医療法人社団　和楽仁　芳珠記念病院", "機関区分": 1, "都道府県コード": 17, "市区町村コード": 211, "所在地": "石川県能美市緑が丘１１丁目７１番地", "緯度": 36.442152, "経度": 136.536027, "url": "https://www.iryou.teikyouseido.mhlw.go.jp/znk-web/juminkanja/S2430/initialize?prefCd=17&kikanCd=1113015&kikanKbn=1", "url2": "http://www.houju.or.jp", "内容": "医療法人社団　和楽仁　芳珠記念病院【1:病院】【診療科目:0】【一般病床数:183療養病床数:0精神病床数:0感染症病床数:0合計病床数:183】石川県能美市緑が丘１１丁目７１番地" }, "geometry": { "type": "Point", "coordinates": [ 136.536027, 36.442152 ] } },
{ "type": "Feature", "properties": { "ID": 1711211003, "正式名称": "医療法人社団長久会　加賀こころの病院", "機関区分": 1, "都道府県コード": 17, "市区町村コード": 206, "所在地": "石川県加賀市小菅波町１２１番地１", "緯度": 36.300386, "経度": 136.318371, "url": "https://www.iryou.teikyouseido.mhlw.go.jp/znk-web/juminkanja/S2430/initialize?prefCd=17&kikanCd=1211003&kikanKbn=1", "url2": "http://www.chokyu.gr.jp/", "内容": "医療法人社団長久会　加賀こころの病院【1:病院】【診療科目:0】【一般病床数:0療養病床数:0精神病床数:184感染症病床数:0合計病床数:184】石川県加賀市小菅波町１２１番地１" }, "geometry": { "type": "Point", "coordinates": [ 136.318371, 36.300386 ] } },
{ "type": "Feature", "properties": { "ID": 1711211004, "正式名称": "片山津温泉丘の上病院", "機関区分": 1, "都道府県コード": 17, "市区町村コード": 206, "所在地": "石川県加賀市冨塚町中尾１－３", "緯度": 36.334869, "経度": 136.361194, "url": "https://www.iryou.teikyouseido.mhlw.go.jp/znk-web/juminkanja/S2430/initialize?prefCd=17&kikanCd=1211004&kikanKbn=1", "url2": "http://www.aoikai.jp/okanoue-hsp/", "内容": "片山津温泉丘の上病院【1:病院】【診療科目:0】【一般病床数:0療養病床数:0精神病床数:92感染症病床数:0合計病床数:92】石川県加賀市冨塚町中尾１－３" }, "geometry": { "type": "Point", "coordinates": [ 136.361194, 36.334869 ] } },
{ "type": "Feature", "properties": { "ID": 1711211005, "正式名称": "医療法人社団慈豊会　久藤総合病院", "機関区分": 1, "都道府県コード": 17, "市区町村コード": 206, "所在地": "石川県加賀市大聖寺永町イ１７番地", "緯度": 36.307794, "経度": 136.320248, "url": "https://www.iryou.teikyouseido.mhlw.go.jp/znk-web/juminkanja/S2430/initialize?prefCd=17&kikanCd=1211005&kikanKbn=1", "url2": "http://www.jihoukainet/", "内容": "医療法人社団慈豊会　久藤総合病院【1:病院】【診療科目:0】【一般病床数:55療養病床数:111精神病床数:0感染症病床数:0合計病床数:166】石川県加賀市大聖寺永町イ１７番地" }, "geometry": { "type": "Point", "coordinates": [ 136.320248, 36.307794 ] } },
{ "type": "Feature", "properties": { "ID": 1711211008, "正式名称": "独立行政法人国立病院機構石川病院", "機関区分": 1, "都道府県コード": 17, "市区町村コード": 206, "所在地": "石川県加賀市手塚町サ１５０番地", "緯度": 36.357232, "経度": 136.356897, "url": "https://www.iryou.teikyouseido.mhlw.go.jp/znk-web/juminkanja/S2430/initialize?prefCd=17&kikanCd=1211008&kikanKbn=1", "url2": "https://ishikawa.hosp.go.jp/", "内容": "独立行政法人国立病院機構石川病院【1:病院】【診療科目:0】【一般病床数:215療養病床数:0精神病床数:0感染症病床数:0合計病床数:215】石川県加賀市手塚町サ１５０番地" }, "geometry": { "type": "Point", "coordinates": [ 136.356897, 36.357232 ] } },
{ "type": "Feature", "properties": { "ID": 1711712210119, "正式名称": "恵愛会松南病院", "機関区分": 1, "都道府県コード": 17, "市区町村コード": 210, "所在地": "石川県白山市若宮３丁目６３番地", "緯度": 36.518943, "経度": 136.573765, "url": "https://www.iryou.teikyouseido.mhlw.go.jp/znk-web/juminkanja/S2430/initialize?prefCd=17&kikanCd=1712210119&kikanKbn=1", "url2": "https://keiai-shonan.jp/guide/", "内容": "恵愛会松南病院【1:病院】【診療科目:0】【一般病床数:35療養病床数:0精神病床数:0感染症病床数:0合計病床数:35】石川県白山市若宮３丁目６３番地" }, "geometry": { "type": "Point", "coordinates": [ 136.573765, 36.518943 ] } },
{ "type": "Feature", "properties": { "ID": 1712110002, "正式名称": "公立松任石川中央病院", "機関区分": 1, "都道府県コード": 17, "市区町村コード": 210, "所在地": "石川県白山市倉光三丁目８番地", "緯度": 36.51105, "経度": 136.565761, "url": "https://www.iryou.teikyouseido.mhlw.go.jp/znk-web/juminkanja/S2430/initialize?prefCd=17&kikanCd=2110002&kikanKbn=1", "url2": "http://www.mattohp.jp/", "内容": "公立松任石川中央病院【1:病院】【診療科目:0】【一般病床数:275療養病床数:0精神病床数:30感染症病床数:0合計病床数:305】石川県白山市倉光三丁目８番地" }, "geometry": { "type": "Point", "coordinates": [ 136.565761, 36.51105 ] } },
{ "type": "Feature", "properties": { "ID": 1712110003, "正式名称": "医療法人社団　洋和会　池田病院", "機関区分": 1, "都道府県コード": 17, "市区町村コード": 212, "所在地": "石川県野々市市新庄", "緯度": 36.497177, "経度": 136.610632, "url": "https://www.iryou.teikyouseido.mhlw.go.jp/znk-web/juminkanja/S2430/initialize?prefCd=17&kikanCd=2110003&kikanKbn=1", "url2": "http://www.hosphy.jp", "内容": "医療法人社団　洋和会　池田病院【1:病院】【診療科目:0】【一般病床数:0療養病床数:0精神病床数:0感染症病床数:0合計病床数:41】石川県野々市市新庄" }, "geometry": { "type": "Point", "coordinates": [ 136.610632, 36.497177 ] } },
{ "type": "Feature", "properties": { "ID": 1712110004, "正式名称": "医療法人社団浅ノ川　金沢脳神経外科病院", "機関区分": 1, "都道府県コード": 17, "市区町村コード": 212, "所在地": "石川県野々市市郷町２６２ー２", "緯度": 36.526467, "経度": 136.588125, "url": "https://www.iryou.teikyouseido.mhlw.go.jp/znk-web/juminkanja/S2430/initialize?prefCd=17&kikanCd=2110004&kikanKbn=1", "url2": "http://www.nouge.net", "内容": "医療法人社団浅ノ川　金沢脳神経外科病院【1:病院】【診療科目:0】【一般病床数:60療養病床数:160精神病床数:0感染症病床数:0合計病床数:220】石川県野々市市郷町２６２ー２" }, "geometry": { "type": "Point", "coordinates": [ 136.588125, 36.526467 ] } },
{ "type": "Feature", "properties": { "ID": 1712110005, "正式名称": "社会福祉法人　金沢市民生協会　ときわ病院", "機関区分": 1, "都道府県コード": 17, "市区町村コード": 212, "所在地": "石川県野々市市中林４丁目１２３番地", "緯度": 36.515716, "経度": 136.59873, "url": "https://www.iryou.teikyouseido.mhlw.go.jp/znk-web/juminkanja/S2430/initialize?prefCd=17&kikanCd=2110005&kikanKbn=1", "url2": "http://www.tokiwahp.or.jp", "内容": "社会福祉法人　金沢市民生協会　ときわ病院【1:病院】【診療科目:0】【一般病床数:0療養病床数:0精神病床数:268感染症病床数:0合計病床数:268】石川県野々市市中林４丁目１２３番地" }, "geometry": { "type": "Point", "coordinates": [ 136.59873, 36.515716 ] } },
{ "type": "Feature", "properties": { "ID": 1712110007, "正式名称": "白山石川医療企業団　公立つるぎ病院", "機関区分": 1, "都道府県コード": 17, "市区町村コード": 210, "所在地": "石川県白山市鶴来水戸町ノ１番地", "緯度": 36.447168, "経度": 136.623723, "url": "https://www.iryou.teikyouseido.mhlw.go.jp/znk-web/juminkanja/S2430/initialize?prefCd=17&kikanCd=2110007&kikanKbn=1", "url2": "http://www.tsurugihp.jp/", "内容": "白山石川医療企業団　公立つるぎ病院【1:病院】【診療科目:0】【一般病床数:152療養病床数:0精神病床数:0感染症病床数:0合計病床数:152】石川県白山市鶴来水戸町ノ１番地" }, "geometry": { "type": "Point", "coordinates": [ 136.623723, 36.447168 ] } },
{ "type": "Feature", "properties": { "ID": 1712110008, "正式名称": "医療法人社団　新村病院", "機関区分": 1, "都道府県コード": 17, "市区町村コード": 210, "所在地": "石川県白山市月橋町７２２番地１２", "緯度": 36.45546, "経度": 136.617957, "url": "https://www.iryou.teikyouseido.mhlw.go.jp/znk-web/juminkanja/S2430/initialize?prefCd=17&kikanCd=2110008&kikanKbn=1", "url2": "http://www.shimmura.or.jp", "内容": "医療法人社団　新村病院【1:病院】【診療科目:0】【一般病床数:47療養病床数:0精神病床数:0感染症病床数:0合計病床数:47】石川県白山市月橋町７２２番地１２" }, "geometry": { "type": "Point", "coordinates": [ 136.617957, 36.45546 ] } },
{ "type": "Feature", "properties": { "ID": 1712210001, "正式名称": "公立河北中央病院", "機関区分": 1, "都道府県コード": 17, "市区町村コード": 361, "所在地": "石川県河北郡津幡町字津幡ロ５１番地２", "緯度": 36.670093, "経度": 136.736905, "url": "https://www.iryou.teikyouseido.mhlw.go.jp/znk-web/juminkanja/S2430/initialize?prefCd=17&kikanCd=2210001&kikanKbn=1", "url2": "http://kahoku-hp.jp/", "内容": "公立河北中央病院【1:病院】【診療科目:0】【一般病床数:60療養病床数:0精神病床数:0感染症病床数:0合計病床数:60】石川県河北郡津幡町字津幡ロ５１番地２" }, "geometry": { "type": "Point", "coordinates": [ 136.736905, 36.670093 ] } },
{ "type": "Feature", "properties": { "ID": 1712210002, "正式名称": "金沢医科大学病院", "機関区分": 1, "都道府県コード": 17, "市区町村コード": 365, "所在地": "石川県河北郡内灘町大学１－１", "緯度": 36.657563, "経度": 136.647562, "url": "https://www.iryou.teikyouseido.mhlw.go.jp/znk-web/juminkanja/S2430/initialize?prefCd=17&kikanCd=2210002&kikanKbn=1", "url2": "http://www.kanazawa-med.ac.jp/~hospital/", "内容": "金沢医科大学病院【1:病院】【診療科目:0】【一般病床数:771療養病床数:0精神病床数:36感染症病床数:0合計病床数:807】石川県河北郡内灘町大学１－１" }, "geometry": { "type": "Point", "coordinates": [ 136.647562, 36.657563 ] } },
{ "type": "Feature", "properties": { "ID": 1712210003, "正式名称": "医療法人社団友愛病院会　内灘温泉病院", "機関区分": 1, "都道府県コード": 17, "市区町村コード": 365, "所在地": "石川県河北郡内灘町白帆台１丁目８８－１", "緯度": 36.66841, "経度": 136.654451, "url": "https://www.iryou.teikyouseido.mhlw.go.jp/znk-web/juminkanja/S2430/initialize?prefCd=17&kikanCd=2210003&kikanKbn=1", "url2": null, "内容": "医療法人社団友愛病院会　内灘温泉病院【1:病院】【診療科目:0】【一般病床数:0療養病床数:80精神病床数:0感染症病床数:0合計病床数:80】石川県河北郡内灘町白帆台１丁目８８－１" }, "geometry": { "type": "Point", "coordinates": [ 136.654451, 36.66841 ] } },
{ "type": "Feature", "properties": { "ID": 1712210005, "正式名称": "中田内科病院", "機関区分": 1, "都道府県コード": 17, "市区町村コード": 209, "所在地": "石川県かほく市内日角６－３５－１", "緯度": 36.716992, "経度": 136.69648, "url": "https://www.iryou.teikyouseido.mhlw.go.jp/znk-web/juminkanja/S2430/initialize?prefCd=17&kikanCd=2210005&kikanKbn=1", "url2": null, "内容": "中田内科病院【1:病院】【診療科目:0】【一般病床数:0療養病床数:35精神病床数:0感染症病床数:0合計病床数:35】石川県かほく市内日角６－３５－１" }, "geometry": { "type": "Point", "coordinates": [ 136.69648, 36.716992 ] } },
{ "type": "Feature", "properties": { "ID": 1712210006, "正式名称": "医療法人社団芙蓉会　二ツ屋病院", "機関区分": 1, "都道府県コード": 17, "市区町村コード": 209, "所在地": "石川県かほく市二ツ屋ソ７２番地", "緯度": 36.784819, "経度": 136.73856, "url": "https://www.iryou.teikyouseido.mhlw.go.jp/znk-web/juminkanja/S2430/initialize?prefCd=17&kikanCd=2210006&kikanKbn=1", "url2": "http://www.futatsuya-hp.jp/", "内容": "医療法人社団芙蓉会　二ツ屋病院【1:病院】【診療科目:0】【一般病床数:0療養病床数:0精神病床数:0感染症病床数:0合計病床数:156】石川県かほく市二ツ屋ソ７２番地" }, "geometry": { "type": "Point", "coordinates": [ 136.73856, 36.784819 ] } },
{ "type": "Feature", "properties": { "ID": 1713110002, "正式名称": "医療法人社団豊明会北村病院", "機関区分": 1, "都道府県コード": 17, "市区町村コード": 202, "所在地": "石川県七尾市御祓町ホ部２６の５", "緯度": 37.04397, "経度": 136.963482, "url": "https://www.iryou.teikyouseido.mhlw.go.jp/znk-web/juminkanja/S2430/initialize?prefCd=17&kikanCd=3110002&kikanKbn=1", "url2": "http://kitamurahospital.iza-yoi.net/", "内容": "医療法人社団豊明会北村病院【1:病院】【診療科目:0】【一般病床数:0療養病床数:24精神病床数:0感染症病床数:0合計病床数:24】石川県七尾市御祓町ホ部２６の５" }, "geometry": { "type": "Point", "coordinates": [ 136.963482, 37.04397 ] } },
{ "type": "Feature", "properties": { "ID": 1713110003, "正式名称": "社会医療法人財団董仙会恵寿総合病院", "機関区分": 1, "都道府県コード": 17, "市区町村コード": 202, "所在地": "石川県七尾市富岡町９４番地", "緯度": 37.051536, "経度": 136.961991, "url": "https://www.iryou.teikyouseido.mhlw.go.jp/znk-web/juminkanja/S2430/initialize?prefCd=17&kikanCd=3110003&kikanKbn=1", "url2": "http://www.keiju.co.jp", "内容": "社会医療法人財団董仙会恵寿総合病院【1:病院】【診療科目:0】【一般病床数:386療養病床数:0精神病床数:0感染症病床数:0合計病床数:386】石川県七尾市富岡町９４番地" }, "geometry": { "type": "Point", "coordinates": [ 136.961991, 37.051536 ] } },
{ "type": "Feature", "properties": { "ID": 1713110004, "正式名称": "公立能登総合病院", "機関区分": 1, "都道府県コード": 17, "市区町村コード": 202, "所在地": "石川県七尾市藤橋町ア部６番地４", "緯度": 37.045061, "経度": 136.946607, "url": "https://www.iryou.teikyouseido.mhlw.go.jp/znk-web/juminkanja/S2430/initialize?prefCd=17&kikanCd=3110004&kikanKbn=1", "url2": "http://www.noto-hospital.nanao.ishikawa.jp/", "内容": "公立能登総合病院【1:病院】【診療科目:0】【一般病床数:330療養病床数:0精神病床数:100感染症病床数:4合計病床数:434】石川県七尾市藤橋町ア部６番地４" }, "geometry": { "type": "Point", "coordinates": [ 136.946607, 37.045061 ] } },
{ "type": "Feature", "properties": { "ID": 1713110005, "正式名称": "独立行政法人国立病院機構七尾病院", "機関区分": 1, "都道府県コード": 17, "市区町村コード": 202, "所在地": "石川県七尾市松百町八部３番地の１", "緯度": 37.064338, "経度": 136.943872, "url": "https://www.iryou.teikyouseido.mhlw.go.jp/znk-web/juminkanja/S2430/initialize?prefCd=17&kikanCd=3110005&kikanKbn=1", "url2": "http://nanao.hosp.go.jp/", "内容": "独立行政法人国立病院機構七尾病院【1:病院】【診療科目:0】【一般病床数:214療養病床数:0精神病床数:0感染症病床数:0合計病床数:214】石川県七尾市松百町八部３番地の１" }, "geometry": { "type": "Point", "coordinates": [ 136.943872, 37.064338 ] } },
{ "type": "Feature", "properties": { "ID": 1713110007, "正式名称": "七尾松原病院", "機関区分": 1, "都道府県コード": 17, "市区町村コード": 202, "所在地": "石川県七尾市本府中町ワ部５番地", "緯度": 37.036312, "経度": 136.969568, "url": "https://www.iryou.teikyouseido.mhlw.go.jp/znk-web/juminkanja/S2430/initialize?prefCd=17&kikanCd=3110007&kikanKbn=1", "url2": "http://www.nanamatsuhp.jp", "内容": "七尾松原病院【1:病院】【診療科目:0】【一般病床数:0療養病床数:0精神病床数:157感染症病床数:0合計病床数:157】石川県七尾市本府中町ワ部５番地" }, "geometry": { "type": "Point", "coordinates": [ 136.969568, 37.036312 ] } },
{ "type": "Feature", "properties": { "ID": 1713110008, "正式名称": "医療法人財団　愛生会　浜野西クリニック", "機関区分": 1, "都道府県コード": 17, "市区町村コード": 202, "所在地": "石川県七尾市津向町野中２０番地１", "緯度": 37.063408, "経度": 136.954693, "url": "https://www.iryou.teikyouseido.mhlw.go.jp/znk-web/juminkanja/S2430/initialize?prefCd=17&kikanCd=3110008&kikanKbn=1", "url2": "http://www.hamano-hp.or.jp/nishihospital.html", "内容": "医療法人財団　愛生会　浜野西クリニック【1:病院】【診療科目:0】【一般病床数:0療養病床数:0精神病床数:0感染症病床数:0合計病床数:0】石川県七尾市津向町野中２０番地１" }, "geometry": { "type": "Point", "coordinates": [ 136.954693, 37.063408 ] } },
{ "type": "Feature", "properties": { "ID": 1713210001, "正式名称": "公立羽咋病院", "機関区分": 1, "都道府県コード": 17, "市区町村コード": 207, "所在地": "石川県羽咋市的場町松崎２４番地", "緯度": 36.90109, "経度": 136.779968, "url": "https://www.iryou.teikyouseido.mhlw.go.jp/znk-web/juminkanja/S2430/initialize?prefCd=17&kikanCd=3210001&kikanKbn=1", "url2": "http://www.hakuihp.jp", "内容": "公立羽咋病院【1:病院】【診療科目:0】【一般病床数:174療養病床数:0精神病床数:0感染症病床数:0合計病床数:174】石川県羽咋市的場町松崎２４番地" }, "geometry": { "type": "Point", "coordinates": [ 136.779968, 36.90109 ] } },
{ "type": "Feature", "properties": { "ID": 1713210004, "正式名称": "医療法人平成会　向クリニック", "機関区分": 1, "都道府県コード": 17, "市区町村コード": 384, "所在地": "石川県羽咋郡志賀町富来領家町ハの３０番地", "緯度": 37.143928, "経度": 136.72996, "url": "https://www.iryou.teikyouseido.mhlw.go.jp/znk-web/juminkanja/S2430/initialize?prefCd=17&kikanCd=3210004&kikanKbn=1", "url2": "https://mukai.clinic/", "内容": "医療法人平成会　向クリニック【1:病院】【診療科目:0】【一般病床数:0療養病床数:0精神病床数:0感染症病床数:0合計病床数:0】石川県羽咋郡志賀町富来領家町ハの３０番地" }, "geometry": { "type": "Point", "coordinates": [ 136.72996, 37.143928 ] } },
{ "type": "Feature", "properties": { "ID": 1713210005, "正式名称": "町立富来病院", "機関区分": 1, "都道府県コード": 17, "市区町村コード": 384, "所在地": "石川県羽咋郡志賀町富来地頭町７の１１０番１", "緯度": 37.13738, "経度": 136.729366, "url": "https://www.iryou.teikyouseido.mhlw.go.jp/znk-web/juminkanja/S2430/initialize?prefCd=17&kikanCd=3210005&kikanKbn=1", "url2": null, "内容": "町立富来病院【1:病院】【診療科目:0】【一般病床数:60療養病床数:0精神病床数:0感染症病床数:0合計病床数:60】石川県羽咋郡志賀町富来地頭町７の１１０番１" }, "geometry": { "type": "Point", "coordinates": [ 136.729366, 37.13738 ] } },
{ "type": "Feature", "properties": { "ID": 171348, "正式名称": "みずほ病院", "機関区分": 1, "都道府県コード": 17, "市区町村コード": 361, "所在地": "石川県河北郡津幡町字潟端４２２番地１", "緯度": 36.655911, "経度": 136.710097, "url": "https://www.iryou.teikyouseido.mhlw.go.jp/znk-web/juminkanja/S2430/initialize?prefCd=17&kikanCd=348&kikanKbn=1", "url2": "http://www. mizuho-h.com", "内容": "みずほ病院【1:病院】【診療科目:0】【一般病床数:0療養病床数:79精神病床数:0感染症病床数:0合計病床数:79】石川県河北郡津幡町字潟端４２２番地１" }, "geometry": { "type": "Point", "coordinates": [ 136.710097, 36.655911 ] } },
{ "type": "Feature", "properties": { "ID": 1714110001, "正式名称": "市立輪島病院", "機関区分": 1, "都道府県コード": 17, "市区町村コード": 204, "所在地": "石川県輪島市山岸町は１番１地", "緯度": 37.384242, "経度": 136.90557, "url": "https://www.iryou.teikyouseido.mhlw.go.jp/znk-web/juminkanja/S2430/initialize?prefCd=17&kikanCd=4110001&kikanKbn=1", "url2": "https://www.city.wajima.ishikawa.jp/wajimahp/", "内容": "市立輪島病院【1:病院】【診療科目:0】【一般病床数:171療養病床数:0精神病床数:0感染症病床数:4合計病床数:175】石川県輪島市山岸町は１番１地" }, "geometry": { "type": "Point", "coordinates": [ 136.90557, 37.384242 ] } },
{ "type": "Feature", "properties": { "ID": 1714110002, "正式名称": "公立穴水総合病院", "機関区分": 1, "都道府県コード": 17, "市区町村コード": 461, "所在地": "石川県鳳珠郡穴水町字川島タの８番地", "緯度": 37.233429, "経度": 136.909599, "url": "https://www.iryou.teikyouseido.mhlw.go.jp/znk-web/juminkanja/S2430/initialize?prefCd=17&kikanCd=4110002&kikanKbn=1", "url2": "http://www.anamizu.jp/", "内容": "公立穴水総合病院【1:病院】【診療科目:0】【一般病床数:100療養病床数:0精神病床数:0感染症病床数:0合計病床数:100】石川県鳳珠郡穴水町字川島タの８番地" }, "geometry": { "type": "Point", "coordinates": [ 136.909599, 37.233429 ] } },
{ "type": "Feature", "properties": { "ID": 1714110004, "正式名称": "公立宇出津総合病院", "機関区分": 1, "都道府県コード": 17, "市区町村コード": 463, "所在地": "石川県鳳珠郡能登町宇出津タ字９７番地", "緯度": 37.308476, "経度": 137.146985, "url": "https://www.iryou.teikyouseido.mhlw.go.jp/znk-web/juminkanja/S2430/initialize?prefCd=17&kikanCd=4110004&kikanKbn=1", "url2": "https://www.town.noto.lg.jp/kakuka/ushitsu-hospital/", "内容": "公立宇出津総合病院【1:病院】【診療科目:0】【一般病床数:90療養病床数:0精神病床数:0感染症病床数:0合計病床数:90】石川県鳳珠郡能登町宇出津タ字９７番地" }, "geometry": { "type": "Point", "coordinates": [ 137.146985, 37.308476 ] } },
{ "type": "Feature", "properties": { "ID": 1714210001, "正式名称": "珠洲市総合病院", "機関区分": 1, "都道府県コード": 17, "市区町村コード": 205, "所在地": "石川県珠洲市野々江町", "緯度": 37.443603, "経度": 137.270726, "url": "https://www.iryou.teikyouseido.mhlw.go.jp/znk-web/juminkanja/S2430/initialize?prefCd=17&kikanCd=4210001&kikanKbn=1", "url2": "http://www.city.suzu.ishikawa.jp/suzuhp", "内容": "珠洲市総合病院【1:病院】【診療科目:0】【一般病床数:108療養病床数:0精神病床数:0感染症病床数:0合計病床数:115】石川県珠洲市野々江町" }, "geometry": { "type": "Point", "coordinates": [ 137.270726, 37.443603 ] } },
{ "type": "Feature", "properties": { "ID": 171463, "正式名称": "加賀市医療センター", "機関区分": 1, "都道府県コード": 17, "市区町村コード": 206, "所在地": "石川県加賀市作見町リ３６番地", "緯度": 36.31732, "経度": 136.351586, "url": "https://www.iryou.teikyouseido.mhlw.go.jp/znk-web/juminkanja/S2430/initialize?prefCd=17&kikanCd=463&kikanKbn=1", "url2": "https://www.kagacityhp.jp/", "内容": "加賀市医療センター【1:病院】【診療科目:0】【一般病床数:300療養病床数:0精神病床数:0感染症病床数:0合計病床数:300】石川県加賀市作見町リ３６番地" }, "geometry": { "type": "Point", "coordinates": [ 136.351586, 36.31732 ] } },
{ "type": "Feature", "properties": { "ID": 1715110001, "正式名称": "独立行政法人国立病院機構金沢医療センター", "機関区分": 1, "都道府県コード": 17, "市区町村コード": 201, "所在地": "石川県金沢市下石引町１番１号", "緯度": 36.560948, "経度": 136.665288, "url": "https://www.iryou.teikyouseido.mhlw.go.jp/znk-web/juminkanja/S2430/initialize?prefCd=17&kikanCd=5110001&kikanKbn=1", "url2": "https://kanazawa.hosp.go.jp/", "内容": "独立行政法人国立病院機構金沢医療センター【1:病院】【診療科目:0】【一般病床数:512療養病床数:0精神病床数:42感染症病床数:0合計病床数:554】石川県金沢市下石引町１番１号" }, "geometry": { "type": "Point", "coordinates": [ 136.665288, 36.560948 ] } },
{ "type": "Feature", "properties": { "ID": 1715110002, "正式名称": "国立大学法人金沢大学附属病院", "機関区分": 1, "都道府県コード": 17, "市区町村コード": 201, "所在地": "石川県金沢市宝町１３番１号", "緯度": 36.557199, "経度": 136.673589, "url": "https://www.iryou.teikyouseido.mhlw.go.jp/znk-web/juminkanja/S2430/initialize?prefCd=17&kikanCd=5110002&kikanKbn=1", "url2": "https://web.hosp.kanazawa-u.ac.jp/", "内容": "国立大学法人金沢大学附属病院【1:病院】【診療科目:0】【一般病床数:792療養病床数:0精神病床数:38感染症病床数:0合計病床数:830】石川県金沢市宝町１３番１号" }, "geometry": { "type": "Point", "coordinates": [ 136.673589, 36.557199 ] } },
{ "type": "Feature", "properties": { "ID": 1715110003, "正式名称": "金沢市立病院", "機関区分": 1, "都道府県コード": 17, "市区町村コード": 201, "所在地": "石川県金沢市平和町３－７－３", "緯度": 36.540758, "経度": 136.662594, "url": "https://www.iryou.teikyouseido.mhlw.go.jp/znk-web/juminkanja/S2430/initialize?prefCd=17&kikanCd=5110003&kikanKbn=1", "url2": "http://www4.city.kanazawa.lg.jp/36001/byouin/index.html", "内容": "金沢市立病院【1:病院】【診療科目:0】【一般病床数:275療養病床数:0精神病床数:0感染症病床数:25合計病床数:306】石川県金沢市平和町３－７－３" }, "geometry": { "type": "Point", "coordinates": [ 136.662594, 36.540758 ] } },
{ "type": "Feature", "properties": { "ID": 1715110004, "正式名称": "金沢赤十字病院", "機関区分": 1, "都道府県コード": 17, "市区町村コード": 201, "所在地": "石川県金沢市三馬２－２５１", "緯度": 36.530304, "経度": 136.636344, "url": "https://www.iryou.teikyouseido.mhlw.go.jp/znk-web/juminkanja/S2430/initialize?prefCd=17&kikanCd=5110004&kikanKbn=1", "url2": "https://kanazawa-rc-hosp.jp", "内容": "金沢赤十字病院【1:病院】【診療科目:0】【一般病床数:243療養病床数:0精神病床数:0感染症病床数:0合計病床数:243】石川県金沢市三馬２－２５１" }, "geometry": { "type": "Point", "coordinates": [ 136.636344, 36.530304 ] } },
{ "type": "Feature", "properties": { "ID": 1715110005, "正式名称": "国家公務員共済組合連合会　北陸病院", "機関区分": 1, "都道府県コード": 17, "市区町村コード": 201, "所在地": "石川県金沢市泉が丘２－１３－４３", "緯度": 36.542222, "経度": 136.644882, "url": "https://www.iryou.teikyouseido.mhlw.go.jp/znk-web/juminkanja/S2430/initialize?prefCd=17&kikanCd=5110005&kikanKbn=1", "url2": "http://www.hokuriku.kkr.or.jp/", "内容": "国家公務員共済組合連合会　北陸病院【1:病院】【診療科目:0】【一般病床数:125療養病床数:0精神病床数:0感染症病床数:0合計病床数:125】石川県金沢市泉が丘２－１３－４３" }, "geometry": { "type": "Point", "coordinates": [ 136.644882, 36.542222 ] } },
{ "type": "Feature", "properties": { "ID": 1715110006, "正式名称": "医療法人積仁会　岡部病院", "機関区分": 1, "都道府県コード": 17, "市区町村コード": 201, "所在地": "石川県金沢市長坂町チ１５番地", "緯度": 36.532623, "経度": 136.656468, "url": "https://www.iryou.teikyouseido.mhlw.go.jp/znk-web/juminkanja/S2430/initialize?prefCd=17&kikanCd=5110006&kikanKbn=1", "url2": "http://www.okabe-net.jp/", "内容": "医療法人積仁会　岡部病院【1:病院】【診療科目:0】【一般病床数:0療養病床数:0精神病床数:287感染症病床数:0合計病床数:287】石川県金沢市長坂町チ１５番地" }, "geometry": { "type": "Point", "coordinates": [ 136.656468, 36.532623 ] } },
{ "type": "Feature", "properties": { "ID": 1715110007, "正式名称": "社会医療法人財団松原愛育会　松原病院", "機関区分": 1, "都道府県コード": 17, "市区町村コード": 201, "所在地": "石川県金沢市石引４丁目３番５号", "緯度": 36.558195, "経度": 136.666757, "url": "https://www.iryou.teikyouseido.mhlw.go.jp/znk-web/juminkanja/S2430/initialize?prefCd=17&kikanCd=5110007&kikanKbn=1", "url2": "http://matsubara-hospital.org/", "内容": "社会医療法人財団松原愛育会　松原病院【1:病院】【診療科目:0】【一般病床数:0療養病床数:30精神病床数:425感染症病床数:0合計病床数:455】石川県金沢市石引４丁目３番５号" }, "geometry": { "type": "Point", "coordinates": [ 136.666757, 36.558195 ] } },
{ "type": "Feature", "properties": { "ID": 1715110009, "正式名称": "社会福祉法人　松原愛育会　石川療育センター", "機関区分": 1, "都道府県コード": 17, "市区町村コード": 201, "所在地": "石川県金沢市上中町イ６７の２", "緯度": 36.519859, "経度": 136.70326, "url": "https://www.iryou.teikyouseido.mhlw.go.jp/znk-web/juminkanja/S2430/initialize?prefCd=17&kikanCd=5110009&kikanKbn=1", "url2": "http://www.m-aiiku.jp/ryouiku", "内容": "社会福祉法人　松原愛育会　石川療育センター【1:病院】【診療科目:0】【一般病床数:60療養病床数:0精神病床数:0感染症病床数:0合計病床数:60】石川県金沢市上中町イ６７の２" }, "geometry": { "type": "Point", "coordinates": [ 136.70326, 36.519859 ] } },
{ "type": "Feature", "properties": { "ID": 1715110010, "正式名称": "結城病院", "機関区分": 1, "都道府県コード": 17, "市区町村コード": 201, "所在地": "石川県金沢市円光寺", "緯度": 36.534468, "経度": 136.645347, "url": "https://www.iryou.teikyouseido.mhlw.go.jp/znk-web/juminkanja/S2430/initialize?prefCd=17&kikanCd=5110010&kikanKbn=1", "url2": "http://www.kfk-yukihp.or.jp", "内容": "結城病院【1:病院】【診療科目:0】【一般病床数:0療養病床数:0精神病床数:129感染症病床数:0合計病床数:129】石川県金沢市円光寺" }, "geometry": { "type": "Point", "coordinates": [ 136.645347, 36.534468 ] } },
{ "type": "Feature", "properties": { "ID": 1715110011, "正式名称": "医療法人社団晃樹会　石田病院", "機関区分": 1, "都道府県コード": 17, "市区町村コード": 201, "所在地": "石川県金沢市寺町３丁目１０番１５号", "緯度": 36.550476, "経度": 136.655769, "url": "https://www.iryou.teikyouseido.mhlw.go.jp/znk-web/juminkanja/S2430/initialize?prefCd=17&kikanCd=5110011&kikanKbn=1", "url2": "https://www.ishida-hospital.com/", "内容": "医療法人社団晃樹会　石田病院【1:病院】【診療科目:0】【一般病床数:0療養病床数:40精神病床数:0感染症病床数:0合計病床数:40】石川県金沢市寺町３丁目１０番１５号" }, "geometry": { "type": "Point", "coordinates": [ 136.655769, 36.550476 ] } },
{ "type": "Feature", "properties": { "ID": 1715110012, "正式名称": "医療法人社団竜山会　石野病院", "機関区分": 1, "都道府県コード": 17, "市区町村コード": 201, "所在地": "石川県金沢市千日町", "緯度": 36.560884, "経度": 136.647658, "url": "https://www.iryou.teikyouseido.mhlw.go.jp/znk-web/juminkanja/S2430/initialize?prefCd=17&kikanCd=5110012&kikanKbn=1", "url2": "http://www1.och.ne.jp/^ishino-h/", "内容": "医療法人社団竜山会　石野病院【1:病院】【診療科目:0】【一般病床数:0療養病床数:60精神病床数:0感染症病床数:0合計病床数:60】石川県金沢市千日町" }, "geometry": { "type": "Point", "coordinates": [ 136.647658, 36.560884 ] } },
{ "type": "Feature", "properties": { "ID": 1715110013, "正式名称": "川北病院", "機関区分": 1, "都道府県コード": 17, "市区町村コード": 201, "所在地": "石川県金沢市野町", "緯度": 36.554201, "経度": 136.647281, "url": "https://www.iryou.teikyouseido.mhlw.go.jp/znk-web/juminkanja/S2430/initialize?prefCd=17&kikanCd=5110013&kikanKbn=1", "url2": null, "内容": "川北病院【1:病院】【診療科目:0】【一般病床数:0療養病床数:66精神病床数:0感染症病床数:0合計病床数:66】石川県金沢市野町" }, "geometry": { "type": "Point", "coordinates": [ 136.647281, 36.554201 ] } },
{ "type": "Feature", "properties": { "ID": 1715110014, "正式名称": "医療法人社団和幸会　鈴木レディスホスピタル", "機関区分": 1, "都道府県コード": 17, "市区町村コード": 201, "所在地": "石川県金沢市寺町２丁目８番３６号", "緯度": 36.548582, "経度": 136.656236, "url": "https://www.iryou.teikyouseido.mhlw.go.jp/znk-web/juminkanja/S2430/initialize?prefCd=17&kikanCd=5110014&kikanKbn=1", "url2": "http://www.suzukilh.com", "内容": "医療法人社団和幸会　鈴木レディスホスピタル【1:病院】【診療科目:0】【一般病床数:28療養病床数:0精神病床数:0感染症病床数:0合計病床数:28】石川県金沢市寺町２丁目８番３６号" }, "geometry": { "type": "Point", "coordinates": [ 136.656236, 36.548582 ] } },
{ "type": "Feature", "properties": { "ID": 1715110015, "正式名称": "医療法人社団博倉会　伊藤病院", "機関区分": 1, "都道府県コード": 17, "市区町村コード": 201, "所在地": "石川県金沢市十三間町９８番地", "緯度": 36.557029, "経度": 136.652111, "url": "https://www.iryou.teikyouseido.mhlw.go.jp/znk-web/juminkanja/S2430/initialize?prefCd=17&kikanCd=5110015&kikanKbn=1", "url2": "https://ito-hp.jp", "内容": "医療法人社団博倉会　伊藤病院【1:病院】【診療科目:0】【一般病床数:28療養病床数:0精神病床数:0感染症病床数:0合計病床数:28】石川県金沢市十三間町９８番地" }, "geometry": { "type": "Point", "coordinates": [ 136.652111, 36.557029 ] } },
{ "type": "Feature", "properties": { "ID": 1715110017, "正式名称": "特定医療法人扇翔会　南ヶ丘病院", "機関区分": 1, "都道府県コード": 17, "市区町村コード": 212, "所在地": "石川県野々市市西部中央土地区画整理事業施行地区５６街区１番", "緯度": 36.526516, "経度": 136.593974, "url": "https://www.iryou.teikyouseido.mhlw.go.jp/znk-web/juminkanja/S2430/initialize?prefCd=17&kikanCd=5110017&kikanKbn=1", "url2": "http://www.minamigaoka-hp.or.jp/", "内容": "特定医療法人扇翔会　南ヶ丘病院【1:病院】【診療科目:0】【一般病床数:120療養病床数:0精神病床数:0感染症病床数:0合計病床数:120】石川県野々市市西部中央土地区画整理事業施行地区５６街区１番" }, "geometry": { "type": "Point", "coordinates": [ 136.593974, 36.526516 ] } },
{ "type": "Feature", "properties": { "ID": 1715110018, "正式名称": "独立行政法人国立病院機構　医王病院", "機関区分": 1, "都道府県コード": 17, "市区町村コード": 201, "所在地": "石川県金沢市岩出町ニ７３番地１", "緯度": 36.611043, "経度": 136.702085, "url": "https://www.iryou.teikyouseido.mhlw.go.jp/znk-web/juminkanja/S2430/initialize?prefCd=17&kikanCd=5110018&kikanKbn=1", "url2": "https://iou.hosp.go.jp/", "内容": "独立行政法人国立病院機構　医王病院【1:病院】【診療科目:0】【一般病床数:310療養病床数:0精神病床数:0感染症病床数:0合計病床数:310】石川県金沢市岩出町ニ７３番地１" }, "geometry": { "type": "Point", "coordinates": [ 136.702085, 36.611043 ] } },
{ "type": "Feature", "properties": { "ID": 1715110019, "正式名称": "社会医療法人財団董仙会　恵寿金沢病院", "機関区分": 1, "都道府県コード": 17, "市区町村コード": 201, "所在地": "石川県金沢市下新町６番２６号", "緯度": 36.57222, "経度": 136.662782, "url": "https://www.iryou.teikyouseido.mhlw.go.jp/znk-web/juminkanja/S2430/initialize?prefCd=17&kikanCd=5110019&kikanKbn=1", "url2": "http://www.keiju.co.jp/kanazawahp/", "内容": "社会医療法人財団董仙会　恵寿金沢病院【1:病院】【診療科目:0】【一般病床数:89療養病床数:0精神病床数:0感染症病床数:0合計病床数:89】石川県金沢市下新町６番２６号" }, "geometry": { "type": "Point", "coordinates": [ 136.662782, 36.57222 ] } },
{ "type": "Feature", "properties": { "ID": 1715110020, "正式名称": "社会福祉法人聖霊病院　　金沢聖霊総合病院", "機関区分": 1, "都道府県コード": 17, "市区町村コード": 201, "所在地": "石川県金沢市長町１丁目５－３０", "緯度": 36.56547, "経度": 136.649795, "url": "https://www.iryou.teikyouseido.mhlw.go.jp/znk-web/juminkanja/S2430/initialize?prefCd=17&kikanCd=5110020&kikanKbn=1", "url2": "http://www.kanazawa-seirei.jp/", "内容": "社会福祉法人聖霊病院　　金沢聖霊総合病院【1:病院】【診療科目:0】【一般病床数:60療養病床数:0精神病床数:0感染症病床数:0合計病床数:60】石川県金沢市長町１丁目５－３０" }, "geometry": { "type": "Point", "coordinates": [ 136.649795, 36.56547 ] } },
{ "type": "Feature", "properties": { "ID": 1715110021, "正式名称": "医療法人社団和宏会大手町病院", "機関区分": 1, "都道府県コード": 17, "市区町村コード": 201, "所在地": "石川県金沢市大手町５番３２号", "緯度": 36.5686, "経度": 136.662927, "url": "https://www.iryou.teikyouseido.mhlw.go.jp/znk-web/juminkanja/S2430/initialize?prefCd=17&kikanCd=5110021&kikanKbn=1", "url2": "https://www.ootemachi-hosp.jp/", "内容": "医療法人社団和宏会大手町病院【1:病院】【診療科目:0】【一般病床数:0療養病床数:0精神病床数:0感染症病床数:0合計病床数:220】石川県金沢市大手町５番３２号" }, "geometry": { "type": "Point", "coordinates": [ 136.662927, 36.5686 ] } },
{ "type": "Feature", "properties": { "ID": 1715110022, "正式名称": "すずみが丘病院", "機関区分": 1, "都道府県コード": 17, "市区町村コード": 201, "所在地": "石川県金沢市もりの里３丁目７６番地", "緯度": 36.562151, "経度": 136.682242, "url": "https://www.iryou.teikyouseido.mhlw.go.jp/znk-web/juminkanja/S2430/initialize?prefCd=17&kikanCd=5110022&kikanKbn=1", "url2": "http://suzumigaoka-hp.jp", "内容": "すずみが丘病院【1:病院】【診療科目:0】【一般病床数:37療養病床数:55精神病床数:0感染症病床数:0合計病床数:92】石川県金沢市もりの里３丁目７６番地" }, "geometry": { "type": "Point", "coordinates": [ 136.682242, 36.562151 ] } },
{ "type": "Feature", "properties": { "ID": 1715110023, "正式名称": "医療法人社団博仁会小池病院", "機関区分": 1, "都道府県コード": 17, "市区町村コード": 201, "所在地": "石川県金沢市大手町８番２０号", "緯度": 36.56772, "経度": 136.664177, "url": "https://www.iryou.teikyouseido.mhlw.go.jp/znk-web/juminkanja/S2430/initialize?prefCd=17&kikanCd=5110023&kikanKbn=1", "url2": "https://www.koike-hospital.jp/", "内容": "医療法人社団博仁会小池病院【1:病院】【診療科目:0】【一般病床数:0療養病床数:60精神病床数:0感染症病床数:0合計病床数:60】石川県金沢市大手町８番２０号" }, "geometry": { "type": "Point", "coordinates": [ 136.664177, 36.56772 ] } },
{ "type": "Feature", "properties": { "ID": 1715110024, "正式名称": "医療法人社団金沢　宗広病院", "機関区分": 1, "都道府県コード": 17, "市区町村コード": 201, "所在地": "石川県金沢市桜町２４番地３０号", "緯度": 36.561492, "経度": 136.675596, "url": "https://www.iryou.teikyouseido.mhlw.go.jp/znk-web/juminkanja/S2430/initialize?prefCd=17&kikanCd=5110024&kikanKbn=1", "url2": "https://munehiro-hp.jp", "内容": "医療法人社団金沢　宗広病院【1:病院】【診療科目:0】【一般病床数:54療養病床数:0精神病床数:0感染症病床数:0合計病床数:54】石川県金沢市桜町２４番地３０号" }, "geometry": { "type": "Point", "coordinates": [ 136.675596, 36.561492 ] } },
{ "type": "Feature", "properties": { "ID": 1715110025, "正式名称": "医療法人社団和宏会　敬愛病院", "機関区分": 1, "都道府県コード": 17, "市区町村コード": 201, "所在地": "石川県金沢市兼六元町１４番２１号", "緯度": 36.565276, "経度": 136.667429, "url": "https://www.iryou.teikyouseido.mhlw.go.jp/znk-web/juminkanja/S2430/initialize?prefCd=17&kikanCd=5110025&kikanKbn=1", "url2": null, "内容": "医療法人社団和宏会　敬愛病院【1:病院】【診療科目:0】【一般病床数:0療養病床数:180精神病床数:0感染症病床数:0合計病床数:180】石川県金沢市兼六元町１４番２１号" }, "geometry": { "type": "Point", "coordinates": [ 136.667429, 36.565276 ] } },
{ "type": "Feature", "properties": { "ID": 1715110026, "正式名称": "独立行政法人地域医療機能推進機構金沢病院", "機関区分": 1, "都道府県コード": 17, "市区町村コード": 201, "所在地": "石川県金沢市沖町ハ－１５", "緯度": 36.592818, "経度": 136.653287, "url": "https://www.iryou.teikyouseido.mhlw.go.jp/znk-web/juminkanja/S2430/initialize?prefCd=17&kikanCd=5110026&kikanKbn=1", "url2": "https://kanazawa.jcho.go.jp", "内容": "独立行政法人地域医療機能推進機構金沢病院【1:病院】【診療科目:0】【一般病床数:248療養病床数:0精神病床数:0感染症病床数:0合計病床数:248】石川県金沢市沖町ハ－１５" }, "geometry": { "type": "Point", "coordinates": [ 136.653287, 36.592818 ] } },
{ "type": "Feature", "properties": { "ID": 1715110027, "正式名称": "公益社団法人　石川勤労者医療協会　城北病院", "機関区分": 1, "都道府県コード": 17, "市区町村コード": 201, "所在地": "石川県金沢市京町２０－３", "緯度": 36.581706, "経度": 136.656827, "url": "https://www.iryou.teikyouseido.mhlw.go.jp/znk-web/juminkanja/S2430/initialize?prefCd=17&kikanCd=5110027&kikanKbn=1", "url2": "http://jouhoku-hosp.com/", "内容": "公益社団法人　石川勤労者医療協会　城北病院【1:病院】【診療科目:0】【一般病床数:210療養病床数:82精神病床数:0感染症病床数:0合計病床数:292】石川県金沢市京町２０－３" }, "geometry": { "type": "Point", "coordinates": [ 136.656827, 36.581706 ] } },
{ "type": "Feature", "properties": { "ID": 1715110028, "正式名称": "医療法人財団医王会　医王ヶ丘病院", "機関区分": 1, "都道府県コード": 17, "市区町村コード": 201, "所在地": "石川県金沢市田上本町ヨ２４番地５", "緯度": 36.529993, "経度": 136.701679, "url": "https://www.iryou.teikyouseido.mhlw.go.jp/znk-web/juminkanja/S2430/initialize?prefCd=17&kikanCd=5110028&kikanKbn=1", "url2": "http://www.iougaoka.com/", "内容": "医療法人財団医王会　医王ヶ丘病院【1:病院】【診療科目:0】【一般病床数:0療養病床数:0精神病床数:88感染症病床数:0合計病床数:88】石川県金沢市田上本町ヨ２４番地５" }, "geometry": { "type": "Point", "coordinates": [ 136.701679, 36.529993 ] } },
{ "type": "Feature", "properties": { "ID": 1715110029, "正式名称": "医療法人社団浅ノ川桜ヶ丘病院", "機関区分": 1, "都道府県コード": 17, "市区町村コード": 201, "所在地": "石川県金沢市観法寺町へ１７４番地", "緯度": 36.620712, "経度": 136.702902, "url": "https://www.iryou.teikyouseido.mhlw.go.jp/znk-web/juminkanja/S2430/initialize?prefCd=17&kikanCd=5110029&kikanKbn=1", "url2": "http://www.e-sakurahp.com/", "内容": "医療法人社団浅ノ川桜ヶ丘病院【1:病院】【診療科目:0】【一般病床数:0療養病床数:0精神病床数:457感染症病床数:0合計病床数:457】石川県金沢市観法寺町へ１７４番地" }, "geometry": { "type": "Point", "coordinates": [ 136.702902, 36.620712 ] } },
{ "type": "Feature", "properties": { "ID": 1715110030, "正式名称": "医療法人社団浅ノ川　浅ノ川総合病院", "機関区分": 1, "都道府県コード": 17, "市区町村コード": 201, "所在地": "石川県金沢市小坂町中８３", "緯度": 36.593328, "経度": 136.677865, "url": "https://www.iryou.teikyouseido.mhlw.go.jp/znk-web/juminkanja/S2430/initialize?prefCd=17&kikanCd=5110030&kikanKbn=1", "url2": "http://www.asanogawa-gh.or.jp/", "内容": "医療法人社団浅ノ川　浅ノ川総合病院【1:病院】【診療科目:0】【一般病床数:339療養病床数:0精神病床数:0感染症病床数:0合計病床数:499】石川県金沢市小坂町中８３" }, "geometry": { "type": "Point", "coordinates": [ 136.677865, 36.593328 ] } },
{ "type": "Feature", "properties": { "ID": 1715110031, "正式名称": "医療法人社団浅ノ川　千木病院", "機関区分": 1, "都道府県コード": 17, "市区町村コード": 201, "所在地": "石川県金沢市千木町へ３３番地１", "緯度": 36.611252, "経度": 136.672912, "url": "https://www.iryou.teikyouseido.mhlw.go.jp/znk-web/juminkanja/S2430/initialize?prefCd=17&kikanCd=5110031&kikanKbn=1", "url2": "http://www.sengi-hp.jp", "内容": "医療法人社団浅ノ川　千木病院【1:病院】【診療科目:0】【一般病床数:0療養病床数:400精神病床数:0感染症病床数:0合計病床数:400】石川県金沢市千木町へ３３番地１" }, "geometry": { "type": "Point", "coordinates": [ 136.672912, 36.611252 ] } },
{ "type": "Feature", "properties": { "ID": 1715110033, "正式名称": "医療法人社団橘会　整形外科米澤病院", "機関区分": 1, "都道府県コード": 17, "市区町村コード": 201, "所在地": "石川県金沢市京町１番３０号", "緯度": 36.580739, "経度": 136.655668, "url": "https://www.iryou.teikyouseido.mhlw.go.jp/znk-web/juminkanja/S2430/initialize?prefCd=17&kikanCd=5110033&kikanKbn=1", "url2": "http://www.yonezawa-hospital.jp/", "内容": "医療法人社団橘会　整形外科米澤病院【1:病院】【診療科目:0】【一般病床数:39療養病床数:33精神病床数:0感染症病床数:0合計病床数:72】石川県金沢市京町１番３０号" }, "geometry": { "type": "Point", "coordinates": [ 136.655668, 36.580739 ] } },
{ "type": "Feature", "properties": { "ID": 1715110036, "正式名称": "医療法人社団青樹会青和病院", "機関区分": 1, "都道府県コード": 17, "市区町村コード": 201, "所在地": "石川県金沢市大浦町ホ２２番地１", "緯度": 36.616087, "経度": 136.653528, "url": "https://www.iryou.teikyouseido.mhlw.go.jp/znk-web/juminkanja/S2430/initialize?prefCd=17&kikanCd=5110036&kikanKbn=1", "url2": "http://www.seiwahp.or.jp", "内容": "医療法人社団青樹会青和病院【1:病院】【診療科目:0】【一般病床数:0療養病床数:0精神病床数:130感染症病床数:0合計病床数:130】石川県金沢市大浦町ホ２２番地１" }, "geometry": { "type": "Point", "coordinates": [ 136.653528, 36.616087 ] } },
{ "type": "Feature", "properties": { "ID": 1715110037, "正式名称": "医療法人社団浅ノ川　心臓血管センター金沢循環器病院", "機関区分": 1, "都道府県コード": 17, "市区町村コード": 201, "所在地": "石川県金沢市田中町は１６番地", "緯度": 36.599462, "経度": 136.660556, "url": "https://www.iryou.teikyouseido.mhlw.go.jp/znk-web/juminkanja/S2430/initialize?prefCd=17&kikanCd=5110037&kikanKbn=1", "url2": "http://www.kanazawa-heart.or.jp", "内容": "医療法人社団浅ノ川　心臓血管センター金沢循環器病院【1:病院】【診療科目:0】【一般病床数:84療養病床数:100精神病床数:0感染症病床数:0合計病床数:184】石川県金沢市田中町は１６番地" }, "geometry": { "type": "Point", "coordinates": [ 136.660556, 36.599462 ] } },
{ "type": "Feature", "properties": { "ID": 1715110038, "正式名称": "医療法人十全会　十全病院", "機関区分": 1, "都道府県コード": 17, "市区町村コード": 201, "所在地": "石川県金沢市田上本町カ４５番地１", "緯度": 36.52934, "経度": 136.702334, "url": "https://www.iryou.teikyouseido.mhlw.go.jp/znk-web/juminkanja/S2430/initialize?prefCd=17&kikanCd=5110038&kikanKbn=1", "url2": "http://juzen-hospital.jp/", "内容": "医療法人十全会　十全病院【1:病院】【診療科目:0】【一般病床数:0療養病床数:0精神病床数:256感染症病床数:0合計病床数:256】石川県金沢市田上本町カ４５番地１" }, "geometry": { "type": "Point", "coordinates": [ 136.702334, 36.52934 ] } },
{ "type": "Feature", "properties": { "ID": 1715110039, "正式名称": "石川県立中央病院", "機関区分": 1, "都道府県コード": 17, "市区町村コード": 201, "所在地": "石川県金沢市鞍月東２丁目１番地", "緯度": 36.595202, "経度": 136.628804, "url": "https://www.iryou.teikyouseido.mhlw.go.jp/znk-web/juminkanja/S2430/initialize?prefCd=17&kikanCd=5110039&kikanKbn=1", "url2": "http://www.pref.ishikawa.jp/ipch/", "内容": "石川県立中央病院【1:病院】【診療科目:0】【一般病床数:628療養病床数:0精神病床数:0感染症病床数:0合計病床数:630】石川県金沢市鞍月東２丁目１番地" }, "geometry": { "type": "Point", "coordinates": [ 136.628804, 36.595202 ] } },
{ "type": "Feature", "properties": { "ID": 1715110040, "正式名称": "社会福祉法人恩賜財団済生会　石川県済生会金沢病院", "機関区分": 1, "都道府県コード": 17, "市区町村コード": 201, "所在地": "石川県金沢市赤土町ニ１３－６", "緯度": 36.582783, "経度": 136.595982, "url": "https://www.iryou.teikyouseido.mhlw.go.jp/znk-web/juminkanja/S2430/initialize?prefCd=17&kikanCd=5110040&kikanKbn=1", "url2": "http://www.saiseikaikanazawa.jp/index.html", "内容": "社会福祉法人恩賜財団済生会　石川県済生会金沢病院【1:病院】【診療科目:0】【一般病床数:260療養病床数:0精神病床数:0感染症病床数:0合計病床数:260】石川県金沢市赤土町ニ１３－６" }, "geometry": { "type": "Point", "coordinates": [ 136.595982, 36.582783 ] } },
{ "type": "Feature", "properties": { "ID": 1715110041, "正式名称": "医療法人社団竜山会　金沢古府記念病院", "機関区分": 1, "都道府県コード": 17, "市区町村コード": 201, "所在地": "石川県金沢市古府１－１５０", "緯度": 36.564019, "経度": 136.60762, "url": "https://www.iryou.teikyouseido.mhlw.go.jp/znk-web/juminkanja/S2430/initialize?prefCd=17&kikanCd=5110041&kikanKbn=1", "url2": "http://www.fujii-hospital.jp", "内容": "医療法人社団竜山会　金沢古府記念病院【1:病院】【診療科目:0】【一般病床数:40療養病床数:0精神病床数:0感染症病床数:0合計病床数:105】石川県金沢市古府１－１５０" }, "geometry": { "type": "Point", "coordinates": [ 136.60762, 36.564019 ] } },
{ "type": "Feature", "properties": { "ID": 1715110042, "正式名称": "医療法人社団　安田内科病院", "機関区分": 1, "都道府県コード": 17, "市区町村コード": 201, "所在地": "石川県金沢市大豆田本町ハ６２番地", "緯度": 36.568713, "経度": 136.631887, "url": "https://www.iryou.teikyouseido.mhlw.go.jp/znk-web/juminkanja/S2430/initialize?prefCd=17&kikanCd=5110042&kikanKbn=1", "url2": "http://n-yasuda.jp/index.html", "内容": "医療法人社団　安田内科病院【1:病院】【診療科目:0】【一般病床数:22療養病床数:48精神病床数:0感染症病床数:0合計病床数:70】石川県金沢市大豆田本町ハ６２番地" }, "geometry": { "type": "Point", "coordinates": [ 136.631887, 36.568713 ] } },
{ "type": "Feature", "properties": { "ID": 1715110043, "正式名称": "医療法人明仁会　かないわ病院", "機関区分": 1, "都道府県コード": 17, "市区町村コード": 201, "所在地": "石川県金沢市普正寺町９－６", "緯度": 36.598628, "経度": 136.587898, "url": "https://www.iryou.teikyouseido.mhlw.go.jp/znk-web/juminkanja/S2430/initialize?prefCd=17&kikanCd=5110043&kikanKbn=1", "url2": "http://kanaiwahp.com/", "内容": "医療法人明仁会　かないわ病院【1:病院】【診療科目:0】【一般病床数:0療養病床数:0精神病床数:186感染症病床数:0合計病床数:186】石川県金沢市普正寺町９－６" }, "geometry": { "type": "Point", "coordinates": [ 136.587898, 36.598628 ] } },
{ "type": "Feature", "properties": { "ID": 1715110044, "正式名称": "医療法人社団光仁会　木島病院", "機関区分": 1, "都道府県コード": 17, "市区町村コード": 201, "所在地": "石川県金沢市松寺町子４１番地１", "緯度": 36.601205, "経度": 136.653593, "url": "https://www.iryou.teikyouseido.mhlw.go.jp/znk-web/juminkanja/S2430/initialize?prefCd=17&kikanCd=5110044&kikanKbn=1", "url2": "http://www.kijima-hp.or.jp/", "内容": "医療法人社団光仁会　木島病院【1:病院】【診療科目:0】【一般病床数:44療養病床数:44精神病床数:0感染症病床数:0合計病床数:88】石川県金沢市松寺町子４１番地１" }, "geometry": { "type": "Point", "coordinates": [ 136.653593, 36.601205 ] } },
{ "type": "Feature", "properties": { "ID": 1715110045, "正式名称": "医療法人社団博友会　金沢西病院", "機関区分": 1, "都道府県コード": 17, "市区町村コード": 201, "所在地": "石川県金沢市駅西本町６丁目１５番４１号", "緯度": 36.585944, "経度": 136.625353, "url": "https://www.iryou.teikyouseido.mhlw.go.jp/znk-web/juminkanja/S2430/initialize?prefCd=17&kikanCd=5110045&kikanKbn=1", "url2": "https://www.knh.or.jp/", "内容": "医療法人社団博友会　金沢西病院【1:病院】【診療科目:0】【一般病床数:92療養病床数:74精神病床数:0感染症病床数:0合計病床数:166】石川県金沢市駅西本町６丁目１５番４１号" }, "geometry": { "type": "Point", "coordinates": [ 136.625353, 36.585944 ] } },
{ "type": "Feature", "properties": { "ID": 1715110046, "正式名称": "医療法人社団映寿会　みらい病院", "機関区分": 1, "都道府県コード": 17, "市区町村コード": 201, "所在地": "石川県金沢市鞍月東１丁目９番地", "緯度": 36.594047, "経度": 136.630268, "url": "https://www.iryou.teikyouseido.mhlw.go.jp/znk-web/juminkanja/S2430/initialize?prefCd=17&kikanCd=5110046&kikanKbn=1", "url2": "https://eijukai-mirai.jp/mirai/", "内容": "医療法人社団映寿会　みらい病院【1:病院】【診療科目:0】【一般病床数:38療養病床数:112精神病床数:0感染症病床数:0合計病床数:150】石川県金沢市鞍月東１丁目９番地" }, "geometry": { "type": "Point", "coordinates": [ 136.630268, 36.594047 ] } },
{ "type": "Feature", "properties": { "ID": 171528, "正式名称": "町立宝達志水病院", "機関区分": 1, "都道府県コード": 17, "市区町村コード": 386, "所在地": "石川県羽咋郡宝達志水町子浦ロ１１番地１", "緯度": 36.867044, "経度": 136.794981, "url": "https://www.iryou.teikyouseido.mhlw.go.jp/znk-web/juminkanja/S2430/initialize?prefCd=17&kikanCd=528&kikanKbn=1", "url2": "http://hodatsushimizu-hp.jp/", "内容": "町立宝達志水病院【1:病院】【診療科目:0】【一般病床数:43療養病床数:27精神病床数:0感染症病床数:0合計病床数:70】石川県羽咋郡宝達志水町子浦ロ１１番地１" }, "geometry": { "type": "Point", "coordinates": [ 136.794981, 36.867044 ] } }
]
}
