{
"type": "FeatureCollection",
"name": "geo_17_通所リハビリテーション",
"crs": { "type": "name", "properties": { "name": "urn:ogc:def:crs:OGC:1.3:CRS84" } },
"features": [
{ "type": "Feature", "properties": { "内容": "金沢赤十字通所リハビリテーション【通所リハビリテーション】金沢市三馬2-251", "url2": "https://www.kaigokensaku.mhlw.go.jp/17/index.php?action_kouhyou_detail_004_kani=true&JigyosyoCd=1710112333-00&ServiceCd=160&Type=search" }, "geometry": { "type": "Point", "coordinates": [ 136.63611590000005, 36.5305174 ] } },
{ "type": "Feature", "properties": { "内容": "小池病院デイケアセンター【通所リハビリテーション】金沢市大手町９番１号", "url2": "https://www.kaigokensaku.mhlw.go.jp/17/index.php?action_kouhyou_detail_004_kani=true&JigyosyoCd=1710114016-00&ServiceCd=160&Type=search" }, "geometry": { "type": "Point", "coordinates": [ 136.663654400000041, 36.5682107 ] } },
{ "type": "Feature", "properties": { "内容": "金沢西デイ・ケアセンター【通所リハビリテーション】石川県金沢市駅西本町６丁目１５番４１号金沢西病院　東館１階", "url2": "https://www.kaigokensaku.mhlw.go.jp/17/index.php?action_kouhyou_detail_004_kani=true&JigyosyoCd=1710113877-00&ServiceCd=160&Type=search" }, "geometry": { "type": "Point", "coordinates": [ 136.6252756, 36.5857521 ] } },
{ "type": "Feature", "properties": { "内容": "整形外科米澤病院【通所リハビリテーション】金沢市京町1番30号", "url2": "https://www.kaigokensaku.mhlw.go.jp/17/index.php?action_kouhyou_detail_004_kani=true&JigyosyoCd=1710115591-00&ServiceCd=160&Type=search" }, "geometry": { "type": "Point", "coordinates": [ 136.655671200000029, 36.5807394 ] } },
{ "type": "Feature", "properties": { "内容": "通所サービス　あんやと【通所リハビリテーション】弥勒町ニ１番地１", "url2": "https://www.kaigokensaku.mhlw.go.jp/17/index.php?action_kouhyou_detail_004_kani=true&JigyosyoCd=1710120328-00&ServiceCd=160&Type=search" }, "geometry": { "type": "Point", "coordinates": [ 136.691039300000057, 36.6129329 ] } },
{ "type": "Feature", "properties": { "内容": "すずみが丘病院【通所リハビリテーション】石川県金沢市もりの里3丁目76番地", "url2": "https://www.kaigokensaku.mhlw.go.jp/17/index.php?action_kouhyou_detail_004_kani=true&JigyosyoCd=1710117910-00&ServiceCd=160&Type=search" }, "geometry": { "type": "Point", "coordinates": [ 136.6822257, 36.5621142 ] } },
{ "type": "Feature", "properties": { "内容": "田中町温泉ケアセンター【通所リハビリテーション】金沢市田中町は１６番地", "url2": "https://www.kaigokensaku.mhlw.go.jp/17/index.php?action_kouhyou_detail_004_kani=true&JigyosyoCd=1750180075-00&ServiceCd=160&Type=search" }, "geometry": { "type": "Point", "coordinates": [ 136.6605396, 36.5995673 ] } },
{ "type": "Feature", "properties": { "内容": "介護老人保健施設　あっぷる【通所リハビリテーション】金沢市長坂町チ15番地", "url2": "https://www.kaigokensaku.mhlw.go.jp/17/index.php?action_kouhyou_detail_004_kani=true&JigyosyoCd=1750180125-00&ServiceCd=160&Type=search" }, "geometry": { "type": "Point", "coordinates": [ 136.6570752, 36.5321873 ] } },
{ "type": "Feature", "properties": { "内容": "医療法人社団浅ﾉ川千木病院【通所リハビリテーション】金沢市千木町へ33番地1", "url2": "https://www.kaigokensaku.mhlw.go.jp/17/index.php?action_kouhyou_detail_004_kani=true&JigyosyoCd=1710118249-00&ServiceCd=160&Type=search" }, "geometry": { "type": "Point", "coordinates": [ 136.672943700000019, 36.6112133 ] } },
{ "type": "Feature", "properties": { "内容": "老人保健施設　なでしこの丘【通所リハビリテーション】石川県金沢市馬替２丁目１４３番地", "url2": "https://www.kaigokensaku.mhlw.go.jp/17/index.php?action_kouhyou_detail_004_kani=true&JigyosyoCd=1750180091-00&ServiceCd=160&Type=search" }, "geometry": { "type": "Point", "coordinates": [ 136.621141761376975, 36.522213845752574 ] } },
{ "type": "Feature", "properties": { "内容": "公益社団法人石川勤労者医療協会　通所リハビリテーションてまり【通所リハビリテーション】石川県金沢市平和町３丁目５番２号", "url2": "https://www.kaigokensaku.mhlw.go.jp/17/index.php?action_kouhyou_detail_004_kani=true&JigyosyoCd=1710118223-00&ServiceCd=160&Type=search" }, "geometry": { "type": "Point", "coordinates": [ 136.6609082, 36.5411501 ] } },
{ "type": "Feature", "properties": { "内容": "通所リハビリテーション　ひまわり【通所リハビリテーション】金沢市天神町1-18-37", "url2": "https://www.kaigokensaku.mhlw.go.jp/17/index.php?action_kouhyou_detail_004_kani=true&JigyosyoCd=1710116490-00&ServiceCd=160&Type=search" }, "geometry": { "type": "Point", "coordinates": [ 136.679203799999982, 36.5576453 ] } },
{ "type": "Feature", "properties": { "内容": "医療法人社団中央会金沢有松病院【通所リハビリテーション】金沢市有松５－１－７金沢有松病院内", "url2": "https://www.kaigokensaku.mhlw.go.jp/17/index.php?action_kouhyou_detail_004_kani=true&JigyosyoCd=1710119536-00&ServiceCd=160&Type=search" }, "geometry": { "type": "Point", "coordinates": [ 136.63901, 36.5392859 ] } },
{ "type": "Feature", "properties": { "内容": "デイケアみんま【通所リハビリテーション】三馬１丁目４００番地", "url2": "https://www.kaigokensaku.mhlw.go.jp/17/index.php?action_kouhyou_detail_004_kani=true&JigyosyoCd=1710116672-00&ServiceCd=160&Type=search" }, "geometry": { "type": "Point", "coordinates": [ 136.629755400000022, 36.5262705 ] } },
{ "type": "Feature", "properties": { "内容": "金沢古府記念病院通所リハビリテーション【通所リハビリテーション】石川県金沢市古府1丁目150番地", "url2": "https://www.kaigokensaku.mhlw.go.jp/17/index.php?action_kouhyou_detail_004_kani=true&JigyosyoCd=1710122324-00&ServiceCd=160&Type=search" }, "geometry": { "type": "Point", "coordinates": [ 136.6075988, 36.5641339 ] } },
{ "type": "Feature", "properties": { "内容": "介護老人保健施設ピカソ【通所リハビリテーション】石川県金沢市田上本町カ45番地1", "url2": "https://www.kaigokensaku.mhlw.go.jp/17/index.php?action_kouhyou_detail_004_kani=true&JigyosyoCd=1750180299-00&ServiceCd=160&Type=search" }, "geometry": { "type": "Point", "coordinates": [ 136.701269, 36.5294132 ] } },
{ "type": "Feature", "properties": { "内容": "医療法人社団　光仁会【通所リハビリテーション】金沢市松寺町子41-1", "url2": "https://www.kaigokensaku.mhlw.go.jp/17/index.php?action_kouhyou_detail_004_kani=true&JigyosyoCd=1710116995-00&ServiceCd=160&Type=search" }, "geometry": { "type": "Point", "coordinates": [ 136.653337400000026, 36.601678 ] } },
{ "type": "Feature", "properties": { "内容": "地域医療機能推進機構金沢病院附属介護老人保健施設【通所リハビリテーション】金沢市沖町ハ部１５", "url2": "https://www.kaigokensaku.mhlw.go.jp/17/index.php?action_kouhyou_detail_004_kani=true&JigyosyoCd=1750180315-00&ServiceCd=160&Type=search" }, "geometry": { "type": "Point", "coordinates": [ 136.6514267, 36.5915128 ] } },
{ "type": "Feature", "properties": { "内容": "通所リハビリテーション　でいけあ桜並木【通所リハビリテーション】石川県金沢市田上さくら二丁目７２番地", "url2": "https://www.kaigokensaku.mhlw.go.jp/17/index.php?action_kouhyou_detail_004_kani=true&JigyosyoCd=1750180406-00&ServiceCd=160&Type=search" }, "geometry": { "type": "Point", "coordinates": [ 136.688971629608204, 36.543604910115441 ] } },
{ "type": "Feature", "properties": { "内容": "みらいのさと太陽【通所リハビリテーション】金沢市鞍月東1丁目17番地", "url2": "https://www.kaigokensaku.mhlw.go.jp/17/index.php?action_kouhyou_detail_004_kani=true&JigyosyoCd=1750180067-00&ServiceCd=160&Type=search" }, "geometry": { "type": "Point", "coordinates": [ 136.6311389, 36.5940428 ] } },
{ "type": "Feature", "properties": { "内容": "城北クリニック【通所リハビリテーション】金沢市京町２０番５０号", "url2": "https://www.kaigokensaku.mhlw.go.jp/17/index.php?action_kouhyou_detail_004_kani=true&JigyosyoCd=1710117688-00&ServiceCd=160&Type=search" }, "geometry": { "type": "Point", "coordinates": [ 136.656426600000032, 36.5829169 ] } },
{ "type": "Feature", "properties": { "内容": "福久ケアセンター【通所リハビリテーション】金沢市福久町ワ１番地１", "url2": "https://www.kaigokensaku.mhlw.go.jp/17/index.php?action_kouhyou_detail_004_kani=true&JigyosyoCd=1750180224-00&ServiceCd=160&Type=search" }, "geometry": { "type": "Point", "coordinates": [ 136.677337599999987, 36.6173959 ] } },
{ "type": "Feature", "properties": { "内容": "金沢春日ケアセンター【通所リハビリテーション】金沢市元菊町20番1号", "url2": "https://www.kaigokensaku.mhlw.go.jp/17/index.php?action_kouhyou_detail_004_kani=true&JigyosyoCd=1750180018-00&ServiceCd=160&Type=search" }, "geometry": { "type": "Point", "coordinates": [ 136.642261100000042, 36.573679 ] } },
{ "type": "Feature", "properties": { "内容": "こしの内科クリニック【通所リハビリテーション】金沢市朝霧台1丁目176番地", "url2": "https://www.kaigokensaku.mhlw.go.jp/17/index.php?action_kouhyou_detail_004_kani=true&JigyosyoCd=1710121722-00&ServiceCd=160&Type=search" }, "geometry": { "type": "Point", "coordinates": [ 136.69515279999996, 36.5361699 ] } },
{ "type": "Feature", "properties": { "内容": "安田内科病院デイケアセンター【通所リハビリテーション】金沢市大豆田本町ハ62番地", "url2": "https://www.kaigokensaku.mhlw.go.jp/17/index.php?action_kouhyou_detail_004_kani=true&JigyosyoCd=1710117167-00&ServiceCd=160&Type=search" }, "geometry": { "type": "Point", "coordinates": [ 136.631925799999976, 36.5687044 ] } },
{ "type": "Feature", "properties": { "内容": "千木町ケアセンター【通所リハビリテーション】石川県金沢市千木町へ3番地1", "url2": "https://www.kaigokensaku.mhlw.go.jp/17/index.php?action_kouhyou_detail_004_kani=true&JigyosyoCd=1750180414-00&ServiceCd=160&Type=search" }, "geometry": { "type": "Point", "coordinates": [ 136.671980271163875, 36.611209185611806 ] } },
{ "type": "Feature", "properties": { "内容": "デイ・ケアセンター寿老園【通所リハビリテーション】七尾市中島町鹿島台は部14番地１", "url2": "https://www.kaigokensaku.mhlw.go.jp/17/index.php?action_kouhyou_detail_004_kani=true&JigyosyoCd=1750280198-00&ServiceCd=160&Type=search" }, "geometry": { "type": "Point", "coordinates": [ 136.889571199999978, 37.1310423 ] } },
{ "type": "Feature", "properties": { "内容": "浜野デイケア「小島」【通所リハビリテーション】石川県七尾市小島町二部５０番地１", "url2": "https://www.kaigokensaku.mhlw.go.jp/17/index.php?action_kouhyou_detail_004_kani=true&JigyosyoCd=1710211002-00&ServiceCd=160&Type=search" }, "geometry": { "type": "Point", "coordinates": [ 136.957793300000048, 37.0513119 ] } },
{ "type": "Feature", "properties": { "内容": "医療法人社団和泉会　デイケアセンター　ひだまりの樹【通所リハビリテーション】石川県七尾市石崎町タ部28番地7", "url2": "https://www.kaigokensaku.mhlw.go.jp/17/index.php?action_kouhyou_detail_004_kani=true&JigyosyoCd=1710211150-00&ServiceCd=160&Type=search" }, "geometry": { "type": "Point", "coordinates": [ 136.924537048073773, 37.075820863893995 ] } },
{ "type": "Feature", "properties": { "内容": "和光苑（介護予防）通所リハビリテーション事業所「わこうえん」【通所リハビリテーション】石川県七尾市津向町ト部107番地", "url2": "https://www.kaigokensaku.mhlw.go.jp/17/index.php?action_kouhyou_detail_004_kani=true&JigyosyoCd=1750280024-00&ServiceCd=160&Type=search" }, "geometry": { "type": "Point", "coordinates": [ 136.954815548826559, 37.055997157528274 ] } },
{ "type": "Feature", "properties": { "内容": "えんやま健康クリニック　デイケアセンターすこやか【通所リハビリテーション】七尾市千野町に部10番地", "url2": "https://www.kaigokensaku.mhlw.go.jp/17/index.php?action_kouhyou_detail_004_kani=true&JigyosyoCd=1710210913-00&ServiceCd=160&Type=search" }, "geometry": { "type": "Point", "coordinates": [ 136.952653199999986, 37.0158738 ] } },
{ "type": "Feature", "properties": { "内容": "浜野デイケア津向【通所リハビリテーション】津向町野中20番1", "url2": "https://www.kaigokensaku.mhlw.go.jp/17/index.php?action_kouhyou_detail_004_kani=true&JigyosyoCd=17B0210945-00&ServiceCd=160&Type=search" }, "geometry": { "type": "Point", "coordinates": [ 136.9546776, 37.0632446 ] } },
{ "type": "Feature", "properties": { "内容": "医療法人社団松陽　通所リハビリテーション【通所リハビリテーション】石川県小松市大領中町3丁目121番地", "url2": "https://www.kaigokensaku.mhlw.go.jp/17/index.php?action_kouhyou_detail_004_kani=true&JigyosyoCd=1710312263-00&ServiceCd=160&Type=search" }, "geometry": { "type": "Point", "coordinates": [ 136.447635499999933, 36.387005 ] } },
{ "type": "Feature", "properties": { "内容": "芦城クリニック　健康スタジオ【通所リハビリテーション】石川県小松市土居原町175番地芦城クリニック", "url2": "https://www.kaigokensaku.mhlw.go.jp/17/index.php?action_kouhyou_detail_004_kani=true&JigyosyoCd=1710312248-00&ServiceCd=160&Type=search" }, "geometry": { "type": "Point", "coordinates": [ 136.451460611639391, 36.402939493919988 ] } },
{ "type": "Feature", "properties": { "内容": "みたに通所リハビリテーション【通所リハビリテーション】石川県小松市北浅井町ハ77番地", "url2": "https://www.kaigokensaku.mhlw.go.jp/17/index.php?action_kouhyou_detail_004_kani=true&JigyosyoCd=1710311398-00&ServiceCd=160&Type=search" }, "geometry": { "type": "Point", "coordinates": [ 136.45968640000001, 36.388195 ] } },
{ "type": "Feature", "properties": { "内容": "介護老人保健施設　さくら園【通所リハビリテーション】小松市ホ35番地1", "url2": "https://www.kaigokensaku.mhlw.go.jp/17/index.php?action_kouhyou_detail_004_kani=true&JigyosyoCd=1750380378-00&ServiceCd=160&Type=search" }, "geometry": { "type": "Point", "coordinates": [ 136.454884099999958, 36.4067136 ] } },
{ "type": "Feature", "properties": { "内容": "森田病院【通所リハビリテーション】石川県小松市園町ホ99番地1", "url2": "https://www.kaigokensaku.mhlw.go.jp/17/index.php?action_kouhyou_detail_004_kani=true&JigyosyoCd=1710311562-00&ServiceCd=160&Type=search" }, "geometry": { "type": "Point", "coordinates": [ 136.460411499999964, 36.408197 ] } },
{ "type": "Feature", "properties": { "内容": "上小松クリニック　通所リハビリテーション【通所リハビリテーション】上小松町丙４１－１", "url2": "https://www.kaigokensaku.mhlw.go.jp/17/index.php?action_kouhyou_detail_004_kani=true&JigyosyoCd=1710312156-00&ServiceCd=160&Type=search" }, "geometry": { "type": "Point", "coordinates": [ 136.46467240000004, 36.4080918 ] } },
{ "type": "Feature", "properties": { "内容": "通所リハビリテーションやわた健康スタジオ【通所リハビリテーション】石川県小松市八幡イ12番地7", "url2": "https://www.kaigokensaku.mhlw.go.jp/17/index.php?action_kouhyou_detail_004_kani=true&JigyosyoCd=1710310929-00&ServiceCd=160&Type=search" }, "geometry": { "type": "Point", "coordinates": [ 136.491032300000029, 36.3919266 ] } },
{ "type": "Feature", "properties": { "内容": "通所リハビリセンターおれんじ【通所リハビリテーション】石川県小松市園町二29番地1", "url2": "https://www.kaigokensaku.mhlw.go.jp/17/index.php?action_kouhyou_detail_004_kani=true&JigyosyoCd=1710311307-00&ServiceCd=160&Type=search" }, "geometry": { "type": "Point", "coordinates": [ 136.463387838545259, 36.404860203293225 ] } },
{ "type": "Feature", "properties": { "内容": "介護老人保健施設　グリーン・ポート小松【通所リハビリテーション】小松市岩渕町４６－２", "url2": "https://www.kaigokensaku.mhlw.go.jp/17/index.php?action_kouhyou_detail_004_kani=true&JigyosyoCd=1750380204-00&ServiceCd=160&Type=search" }, "geometry": { "type": "Point", "coordinates": [ 136.526641, 36.3917314 ] } },
{ "type": "Feature", "properties": { "内容": "まだら園デイケア【通所リハビリテーション】石川県小松市北浅井町り125番地1", "url2": "https://www.kaigokensaku.mhlw.go.jp/17/index.php?action_kouhyou_detail_004_kani=true&JigyosyoCd=1750380170-00&ServiceCd=160&Type=search" }, "geometry": { "type": "Point", "coordinates": [ 136.457142901852421, 36.389850512902832 ] } },
{ "type": "Feature", "properties": { "内容": "通所リハビリセンターレイクサイド木場【通所リハビリテーション】三谷町そ８０番地", "url2": "https://www.kaigokensaku.mhlw.go.jp/17/index.php?action_kouhyou_detail_004_kani=true&JigyosyoCd=1750380345-00&ServiceCd=160&Type=search" }, "geometry": { "type": "Point", "coordinates": [ 136.4538854, 36.3688861 ] } },
{ "type": "Feature", "properties": { "内容": "デイケアセンター　美笑苑【通所リハビリテーション】石川県珠洲市三崎町小泊ト部３番１", "url2": "https://www.kaigokensaku.mhlw.go.jp/17/index.php?action_kouhyou_detail_004_kani=true&JigyosyoCd=1750580357-00&ServiceCd=160&Type=search" }, "geometry": { "type": "Point", "coordinates": [ 137.357877300000041, 37.4492144 ] } },
{ "type": "Feature", "properties": { "内容": "珠洲市総合病院指定通所リハビリテーション事業所【通所リハビリテーション】石川県珠洲市野々江町ユ部1番地1", "url2": "https://www.kaigokensaku.mhlw.go.jp/17/index.php?action_kouhyou_detail_004_kani=true&JigyosyoCd=1710510361-00&ServiceCd=160&Type=search" }, "geometry": { "type": "Point", "coordinates": [ 137.270714624945072, 37.443383670309309 ] } },
{ "type": "Feature", "properties": { "内容": "渋谷医院デイケアほほえみ【通所リハビリテーション】石川県加賀市松が丘1丁目7番地32", "url2": "https://www.kaigokensaku.mhlw.go.jp/17/index.php?action_kouhyou_detail_004_kani=true&JigyosyoCd=1710611391-00&ServiceCd=160&Type=search" }, "geometry": { "type": "Point", "coordinates": [ 136.345329, 36.3239948 ] } },
{ "type": "Feature", "properties": { "内容": "山中温泉しらさぎ苑通所リハビリテーション事業所【通所リハビリテーション】石川県加賀市山中温泉長谷田町チ17-1", "url2": "https://www.kaigokensaku.mhlw.go.jp/17/index.php?action_kouhyou_detail_004_kani=true&JigyosyoCd=1750680215-00&ServiceCd=160&Type=search" }, "geometry": { "type": "Point", "coordinates": [ 136.361171, 36.2677826 ] } },
{ "type": "Feature", "properties": { "内容": "葵の園・丘の上デイケアセンター【通所リハビリテーション】加賀市冨塚町中尾126-2葵の園　丘の上", "url2": "https://www.kaigokensaku.mhlw.go.jp/17/index.php?action_kouhyou_detail_004_kani=true&JigyosyoCd=1750680132-00&ServiceCd=160&Type=search" }, "geometry": { "type": "Point", "coordinates": [ 136.361716776057392, 36.335138457553406 ] } },
{ "type": "Feature", "properties": { "内容": "加賀のぞみ園通所リハビリテーションセンター【通所リハビリテーション】南郷町３乙４番地", "url2": "https://www.kaigokensaku.mhlw.go.jp/17/index.php?action_kouhyou_detail_004_kani=true&JigyosyoCd=1750680041-00&ServiceCd=160&Type=search" }, "geometry": { "type": "Point", "coordinates": [ 136.326304199999981, 36.292387 ] } },
{ "type": "Feature", "properties": { "内容": "通所リハビリテーション事業所　ケアリス太陽【通所リハビリテーション】石川県加賀市深田町ロ２番地１", "url2": "https://www.kaigokensaku.mhlw.go.jp/17/index.php?action_kouhyou_detail_004_kani=true&JigyosyoCd=1750680330-00&ServiceCd=160&Type=search" }, "geometry": { "type": "Point", "coordinates": [ 136.302766199999951, 36.3428671 ] } },
{ "type": "Feature", "properties": { "内容": "介護老人保健施設　加賀中央メディケアホーム【通所リハビリテーション】石川県加賀市山田町蛇谷1番地19", "url2": "https://www.kaigokensaku.mhlw.go.jp/17/index.php?action_kouhyou_detail_004_kani=true&JigyosyoCd=1750680033-00&ServiceCd=160&Type=search" }, "geometry": { "type": "Point", "coordinates": [ 136.334918799999969, 36.325736 ] } },
{ "type": "Feature", "properties": { "内容": "公立羽咋病院【通所リハビリテーション】石川県羽咋市的場町松崎２４番地", "url2": "https://www.kaigokensaku.mhlw.go.jp/17/index.php?action_kouhyou_detail_004_kani=true&JigyosyoCd=1710710292-00&ServiceCd=160&Type=search" }, "geometry": { "type": "Point", "coordinates": [ 136.779967899999974, 36.9010893 ] } },
{ "type": "Feature", "properties": { "内容": "介護老人保健施設　白鳥苑　通所リハビリテーション【通所リハビリテーション】石川県羽咋市本江町へ１５番地介護老人保健施設　白鳥苑", "url2": "https://www.kaigokensaku.mhlw.go.jp/17/index.php?action_kouhyou_detail_004_kani=true&JigyosyoCd=1750780148-00&ServiceCd=160&Type=search" }, "geometry": { "type": "Point", "coordinates": [ 136.837772399999949, 36.912506 ] } },
{ "type": "Feature", "properties": { "内容": "羽咋診療所　通所リハビリテーション【通所リハビリテーション】羽咋市柳橋町堂田53-1", "url2": "https://www.kaigokensaku.mhlw.go.jp/17/index.php?action_kouhyou_detail_004_kani=true&JigyosyoCd=1710710342-00&ServiceCd=160&Type=search" }, "geometry": { "type": "Point", "coordinates": [ 136.786426099999971, 36.8928044 ] } },
{ "type": "Feature", "properties": { "内容": "デイケア　たんと【通所リハビリテーション】かほく市内日角6-35-1", "url2": "https://www.kaigokensaku.mhlw.go.jp/17/index.php?action_kouhyou_detail_004_kani=true&JigyosyoCd=1712110145-00&ServiceCd=160&Type=search" }, "geometry": { "type": "Point", "coordinates": [ 136.696444700000029, 36.7169708 ] } },
{ "type": "Feature", "properties": { "内容": "医療法人社団角田医院　通所リハビリテーションくつろぎ【通所リハビリテーション】石川県かほく市高松ム６９番地２", "url2": "https://www.kaigokensaku.mhlw.go.jp/17/index.php?action_kouhyou_detail_004_kani=true&JigyosyoCd=1712110335-00&ServiceCd=160&Type=search" }, "geometry": { "type": "Point", "coordinates": [ 136.7251316, 36.770955967649435 ] } },
{ "type": "Feature", "properties": { "内容": "医療法人社団しおのやクリニック呉竹デイケアセンター【通所リハビリテーション】石川県白山市湊町レ33-1", "url2": "https://www.kaigokensaku.mhlw.go.jp/17/index.php?action_kouhyou_detail_004_kani=true&JigyosyoCd=1712211067-00&ServiceCd=160&Type=search" }, "geometry": { "type": "Point", "coordinates": [ 136.4772308, 36.4773256 ] } },
{ "type": "Feature", "properties": { "内容": "えくぼ通所リハビリテーションセンター【通所リハビリテーション】石川県白山市西米光町チ83-1", "url2": "https://www.kaigokensaku.mhlw.go.jp/17/index.php?action_kouhyou_detail_004_kani=true&JigyosyoCd=1712210705-00&ServiceCd=160&Type=search" }, "geometry": { "type": "Point", "coordinates": [ 136.500879783467099, 36.4928028990076 ] } },
{ "type": "Feature", "properties": { "内容": "公立つるぎ病院　通所リハビリテーションセンター【通所リハビリテーション】石川県白山市鶴来水戸町ノ１番地", "url2": "https://www.kaigokensaku.mhlw.go.jp/17/index.php?action_kouhyou_detail_004_kani=true&JigyosyoCd=1712210614-00&ServiceCd=160&Type=search" }, "geometry": { "type": "Point", "coordinates": [ 136.623731600000042, 36.4472426 ] } },
{ "type": "Feature", "properties": { "内容": "ただなわ通所リハビリテーションセンター【通所リハビリテーション】石川県白山市井口町に78番地1", "url2": "https://www.kaigokensaku.mhlw.go.jp/17/index.php?action_kouhyou_detail_004_kani=true&JigyosyoCd=1712210838-00&ServiceCd=160&Type=search" }, "geometry": { "type": "Point", "coordinates": [ 136.602420686647065, 36.470747279437155 ] } },
{ "type": "Feature", "properties": { "内容": "なごみデイケアセンター【通所リハビリテーション】石川県白山市米永町300番地2", "url2": "https://www.kaigokensaku.mhlw.go.jp/17/index.php?action_kouhyou_detail_004_kani=true&JigyosyoCd=1752280360-00&ServiceCd=160&Type=search" }, "geometry": { "type": "Point", "coordinates": [ 136.543299997569306, 36.515328136623111 ] } },
{ "type": "Feature", "properties": { "内容": "介護老人保健施設　陽翠の里【通所リハビリテーション】石川県能美市緑が丘１１丁目７７番地", "url2": "https://www.kaigokensaku.mhlw.go.jp/17/index.php?action_kouhyou_detail_004_kani=true&JigyosyoCd=1752380236-00&ServiceCd=160&Type=search" }, "geometry": { "type": "Point", "coordinates": [ 136.535343600000033, 36.4424825 ] } },
{ "type": "Feature", "properties": { "内容": "能美市介護老人保健施設はまなすの丘【通所リハビリテーション】石川県能美市大浜町ム52番地18", "url2": "https://www.kaigokensaku.mhlw.go.jp/17/index.php?action_kouhyou_detail_004_kani=true&JigyosyoCd=1752380285-00&ServiceCd=160&Type=search" }, "geometry": { "type": "Point", "coordinates": [ 136.453288400000019, 36.4547691 ] } },
{ "type": "Feature", "properties": { "内容": "もりした通所・訪問リハビリテーション　すたあと【通所リハビリテーション】石川県能美市辰口町655番地1", "url2": "https://www.kaigokensaku.mhlw.go.jp/17/index.php?action_kouhyou_detail_004_kani=true&JigyosyoCd=1712310299-00&ServiceCd=160&Type=search" }, "geometry": { "type": "Point", "coordinates": [ 136.544952380287242, 36.442864316029677 ] } },
{ "type": "Feature", "properties": { "内容": "介護老人保健施設　手取の里【通所リハビリテーション】寺井町ウ８４", "url2": "https://www.kaigokensaku.mhlw.go.jp/17/index.php?action_kouhyou_detail_004_kani=true&JigyosyoCd=1752380301-00&ServiceCd=160&Type=search" }, "geometry": { "type": "Point", "coordinates": [ 136.489008900000044, 36.4385639 ] } },
{ "type": "Feature", "properties": { "内容": "あんじん通所リハビリテーション【通所リハビリテーション】石川県野々市市新庄２丁目３０番地", "url2": "https://www.kaigokensaku.mhlw.go.jp/17/index.php?action_kouhyou_detail_004_kani=true&JigyosyoCd=1751380088-00&ServiceCd=160&Type=search" }, "geometry": { "type": "Point", "coordinates": [ 136.6102128, 36.4969323 ] } },
{ "type": "Feature", "properties": { "内容": "あんじん川北通所リハビリテーション【通所リハビリテーション】石川県能美郡川北町壱ツ屋１９５", "url2": "https://www.kaigokensaku.mhlw.go.jp/17/index.php?action_kouhyou_detail_004_kani=true&JigyosyoCd=1751280411-00&ServiceCd=160&Type=search" }, "geometry": { "type": "Point", "coordinates": [ 136.543095200000039, 36.4674409 ] } },
{ "type": "Feature", "properties": { "内容": "河北中央病院　通所リハビリテーションつばさ【通所リハビリテーション】石川県河北郡津幡町字津幡ロ５１番２", "url2": "https://www.kaigokensaku.mhlw.go.jp/17/index.php?action_kouhyou_detail_004_kani=true&JigyosyoCd=1711410165-00&ServiceCd=160&Type=search" }, "geometry": { "type": "Point", "coordinates": [ 136.7365575, 36.670165600000011 ] } },
{ "type": "Feature", "properties": { "内容": "みずほ病院通所リハビリテーション【通所リハビリテーション】石川県河北郡津幡町字潟端422番地1", "url2": "https://www.kaigokensaku.mhlw.go.jp/17/index.php?action_kouhyou_detail_004_kani=true&JigyosyoCd=1711411353-00&ServiceCd=160&Type=search" }, "geometry": { "type": "Point", "coordinates": [ 136.710097200000064, 36.655911 ] } },
{ "type": "Feature", "properties": { "内容": "通所リハビリテーションうたき【通所リハビリテーション】石川県河北郡津幡町字太田は169", "url2": "https://www.kaigokensaku.mhlw.go.jp/17/index.php?action_kouhyou_detail_004_kani=true&JigyosyoCd=1711411361-00&ServiceCd=160&Type=search" }, "geometry": { "type": "Point", "coordinates": [ 136.718212799999947, 36.6560528 ] } },
{ "type": "Feature", "properties": { "内容": "介護老人保健施設ふぃらーじゅ　通所リハビリテーション【通所リハビリテーション】石川県河北郡津幡町字東荒屋354番地", "url2": "https://www.kaigokensaku.mhlw.go.jp/17/index.php?action_kouhyou_detail_004_kani=true&JigyosyoCd=1751480516-00&ServiceCd=160&Type=search" }, "geometry": { "type": "Point", "coordinates": [ 136.751213400000012, 36.6639414 ] } },
{ "type": "Feature", "properties": { "内容": "内灘温泉保養館【通所リハビリテーション】石川県河北郡内灘町白帆台1-88-1", "url2": "https://www.kaigokensaku.mhlw.go.jp/17/index.php?action_kouhyou_detail_004_kani=true&JigyosyoCd=1751480102-00&ServiceCd=160&Type=search" }, "geometry": { "type": "Point", "coordinates": [ 136.655729599999972, 36.6704836 ] } },
{ "type": "Feature", "properties": { "内容": "町立富来病院【通所リハビリテーション】石川県羽咋郡志賀町富来地頭町7の110番地1", "url2": "https://www.kaigokensaku.mhlw.go.jp/17/index.php?action_kouhyou_detail_004_kani=true&JigyosyoCd=1711510485-00&ServiceCd=160&Type=search" }, "geometry": { "type": "Point", "coordinates": [ 136.729353433365503, 37.137442092824713 ] } },
{ "type": "Feature", "properties": { "内容": "志賀クリニック・デイケアセンター【通所リハビリテーション】石川県羽咋郡志賀町高浜町ヤの７９番地１", "url2": "https://www.kaigokensaku.mhlw.go.jp/17/index.php?action_kouhyou_detail_004_kani=true&JigyosyoCd=1711510493-00&ServiceCd=160&Type=search" }, "geometry": { "type": "Point", "coordinates": [ 136.771552400000019, 37.0040147 ] } },
{ "type": "Feature", "properties": { "内容": "デイケアセンター　有縁の荘【通所リハビリテーション】羽咋郡志賀町仏木ク15-20介護老人保健施設　有縁の荘", "url2": "https://www.kaigokensaku.mhlw.go.jp/17/index.php?action_kouhyou_detail_004_kani=true&JigyosyoCd=1751580182-00&ServiceCd=160&Type=search" }, "geometry": { "type": "Point", "coordinates": [ 136.818042600000012, 37.0529764 ] } },
{ "type": "Feature", "properties": { "内容": "町立宝達志水病院【通所リハビリテーション】石川県羽咋郡宝達志水町子浦ロ１１番地１", "url2": "https://www.kaigokensaku.mhlw.go.jp/17/index.php?action_kouhyou_detail_004_kani=true&JigyosyoCd=1711510568-00&ServiceCd=160&Type=search" }, "geometry": { "type": "Point", "coordinates": [ 136.794945900000016, 36.8669224 ] } },
{ "type": "Feature", "properties": { "内容": "通所リハビリテーション事業所「いきいき」【通所リハビリテーション】石川県鹿島郡中能登町末坂2部60番地1鳥屋診療所いきいき", "url2": "https://www.kaigokensaku.mhlw.go.jp/17/index.php?action_kouhyou_detail_004_kani=true&JigyosyoCd=1711610574-00&ServiceCd=160&Type=search" }, "geometry": { "type": "Point", "coordinates": [ 136.902786284655804, 36.99140877891093 ] } },
{ "type": "Feature", "properties": { "内容": "なごみの里鹿島通所リハビリテーション【通所リハビリテーション】石川県鹿島郡中能登町浅井ろ部106番地", "url2": "https://www.kaigokensaku.mhlw.go.jp/17/index.php?action_kouhyou_detail_004_kani=true&JigyosyoCd=1751680354-00&ServiceCd=160&Type=search" }, "geometry": { "type": "Point", "coordinates": [ 136.901381799999967, 36.9830497 ] } },
{ "type": "Feature", "properties": { "内容": "公立穴水総合病院【通所リハビリテーション】石川県鳳珠郡穴水町字川島タの８番地", "url2": "https://www.kaigokensaku.mhlw.go.jp/17/index.php?action_kouhyou_detail_004_kani=true&JigyosyoCd=1711710176-00&ServiceCd=160&Type=search" }, "geometry": { "type": "Point", "coordinates": [ 136.9092958, 37.2340526 ] } },
{ "type": "Feature", "properties": { "内容": "恵寿鳩ヶ丘通所リハビリテーション事業所「はとがおか」【通所リハビリテーション】石川県鳳珠郡穴水町字麦ヶ浦15、39番8", "url2": "https://www.kaigokensaku.mhlw.go.jp/17/index.php?action_kouhyou_detail_004_kani=true&JigyosyoCd=17B1700019-00&ServiceCd=160&Type=search" }, "geometry": { "type": "Point", "coordinates": [ 136.921108299999986, 37.2730729 ] } }
]
}
