{
"type": "FeatureCollection",
"name": "geo_17_特定福祉用具販売",
"crs": { "type": "name", "properties": { "name": "urn:ogc:def:crs:OGC:1.3:CRS84" } },
"features": [
{ "type": "Feature", "properties": { "内容": "こすもす　かがやき福祉用具事業所【特定福祉用具販売】石川県金沢市諸江町下丁89番地3-2F", "url": "https://www.kaigokensaku.mhlw.go.jp/17/index.php?action_kouhyou_detail_004_kani=true&JigyosyoCd=1770106670-00&ServiceCd=410&Type=search", "url2": "https://kagayaki-yogu.co.jp/" }, "geometry": { "type": "Point", "coordinates": [ 136.64674740000001, 36.5989133 ] } },
{ "type": "Feature", "properties": { "内容": "株式会社ヤマシタ　金沢営業所【特定福祉用具販売】石川県金沢市黒田２丁目１０番地", "url": "https://www.kaigokensaku.mhlw.go.jp/17/index.php?action_kouhyou_detail_004_kani=true&JigyosyoCd=1770100046-00&ServiceCd=410&Type=search", "url2": "http://www.yco.co.jp" }, "geometry": { "type": "Point", "coordinates": [ 136.629466800000046, 36.5933845 ] } },
{ "type": "Feature", "properties": { "内容": "石川医療器株式会社【特定福祉用具販売】石川県金沢市直江東1丁目6番地", "url": "https://www.kaigokensaku.mhlw.go.jp/17/index.php?action_kouhyou_detail_004_kani=true&JigyosyoCd=1770100194-00&ServiceCd=410&Type=search", "url2": "https://www.ishikawamed.co.jp/" }, "geometry": { "type": "Point", "coordinates": [ 136.638144990458244, 36.613402447636105 ] } },
{ "type": "Feature", "properties": { "内容": "有限会社さわやか金沢【特定福祉用具販売】金沢市割出町718-1", "url": "https://www.kaigokensaku.mhlw.go.jp/17/index.php?action_kouhyou_detail_004_kani=true&JigyosyoCd=1770101069-00&ServiceCd=410&Type=search", "url2": "http://www.sawayaka-k.jp/" }, "geometry": { "type": "Point", "coordinates": [ 136.636463400000025, 36.6007003 ] } },
{ "type": "Feature", "properties": { "内容": "ケア・サンエス　金沢【特定福祉用具販売】金沢市　問屋町　３丁目　１０番地", "url": "https://www.kaigokensaku.mhlw.go.jp/17/index.php?action_kouhyou_detail_004_kani=true&JigyosyoCd=1770101143-00&ServiceCd=410&Type=search", "url2": "http://sanesu-care.com/" }, "geometry": { "type": "Point", "coordinates": [ 136.63675760000001, 36.609213 ] } },
{ "type": "Feature", "properties": { "内容": "ライフワン　金沢【特定福祉用具販売】金沢市神野1丁目35番地", "url": "https://www.kaigokensaku.mhlw.go.jp/17/index.php?action_kouhyou_detail_004_kani=true&JigyosyoCd=1770101382-00&ServiceCd=410&Type=search", "url2": "http://www.life-one.com" }, "geometry": { "type": "Point", "coordinates": [ 136.5989237, 36.5666127 ] } },
{ "type": "Feature", "properties": { "内容": "ラミコジャパン株式会社【特定福祉用具販売】石川県金沢市赤土町カ1番31", "url": "https://www.kaigokensaku.mhlw.go.jp/17/index.php?action_kouhyou_detail_004_kani=true&JigyosyoCd=1770101481-00&ServiceCd=410&Type=search", "url2": "https://www.ramico.co.jp/" }, "geometry": { "type": "Point", "coordinates": [ 136.583515545148344, 36.58856461948649 ] } },
{ "type": "Feature", "properties": { "内容": "ダスキンヘルスレント金沢ステーション【特定福祉用具販売】石川県金沢市割出町6-1", "url": "https://www.kaigokensaku.mhlw.go.jp/17/index.php?action_kouhyou_detail_004_kani=true&JigyosyoCd=1770102067-00&ServiceCd=410&Type=search", "url2": "https://duskinhkr.com/" }, "geometry": { "type": "Point", "coordinates": [ 136.610746913725251, 36.605364263878464 ] } },
{ "type": "Feature", "properties": { "内容": "株式会社ハシノメディカル金沢営業所【特定福祉用具販売】石川県金沢市神宮寺3丁目18-28", "url": "https://www.kaigokensaku.mhlw.go.jp/17/index.php?action_kouhyou_detail_004_kani=true&JigyosyoCd=1770103263-00&ServiceCd=410&Type=search", "url2": "http://www.hashino-medical.co.jp/" }, "geometry": { "type": "Point", "coordinates": [ 136.666080320237711, 36.585980763540185 ] } },
{ "type": "Feature", "properties": { "内容": "介護ショップありまつ【特定福祉用具販売】石川県金沢市ありまつ５丁目２番２４号", "url": "https://www.kaigokensaku.mhlw.go.jp/17/index.php?action_kouhyou_detail_004_kani=true&JigyosyoCd=1770104097-00&ServiceCd=410&Type=search", "url2": null }, "geometry": { "type": "Point", "coordinates": [ 136.6390436, 36.5379618 ] } },
{ "type": "Feature", "properties": { "内容": "あさがおかぶしきがいしゃ【特定福祉用具販売】石川県金沢市武蔵町8番12号", "url": "https://www.kaigokensaku.mhlw.go.jp/17/index.php?action_kouhyou_detail_004_kani=true&JigyosyoCd=1770104766-00&ServiceCd=410&Type=search", "url2": "info@asagao-kaigo.jp" }, "geometry": { "type": "Point", "coordinates": [ 136.6527554, 36.5721965 ] } },
{ "type": "Feature", "properties": { "内容": "グット・ケア【特定福祉用具販売】石川県金沢市神野町東33番地", "url": "https://www.kaigokensaku.mhlw.go.jp/17/index.php?action_kouhyou_detail_004_kani=true&JigyosyoCd=1770105508-00&ServiceCd=410&Type=search", "url2": "http://ikigaikoubou.com/" }, "geometry": { "type": "Point", "coordinates": [ 136.599732598776683, 36.562758481203502 ] } },
{ "type": "Feature", "properties": { "内容": "アイテム金沢【特定福祉用具販売】石川県金沢市米泉町2丁目76番地1", "url": "https://www.kaigokensaku.mhlw.go.jp/17/index.php?action_kouhyou_detail_004_kani=true&JigyosyoCd=1770106118-00&ServiceCd=410&Type=search", "url2": null }, "geometry": { "type": "Point", "coordinates": [ 136.624291500000027, 36.5444321 ] } },
{ "type": "Feature", "properties": { "内容": "オークス株式会社ライフケア事業部金沢【特定福祉用具販売】鳴和台120", "url": "https://www.kaigokensaku.mhlw.go.jp/17/index.php?action_kouhyou_detail_004_kani=true&JigyosyoCd=1770106738-00&ServiceCd=410&Type=search", "url2": "http://www.oarks.co.jp" }, "geometry": { "type": "Point", "coordinates": [ 136.6789193, 36.579535 ] } },
{ "type": "Feature", "properties": { "内容": "福祉用具の窓口FLOS【特定福祉用具販売】石川県金沢市疋田1丁目215番地2F", "url": "https://www.kaigokensaku.mhlw.go.jp/17/index.php?action_kouhyou_detail_004_kani=true&JigyosyoCd=1770107272-00&ServiceCd=410&Type=search", "url2": "https://www.radix-flos.com/" }, "geometry": { "type": "Point", "coordinates": [ 136.673306778191574, 36.602865975815696 ] } },
{ "type": "Feature", "properties": { "内容": "福祉用具COCO【特定福祉用具販売】石川県金沢市直江西１－２１GeoCave03", "url": "https://www.kaigokensaku.mhlw.go.jp/17/index.php?action_kouhyou_detail_004_kani=true&JigyosyoCd=1770107447-00&ServiceCd=410&Type=search", "url2": null }, "geometry": { "type": "Point", "coordinates": [ 136.6360056, 36.6110325 ] } },
{ "type": "Feature", "properties": { "内容": "Lead株式会社　リード【特定福祉用具販売】石川県金沢市笠舞3丁目2番30号", "url": "https://www.kaigokensaku.mhlw.go.jp/17/index.php?action_kouhyou_detail_004_kani=true&JigyosyoCd=1740145188-00&ServiceCd=410&Type=search", "url2": null }, "geometry": { "type": "Point", "coordinates": [ 136.664791, 36.5525404 ] } },
{ "type": "Feature", "properties": { "内容": "株式会社メディペック【特定福祉用具販売】金沢市西念3丁目1番5号", "url": "https://www.kaigokensaku.mhlw.go.jp/17/index.php?action_kouhyou_detail_004_kani=true&JigyosyoCd=1770100061-00&ServiceCd=410&Type=search", "url2": "www.centralmedical.co.jp/medipec/" }, "geometry": { "type": "Point", "coordinates": [ 136.637083299999972, 36.5861189 ] } },
{ "type": "Feature", "properties": { "内容": "㈱Ｒｏｏｔｓ【特定福祉用具販売】打木町東１４１４番地", "url": "https://www.kaigokensaku.mhlw.go.jp/17/index.php?action_kouhyou_detail_004_kani=true&JigyosyoCd=1770106878-00&ServiceCd=410&Type=search", "url2": null }, "geometry": { "type": "Point", "coordinates": [ 136.5721811, 36.5664551 ] } },
{ "type": "Feature", "properties": { "内容": "こすもす福祉用具事業所【特定福祉用具販売】諸江町下丁88番地1", "url": "https://www.kaigokensaku.mhlw.go.jp/17/index.php?action_kouhyou_detail_004_kani=true&JigyosyoCd=1770107769-00&ServiceCd=410&Type=search", "url2": "https://ekango.com/" }, "geometry": { "type": "Point", "coordinates": [ 136.643754, 36.6041867 ] } },
{ "type": "Feature", "properties": { "内容": "PTK福祉用具サービスセンター【特定福祉用具販売】石川県金沢市専光寺町レ4番地29シーガルl102", "url": "https://www.kaigokensaku.mhlw.go.jp/17/index.php?action_kouhyou_detail_004_kani=true&JigyosyoCd=1770107728-00&ServiceCd=410&Type=search", "url2": null }, "geometry": { "type": "Point", "coordinates": [ 136.58306540000001, 36.5869449 ] } },
{ "type": "Feature", "properties": { "内容": "オークス株式会社ライフケア事業部七尾【特定福祉用具販売】七尾市藤橋町テ１７－１", "url": "https://www.kaigokensaku.mhlw.go.jp/17/index.php?action_kouhyou_detail_004_kani=true&JigyosyoCd=1770200085-00&ServiceCd=410&Type=search", "url2": "http://www.oarks.co.jp/" }, "geometry": { "type": "Point", "coordinates": [ 136.952909530796774, 37.042881378350401 ] } },
{ "type": "Feature", "properties": { "内容": "シルバーサポートのと七尾店【特定福祉用具販売】本府中町チ部32番地の5", "url": "https://www.kaigokensaku.mhlw.go.jp/17/index.php?action_kouhyou_detail_004_kani=true&JigyosyoCd=1770200481-00&ServiceCd=410&Type=search", "url2": "http://hp.kaipoke.biz/yx2/" }, "geometry": { "type": "Point", "coordinates": [ 136.968880006311224, 37.037398650994461 ] } },
{ "type": "Feature", "properties": { "内容": "福祉用具レンタルステーション恵寿【特定福祉用具販売】石川県七尾市富岡町95番地", "url": "https://www.kaigokensaku.mhlw.go.jp/17/index.php?action_kouhyou_detail_004_kani=true&JigyosyoCd=1710210319-00&ServiceCd=410&Type=search", "url2": "http://www.keiju.co.jp" }, "geometry": { "type": "Point", "coordinates": [ 136.9609644, 37.0504413 ] } },
{ "type": "Feature", "properties": { "内容": "株式会社ケアプラス福祉用具事業所【特定福祉用具販売】小松市今江町は６５番地２", "url": "https://www.kaigokensaku.mhlw.go.jp/17/index.php?action_kouhyou_detail_004_kani=true&JigyosyoCd=1770300075-00&ServiceCd=410&Type=search", "url2": "http://www.careplus.co.jp" }, "geometry": { "type": "Point", "coordinates": [ 136.448988522831769, 36.379394157243439 ] } },
{ "type": "Feature", "properties": { "内容": "ケア・サンエス　小松【特定福祉用具販売】小松市　大領町　な　７番地", "url": "https://www.kaigokensaku.mhlw.go.jp/17/index.php?action_kouhyou_detail_004_kani=true&JigyosyoCd=1770300232-00&ServiceCd=410&Type=search", "url2": "http://sanesu-care.com/" }, "geometry": { "type": "Point", "coordinates": [ 136.453948800000035, 36.3846698 ] } },
{ "type": "Feature", "properties": { "内容": "ライフワン小松【特定福祉用具販売】石川県小松市有明町　71番地", "url": "https://www.kaigokensaku.mhlw.go.jp/17/index.php?action_kouhyou_detail_004_kani=true&JigyosyoCd=1770300273-00&ServiceCd=410&Type=search", "url2": "http://www.life-one.com" }, "geometry": { "type": "Point", "coordinates": [ 136.458425799999986, 36.399454 ] } },
{ "type": "Feature", "properties": { "内容": "アイテム小松【特定福祉用具販売】石川県小松市日の出町3丁目302番地", "url": "https://www.kaigokensaku.mhlw.go.jp/17/index.php?action_kouhyou_detail_004_kani=true&JigyosyoCd=1770300943-00&ServiceCd=410&Type=search", "url2": null }, "geometry": { "type": "Point", "coordinates": [ 136.453170600000021, 36.3997009 ] } },
{ "type": "Feature", "properties": { "内容": "有限会社　ライフサポート【特定福祉用具販売】輪島市山岸町い４７番２", "url": "https://www.kaigokensaku.mhlw.go.jp/17/index.php?action_kouhyou_detail_004_kani=true&JigyosyoCd=1770400081-00&ServiceCd=410&Type=search", "url2": null }, "geometry": { "type": "Point", "coordinates": [ 136.909211899999946, 37.3835302 ] } },
{ "type": "Feature", "properties": { "内容": "株式会社　森谷寝具店　ヘルスサポートけんねる　メディカルサービス事業部【特定福祉用具販売】輪島市河井町３部１９９番地の１", "url": "https://www.kaigokensaku.mhlw.go.jp/17/index.php?action_kouhyou_detail_004_kani=true&JigyosyoCd=1770400149-00&ServiceCd=410&Type=search", "url2": null }, "geometry": { "type": "Point", "coordinates": [ 136.904668384277329, 37.392619607610811 ] } },
{ "type": "Feature", "properties": { "内容": "株式会社　プロモート【特定福祉用具販売】石川県珠洲市上戸町北方い部33番地1号", "url": "https://www.kaigokensaku.mhlw.go.jp/17/index.php?action_kouhyou_detail_004_kani=true&JigyosyoCd=1770500062-00&ServiceCd=410&Type=search", "url2": "http://www.16.0cn.ne.jp～notosaku/promote/promote.htm1" }, "geometry": { "type": "Point", "coordinates": [ 137.259817099999964, 37.4339753 ] } },
{ "type": "Feature", "properties": { "内容": "株式会社タスカル【特定福祉用具販売】石川県羽咋市千里浜町ル２－４フォーレストヒルズＡ１０３", "url": "https://www.kaigokensaku.mhlw.go.jp/17/index.php?action_kouhyou_detail_004_kani=true&JigyosyoCd=1770700357-00&ServiceCd=410&Type=search", "url2": "http://hp.kaipoke.biz/b27/" }, "geometry": { "type": "Point", "coordinates": [ 136.770212584655724, 36.886160028101678 ] } },
{ "type": "Feature", "properties": { "内容": "有限会社　ダイリカ【特定福祉用具販売】石川県羽咋市大川町北新237番地", "url": "https://www.kaigokensaku.mhlw.go.jp/17/index.php?action_kouhyou_detail_004_kani=true&JigyosyoCd=1770700092-00&ServiceCd=410&Type=search", "url2": null }, "geometry": { "type": "Point", "coordinates": [ 136.774741174204991, 36.904290289601803 ] } },
{ "type": "Feature", "properties": { "内容": "株式会社　ハンディーエイド【特定福祉用具販売】石川県白山市北安田町5244番地", "url": "https://www.kaigokensaku.mhlw.go.jp/17/index.php?action_kouhyou_detail_004_kani=true&JigyosyoCd=1772200158-00&ServiceCd=410&Type=search", "url2": "http://handyaid.co.jp/" }, "geometry": { "type": "Point", "coordinates": [ 136.550012, 36.5212506 ] } },
{ "type": "Feature", "properties": { "内容": "スマイルワン【特定福祉用具販売】石川県白山市村井町322-6西川テナント1階", "url": "https://www.kaigokensaku.mhlw.go.jp/17/index.php?action_kouhyou_detail_004_kani=true&JigyosyoCd=1772200992-00&ServiceCd=410&Type=search", "url2": null }, "geometry": { "type": "Point", "coordinates": [ 136.558373, 36.5149986 ] } },
{ "type": "Feature", "properties": { "内容": "Lifecareいしかわ【特定福祉用具販売】石川県能美市緑が丘11丁目19番地", "url": "https://www.kaigokensaku.mhlw.go.jp/17/index.php?action_kouhyou_detail_004_kani=true&JigyosyoCd=1772300537-00&ServiceCd=410&Type=search", "url2": "https://lifecare-ishikawa.com" }, "geometry": { "type": "Point", "coordinates": [ 136.5337782, 36.441537 ] } },
{ "type": "Feature", "properties": { "内容": "株式会社ウインデル【特定福祉用具販売】石川県羽咋郡宝達志水町北川尻ナ33", "url": "https://www.kaigokensaku.mhlw.go.jp/17/index.php?action_kouhyou_detail_004_kani=true&JigyosyoCd=1771500384-00&ServiceCd=410&Type=search", "url2": null }, "geometry": { "type": "Point", "coordinates": [ 136.7420057, 36.8026847 ] } }
]
}
