{
"type": "FeatureCollection",
"name": "geo_17_短期入所生活介護",
"crs": { "type": "name", "properties": { "name": "urn:ogc:def:crs:OGC:1.3:CRS84" } },
"features": [
{ "type": "Feature", "properties": { "内容": "想愛入江ショートステイ【短期入所生活介護】石川県金沢市入江３丁目153番地2", "url": "https://www.kaigokensaku.mhlw.go.jp/17/index.php?action_kouhyou_detail_004_kani=true&JigyosyoCd=1770106795-00&ServiceCd=210&Type=search", "url2": "http://www.suncare-life.com/" }, "geometry": { "type": "Point", "coordinates": [ 136.62246121586918, 36.568284675439827 ] } },
{ "type": "Feature", "properties": { "内容": "特別養護老人ホームさくらセンター【短期入所生活介護】石川県金沢市湊2丁目169番地", "url": "https://www.kaigokensaku.mhlw.go.jp/17/index.php?action_kouhyou_detail_004_kani=true&JigyosyoCd=1770105813-00&ServiceCd=210&Type=search", "url2": "http://sakura-center.org/" }, "geometry": { "type": "Point", "coordinates": [ 136.652502799999979, 36.6351271 ] } },
{ "type": "Feature", "properties": { "内容": "第2やすはら苑短期入所生活介護【短期入所生活介護】下安原町東1457番地1第2やすはら苑", "url": "https://www.kaigokensaku.mhlw.go.jp/17/index.php?action_kouhyou_detail_004_kani=true&JigyosyoCd=1770105912-00&ServiceCd=210&Type=search", "url2": "http://yasuhara.or.jp" }, "geometry": { "type": "Point", "coordinates": [ 136.643164, 36.537286 ] } },
{ "type": "Feature", "properties": { "内容": "特別養護老人ホーム　千木園【短期入所生活介護】石川県金沢市千木町ホ３番地１", "url": "https://www.kaigokensaku.mhlw.go.jp/17/index.php?action_kouhyou_detail_004_kani=true&JigyosyoCd=1770100434-00&ServiceCd=210&Type=search", "url2": "https://sengi.jp/sengien/" }, "geometry": { "type": "Point", "coordinates": [ 136.6717966, 36.6119326 ] } },
{ "type": "Feature", "properties": { "内容": "なんぶやすらぎホーム【短期入所生活介護】金沢市弥生３丁目２番３号", "url": "https://www.kaigokensaku.mhlw.go.jp/17/index.php?action_kouhyou_detail_004_kani=true&JigyosyoCd=1770103230-00&ServiceCd=210&Type=search", "url2": "http//yasuragi39.com" }, "geometry": { "type": "Point", "coordinates": [ 136.643484400000034, 36.5438744 ] } },
{ "type": "Feature", "properties": { "内容": "寿晃園短期入所生活介護事業所【短期入所生活介護】石川県金沢市鞍月東1丁目19番地", "url": "https://www.kaigokensaku.mhlw.go.jp/17/index.php?action_kouhyou_detail_004_kani=true&JigyosyoCd=1770100350-00&ServiceCd=210&Type=search", "url2": "http://www.chuoufukushikai.jp/" }, "geometry": { "type": "Point", "coordinates": [ 136.6307723, 36.593756700000014 ] } },
{ "type": "Feature", "properties": { "内容": "ショートステイさくらセンター湊【短期入所生活介護】石川県金沢市湊2丁目171番地", "url": "https://www.kaigokensaku.mhlw.go.jp/17/index.php?action_kouhyou_detail_004_kani=true&JigyosyoCd=1770107355-00&ServiceCd=210&Type=search", "url2": "https://www.sakura-center.org/" }, "geometry": { "type": "Point", "coordinates": [ 136.6522037, 36.6354805 ] } },
{ "type": "Feature", "properties": { "内容": "短期入所生活介護　やすらぎホーム【短期入所生活介護】金沢市上荒屋1-39", "url": "https://www.kaigokensaku.mhlw.go.jp/17/index.php?action_kouhyou_detail_004_kani=true&JigyosyoCd=1770100186-00&ServiceCd=210&Type=search", "url2": "http://www.yasuragi39.com/" }, "geometry": { "type": "Point", "coordinates": [ 136.593050100000028, 36.5456846 ] } },
{ "type": "Feature", "properties": { "内容": "朱鷺の苑西インター(介護予防)短期入所生活介護【短期入所生活介護】石川県金沢市森戸2丁目20番地", "url": "https://www.kaigokensaku.mhlw.go.jp/17/index.php?action_kouhyou_detail_004_kani=true&JigyosyoCd=1770101457-00&ServiceCd=210&Type=search", "url2": "https://www.facebook.com/tokinoen" }, "geometry": { "type": "Point", "coordinates": [ 136.5984852, 36.5588377 ] } },
{ "type": "Feature", "properties": { "内容": "萬生苑【短期入所生活介護】金沢市利屋町は64番地１", "url": "https://www.kaigokensaku.mhlw.go.jp/17/index.php?action_kouhyou_detail_004_kani=true&JigyosyoCd=1770101309-00&ServiceCd=210&Type=search", "url2": "www://kyuraku.info/mannsyouen" }, "geometry": { "type": "Point", "coordinates": [ 136.713855500000022, 36.6451401 ] } },
{ "type": "Feature", "properties": { "内容": "金沢市短期入所施設湖陽ホーム【短期入所生活介護】石川県金沢市八田町東912番地", "url": "https://www.kaigokensaku.mhlw.go.jp/17/index.php?action_kouhyou_detail_004_kani=true&JigyosyoCd=1770100699-00&ServiceCd=210&Type=search", "url2": "http://care-net.biz/17/hattahome/" }, "geometry": { "type": "Point", "coordinates": [ 136.687955699999947, 36.628375 ] } },
{ "type": "Feature", "properties": { "内容": "特別養護老人ホーム第２千木園　短期入所生活介護【短期入所生活介護】金沢市観法寺町へ74番地1", "url": "https://www.kaigokensaku.mhlw.go.jp/17/index.php?action_kouhyou_detail_004_kani=true&JigyosyoCd=1770102364-00&ServiceCd=210&Type=search", "url2": "http://www.sengi.jp/dai2sengien/" }, "geometry": { "type": "Point", "coordinates": [ 136.704598900000065, 36.6222541 ] } },
{ "type": "Feature", "properties": { "内容": "戸室和楽ホーム短期入所サービスセンター【短期入所生活介護】石川県金沢市俵町コ１番地１", "url": "https://www.kaigokensaku.mhlw.go.jp/17/index.php?action_kouhyou_detail_004_kani=true&JigyosyoCd=1770101358-00&ServiceCd=210&Type=search", "url2": "http://www.bijyoukai.net/" }, "geometry": { "type": "Point", "coordinates": [ 136.7172448, 36.5333936 ] } },
{ "type": "Feature", "properties": { "内容": "金澤五番丁短期入所サービスセンター【短期入所生活介護】石川県金沢市下本多町五番丁１４番地", "url": "https://www.kaigokensaku.mhlw.go.jp/17/index.php?action_kouhyou_detail_004_kani=true&JigyosyoCd=1770103073-00&ServiceCd=210&Type=search", "url2": "http://www.bijyoukai.net/" }, "geometry": { "type": "Point", "coordinates": [ 136.657971800000041, 36.5567482 ] } },
{ "type": "Feature", "properties": { "内容": "やすはら苑【短期入所生活介護】金沢市下安原町東１４５８番地1", "url": "https://www.kaigokensaku.mhlw.go.jp/17/index.php?action_kouhyou_detail_004_kani=true&JigyosyoCd=1770103131-00&ServiceCd=210&Type=search", "url2": "https://yasuharaen.or.jp/" }, "geometry": { "type": "Point", "coordinates": [ 136.575781300000017, 36.5730751 ] } },
{ "type": "Feature", "properties": { "内容": "小規模特別養護老人ホーム第三千木園ひきだ【短期入所生活介護】石川県金沢市疋田3丁目58番地", "url": "https://www.kaigokensaku.mhlw.go.jp/17/index.php?action_kouhyou_detail_004_kani=true&JigyosyoCd=1770104303-00&ServiceCd=210&Type=search", "url2": "http://www.sengi.jp/dai3sengien/" }, "geometry": { "type": "Point", "coordinates": [ 136.67308, 36.6040337 ] } },
{ "type": "Feature", "properties": { "内容": "特別養護老人ホーム　あかつき【短期入所生活介護】石川県金沢市平和町１丁目２番２８号", "url": "https://www.kaigokensaku.mhlw.go.jp/17/index.php?action_kouhyou_detail_004_kani=true&JigyosyoCd=1770105102-00&ServiceCd=210&Type=search", "url2": "http://www.seishi.isg.or.jp/akatsuki/index.html" }, "geometry": { "type": "Point", "coordinates": [ 136.663696126458774, 36.538455789117108 ] } },
{ "type": "Feature", "properties": { "内容": "金沢春日ケアセンター【短期入所生活介護】金沢市元菊町20番1号", "url": "https://www.kaigokensaku.mhlw.go.jp/17/index.php?action_kouhyou_detail_004_kani=true&JigyosyoCd=1750180018-00&ServiceCd=210&Type=search", "url2": "http://www.jintikai.com" }, "geometry": { "type": "Point", "coordinates": [ 136.642261100000042, 36.573679 ] } },
{ "type": "Feature", "properties": { "内容": "特別養護老人ホーム　第二万陽苑【短期入所生活介護】石川県金沢市大桑町中ノ大平１８番地２５", "url": "https://www.kaigokensaku.mhlw.go.jp/17/index.php?action_kouhyou_detail_004_kani=true&JigyosyoCd=1770100152-00&ServiceCd=210&Type=search", "url2": "http://www.yofuen.com" }, "geometry": { "type": "Point", "coordinates": [ 136.674896399999966, 36.524519 ] } },
{ "type": "Feature", "properties": { "内容": "短期入所施設瓢箪町きらく園【短期入所生活介護】彦三町2丁目9番9号", "url": "https://www.kaigokensaku.mhlw.go.jp/17/index.php?action_kouhyou_detail_004_kani=true&JigyosyoCd=1770106704-00&ServiceCd=210&Type=search", "url2": "http://www.kirakuen.net/" }, "geometry": { "type": "Point", "coordinates": [ 136.6566865, 36.5758534 ] } },
{ "type": "Feature", "properties": { "内容": "第三万陽苑短期入所サービス【短期入所生活介護】石川県金沢市三小牛町２４の３番地１", "url": "https://www.kaigokensaku.mhlw.go.jp/17/index.php?action_kouhyou_detail_004_kani=true&JigyosyoCd=1770100160-00&ServiceCd=210&Type=search", "url2": "https//daisanmanyoen.yofuen.com" }, "geometry": { "type": "Point", "coordinates": [ 136.672940899999958, 36.5045689 ] } },
{ "type": "Feature", "properties": { "内容": "北伸福祉会　央金沢朱鷺の苑　短期入所生活介護事業所【短期入所生活介護】石川県金沢市広岡2丁目1番7号", "url": "https://www.kaigokensaku.mhlw.go.jp/17/index.php?action_kouhyou_detail_004_kani=true&JigyosyoCd=1770100277-00&ServiceCd=210&Type=search", "url2": "http://www.tokinoen.com" }, "geometry": { "type": "Point", "coordinates": [ 136.643785900000012, 36.5769342 ] } },
{ "type": "Feature", "properties": { "内容": "社会福祉法人　北伸福祉会　第二金沢朱鷺の苑【短期入所生活介護】石川県金沢市上辰巳町10-211-1", "url": "https://www.kaigokensaku.mhlw.go.jp/17/index.php?action_kouhyou_detail_004_kani=true&JigyosyoCd=1770100236-00&ServiceCd=210&Type=search", "url2": "http://www.tokinoen.com" }, "geometry": { "type": "Point", "coordinates": [ 136.702669799999967, 36.5154265 ] } },
{ "type": "Feature", "properties": { "内容": "社会福祉法人北伸福祉会金沢朱鷺の苑短期入所生活介護事業所【短期入所生活介護】金沢市岸川町ほ5番地", "url": "https://www.kaigokensaku.mhlw.go.jp/17/index.php?action_kouhyou_detail_004_kani=true&JigyosyoCd=1770100244-00&ServiceCd=210&Type=search", "url2": "http://www.tokinoen.com" }, "geometry": { "type": "Point", "coordinates": [ 136.711450499999955, 36.6400462 ] } },
{ "type": "Feature", "properties": { "内容": "万陽苑短期入所サービス【短期入所生活介護】金沢市三口新町1丁目8番1号", "url": "https://www.kaigokensaku.mhlw.go.jp/17/index.php?action_kouhyou_detail_004_kani=true&JigyosyoCd=1770100145-00&ServiceCd=210&Type=search", "url2": "http:/www.yofuen.com/" }, "geometry": { "type": "Point", "coordinates": [ 136.683384599999954, 36.5398058 ] } },
{ "type": "Feature", "properties": { "内容": "短期入所施設彦三きらく園【短期入所生活介護】金沢市彦三町１丁目８番８号", "url": "https://www.kaigokensaku.mhlw.go.jp/17/index.php?action_kouhyou_detail_004_kani=true&JigyosyoCd=1770100772-00&ServiceCd=210&Type=search", "url2": "http://www.kirakuen.net/" }, "geometry": { "type": "Point", "coordinates": [ 136.6613016, 36.5730989 ] } },
{ "type": "Feature", "properties": { "内容": "短期入所生活介護まほろば四十万【短期入所生活介護】石川県金沢市四十万３－２８８", "url": "https://www.kaigokensaku.mhlw.go.jp/17/index.php?action_kouhyou_detail_004_kani=true&JigyosyoCd=1770104030-00&ServiceCd=210&Type=search", "url2": "http://www.mahoroba-01.jp" }, "geometry": { "type": "Point", "coordinates": [ 136.6174926, 36.5045368 ] } },
{ "type": "Feature", "properties": { "内容": "金沢北安江ケアセンターそよ風【短期入所生活介護】石川県金沢市北安江1-10-6", "url": "https://www.kaigokensaku.mhlw.go.jp/17/index.php?action_kouhyou_detail_004_kani=true&JigyosyoCd=1770107025-00&ServiceCd=210&Type=search", "url2": "https://www.sykz.co.jp" }, "geometry": { "type": "Point", "coordinates": [ 136.651262800000012, 36.5832905 ] } },
{ "type": "Feature", "properties": { "内容": "ショートステイれんげの郷【短期入所生活介護】石川県金沢市小立野３丁目２４番１３号", "url": "https://www.kaigokensaku.mhlw.go.jp/17/index.php?action_kouhyou_detail_004_kani=true&JigyosyoCd=1770105714-00&ServiceCd=210&Type=search", "url2": "https://houkju-fukushi.com/rengenosato/" }, "geometry": { "type": "Point", "coordinates": [ 136.677390144162928, 36.548908879849385 ] } },
{ "type": "Feature", "properties": { "内容": "サンケア木越ショートステイ【短期入所生活介護】石川県金沢市大浦町チ99-1", "url": "https://www.kaigokensaku.mhlw.go.jp/17/index.php?action_kouhyou_detail_004_kani=true&JigyosyoCd=1770103594-00&ServiceCd=210&Type=search", "url2": "http://www.suncare-life.com/" }, "geometry": { "type": "Point", "coordinates": [ 136.657733330688387, 36.621807588379113 ] } },
{ "type": "Feature", "properties": { "内容": "ショートステイ　ゆうけあ相河【短期入所生活介護】西泉6丁目136番地", "url": "https://www.kaigokensaku.mhlw.go.jp/17/index.php?action_kouhyou_detail_004_kani=true&JigyosyoCd=1770103727-00&ServiceCd=210&Type=search", "url2": "http://you-care-aiko.jp" }, "geometry": { "type": "Point", "coordinates": [ 136.628329600000029, 36.5537339 ] } },
{ "type": "Feature", "properties": { "内容": "サンケア笠舞【短期入所生活介護】石川県金沢市笠舞1丁目12番24号", "url": "https://www.kaigokensaku.mhlw.go.jp/17/index.php?action_kouhyou_detail_004_kani=true&JigyosyoCd=1770106399-00&ServiceCd=210&Type=search", "url2": "http://www.suncare-life.com" }, "geometry": { "type": "Point", "coordinates": [ 136.674541665081762, 36.547407792461911 ] } },
{ "type": "Feature", "properties": { "内容": "短期入所生活介護ピカソⅡ【短期入所生活介護】田上本町カ４５番地１", "url": "https://www.kaigokensaku.mhlw.go.jp/17/index.php?action_kouhyou_detail_004_kani=true&JigyosyoCd=1750180299-00&ServiceCd=210&Type=search", "url2": "http://www.jotoyasuragi.jp/" }, "geometry": { "type": "Point", "coordinates": [ 136.701269, 36.5294132 ] } },
{ "type": "Feature", "properties": { "内容": "ひゃくまん星増泉ショートステイ【短期入所生活介護】石川県金沢市増泉1丁目16番41号", "url": "https://www.kaigokensaku.mhlw.go.jp/17/index.php?action_kouhyou_detail_004_kani=true&JigyosyoCd=1770105789-00&ServiceCd=210&Type=search", "url2": "http://100manboshi.com/" }, "geometry": { "type": "Point", "coordinates": [ 136.6448004, 36.5586254 ] } },
{ "type": "Feature", "properties": { "内容": "想愛戸板【短期入所生活介護】石川県金沢市戸板１丁目２０番地", "url": "https://www.kaigokensaku.mhlw.go.jp/17/index.php?action_kouhyou_detail_004_kani=true&JigyosyoCd=1770106779-00&ServiceCd=210&Type=search", "url2": "www.suncare-life.com" }, "geometry": { "type": "Point", "coordinates": [ 136.624693400000012, 36.5787308 ] } },
{ "type": "Feature", "properties": { "内容": "うめばちたがみ【短期入所生活介護】石川県金沢市田上本町３丁目１２５番地２", "url": "https://www.kaigokensaku.mhlw.go.jp/17/index.php?action_kouhyou_detail_004_kani=true&JigyosyoCd=1770102448-00&ServiceCd=210&Type=search", "url2": "http://raffi-ne.com" }, "geometry": { "type": "Point", "coordinates": [ 136.69550849999996, 36.5392783 ] } },
{ "type": "Feature", "properties": { "内容": "うめばちいりえ【短期入所生活介護】石川県金沢市入江2丁目306番地6号", "url": "https://www.kaigokensaku.mhlw.go.jp/17/index.php?action_kouhyou_detail_004_kani=true&JigyosyoCd=1770105722-00&ServiceCd=210&Type=search", "url2": "http://raffi-ne.com/" }, "geometry": { "type": "Point", "coordinates": [ 136.626815099999931, 36.5670683 ] } },
{ "type": "Feature", "properties": { "内容": "サンケア泉本町【短期入所生活介護】石川県金沢市泉本町2丁目48番地", "url": "https://www.kaigokensaku.mhlw.go.jp/17/index.php?action_kouhyou_detail_004_kani=true&JigyosyoCd=1770106654-00&ServiceCd=210&Type=search", "url2": "www.suncare-life.com" }, "geometry": { "type": "Point", "coordinates": [ 136.637937099999988, 36.5488199 ] } },
{ "type": "Feature", "properties": { "内容": "サンケア畝田ショートステイ【短期入所生活介護】畝田東3丁目545番地", "url": "https://www.kaigokensaku.mhlw.go.jp/17/index.php?action_kouhyou_detail_004_kani=true&JigyosyoCd=1770105375-00&ServiceCd=210&Type=search", "url2": "http://suncare-life.com" }, "geometry": { "type": "Point", "coordinates": [ 136.615948196642307, 36.595643081224608 ] } },
{ "type": "Feature", "properties": { "内容": "サンケア　高尾台【短期入所生活介護】石川県金沢市高尾台１丁目７４番地", "url": "https://www.kaigokensaku.mhlw.go.jp/17/index.php?action_kouhyou_detail_004_kani=true&JigyosyoCd=1770105383-00&ServiceCd=210&Type=search", "url2": "www.suncare-life.com" }, "geometry": { "type": "Point", "coordinates": [ 136.636170372074929, 36.524050780572523 ] } },
{ "type": "Feature", "properties": { "内容": "マナの家涌波ショートステイ【短期入所生活介護】涌波1-1-32", "url": "https://www.kaigokensaku.mhlw.go.jp/17/index.php?action_kouhyou_detail_004_kani=true&JigyosyoCd=1770103578-00&ServiceCd=210&Type=search", "url2": "http://mananoie.com/" }, "geometry": { "type": "Point", "coordinates": [ 136.684890200000041, 36.5334594 ] } },
{ "type": "Feature", "properties": { "内容": "ショートステイ真園・才田【短期入所生活介護】石川県金沢市才田町丁65番地1", "url": "https://www.kaigokensaku.mhlw.go.jp/17/index.php?action_kouhyou_detail_004_kani=true&JigyosyoCd=1770107496-00&ServiceCd=210&Type=search", "url2": null }, "geometry": { "type": "Point", "coordinates": [ 136.694493599999987, 36.6355491 ] } },
{ "type": "Feature", "properties": { "内容": "ショートステイ金澤備中【短期入所生活介護】石川県金沢市材木町21-21", "url": "https://www.kaigokensaku.mhlw.go.jp/17/index.php?action_kouhyou_detail_004_kani=true&JigyosyoCd=1770107587-00&ServiceCd=210&Type=search", "url2": "https://www.kyuraku.info/kanazawa_bicchu.php" }, "geometry": { "type": "Point", "coordinates": [ 136.670454299999989, 36.5664057 ] } },
{ "type": "Feature", "properties": { "内容": "ことほぎ三ツ屋ショートステイ【短期入所生活介護】石川県金沢市三ツ屋町ロ１８番地１", "url": "https://www.kaigokensaku.mhlw.go.jp/17/index.php?action_kouhyou_detail_004_kani=true&JigyosyoCd=1770105540-00&ServiceCd=210&Type=search", "url2": "http://asty-k.jp/" }, "geometry": { "type": "Point", "coordinates": [ 136.644672113491879, 36.610828348006017 ] } },
{ "type": "Feature", "properties": { "内容": "のとじま悠々ホーム【短期入所生活介護】石川県七尾市能登島半浦町5部6番地2", "url": "https://www.kaigokensaku.mhlw.go.jp/17/index.php?action_kouhyou_detail_004_kani=true&JigyosyoCd=1770200374-00&ServiceCd=210&Type=search", "url2": "https://www.saharagroup.jp" }, "geometry": { "type": "Point", "coordinates": [ 136.928434007348613, 37.12400605790716 ] } },
{ "type": "Feature", "properties": { "内容": "短期入所生活施設　秀楽苑【短期入所生活介護】石川県七尾市中島町鹿島台は部17番地3", "url": "https://www.kaigokensaku.mhlw.go.jp/17/index.php?action_kouhyou_detail_004_kani=true&JigyosyoCd=1770200259-00&ServiceCd=210&Type=search", "url2": "http://www.shurakuen.jp/" }, "geometry": { "type": "Point", "coordinates": [ 136.889571199999978, 37.1310423 ] } },
{ "type": "Feature", "properties": { "内容": "介護老人福祉施設　千寿苑【短期入所生活介護】石川県七尾市千野町に部15番地", "url": "https://www.kaigokensaku.mhlw.go.jp/17/index.php?action_kouhyou_detail_004_kani=true&JigyosyoCd=1770200184-00&ServiceCd=210&Type=search", "url2": "http://enyama-hp.jp/senju/" }, "geometry": { "type": "Point", "coordinates": [ 136.953055531352248, 37.017689906038008 ] } },
{ "type": "Feature", "properties": { "内容": "エレガンテなぎの浦短期入所生活介護事業所【短期入所生活介護】七尾市津向町ト部１０７番地４", "url": "https://www.kaigokensaku.mhlw.go.jp/17/index.php?action_kouhyou_detail_004_kani=true&JigyosyoCd=1770200010-00&ServiceCd=210&Type=search", "url2": "http://www.tokujyu.jp" }, "geometry": { "type": "Point", "coordinates": [ 136.955116211786049, 37.056465626094734 ] } },
{ "type": "Feature", "properties": { "内容": "特別養護老人ホームななみの里短期入所生活介護【短期入所生活介護】石川県七尾市石崎町泉台1番地1", "url": "https://www.kaigokensaku.mhlw.go.jp/17/index.php?action_kouhyou_detail_004_kani=true&JigyosyoCd=1770200523-00&ServiceCd=210&Type=search", "url2": "http://www.nanami-01.jp" }, "geometry": { "type": "Point", "coordinates": [ 136.930225, 37.0828239 ] } },
{ "type": "Feature", "properties": { "内容": "特別養護老人ホーム　あっとほーむ若葉【短期入所生活介護】石川県七尾市矢田町22号七株田12番地5", "url": "https://www.kaigokensaku.mhlw.go.jp/17/index.php?action_kouhyou_detail_004_kani=true&JigyosyoCd=1770200135-00&ServiceCd=210&Type=search", "url2": "http://www.homewakaba.com" }, "geometry": { "type": "Point", "coordinates": [ 136.983191799999986, 37.025588 ] } },
{ "type": "Feature", "properties": { "内容": "自生園いっとき【短期入所生活介護】石川県小松市上荒屋町ソ４番地１０", "url": "https://www.kaigokensaku.mhlw.go.jp/17/index.php?action_kouhyou_detail_004_kani=true&JigyosyoCd=1770300034-00&ServiceCd=210&Type=search", "url2": "https://jishoen.com/" }, "geometry": { "type": "Point", "coordinates": [ 136.43120250000004, 36.3281492 ] } },
{ "type": "Feature", "properties": { "内容": "第二松寿園ショートステイ【短期入所生活介護】石川県小松市月津町ヲ９５番地", "url": "https://www.kaigokensaku.mhlw.go.jp/17/index.php?action_kouhyou_detail_004_kani=true&JigyosyoCd=1770300182-00&ServiceCd=210&Type=search", "url2": "https://syoujyuen.jp/" }, "geometry": { "type": "Point", "coordinates": [ 136.414590099999941, 36.3515556 ] } },
{ "type": "Feature", "properties": { "内容": "特別養護老人ホーム　明峰の里【短期入所生活介護】石川県小松市蛭川町西１０３番地１", "url": "https://www.kaigokensaku.mhlw.go.jp/17/index.php?action_kouhyou_detail_004_kani=true&JigyosyoCd=1770300521-00&ServiceCd=210&Type=search", "url2": "https://meihou-kai.jp" }, "geometry": { "type": "Point", "coordinates": [ 136.455213800000024, 36.4341718 ] } },
{ "type": "Feature", "properties": { "内容": "松寿園ショートステイ【短期入所生活介護】石川県小松市向本折町ホ31番地", "url": "https://www.kaigokensaku.mhlw.go.jp/17/index.php?action_kouhyou_detail_004_kani=true&JigyosyoCd=1770300083-00&ServiceCd=210&Type=search", "url2": "http://care-net.biz/17/syojyuen/" }, "geometry": { "type": "Point", "coordinates": [ 136.43974419999995, 36.3968306 ] } },
{ "type": "Feature", "properties": { "内容": "ショートステイめぐみの里【短期入所生活介護】石川県小松市平面町へ133番地1特別養護老人ホームめぐみの里", "url": "https://www.kaigokensaku.mhlw.go.jp/17/index.php?action_kouhyou_detail_004_kani=true&JigyosyoCd=1770301057-00&ServiceCd=210&Type=search", "url2": "http://www.meguminosato.or.jp/" }, "geometry": { "type": "Point", "coordinates": [ 136.4699386, 36.4172913 ] } },
{ "type": "Feature", "properties": { "内容": "さわらび【短期入所生活介護】石川県小松市北浅井町と67番地", "url": "https://www.kaigokensaku.mhlw.go.jp/17/index.php?action_kouhyou_detail_004_kani=true&JigyosyoCd=1770300356-00&ServiceCd=210&Type=search", "url2": "https://drmitani.com/sawarabi-shortstay1-2" }, "geometry": { "type": "Point", "coordinates": [ 136.4602261, 36.3874226 ] } },
{ "type": "Feature", "properties": { "内容": "ショートステイみゆきの郷【短期入所生活介護】石川県小松市松崎町赤場１－１", "url": "https://www.kaigokensaku.mhlw.go.jp/17/index.php?action_kouhyou_detail_004_kani=true&JigyosyoCd=1770300422-00&ServiceCd=210&Type=search", "url2": "https://tensenkai.jp/miyukinosato/" }, "geometry": { "type": "Point", "coordinates": [ 136.414245599999958, 36.3718409 ] } },
{ "type": "Feature", "properties": { "内容": "あての木園短期入所センター【短期入所生活介護】三井町小泉上野2番地", "url": "https://www.kaigokensaku.mhlw.go.jp/17/index.php?action_kouhyou_detail_004_kani=true&JigyosyoCd=1770400016-00&ServiceCd=210&Type=search", "url2": "www.amusewajima.gr.jp/atenokien/" }, "geometry": { "type": "Point", "coordinates": [ 136.896431799999959, 37.2970977 ] } },
{ "type": "Feature", "properties": { "内容": "ショートステイゆきわりそう【短期入所生活介護】輪島市門前町深田２２－４２番地", "url": "https://www.kaigokensaku.mhlw.go.jp/17/index.php?action_kouhyou_detail_004_kani=true&JigyosyoCd=1770400123-00&ServiceCd=210&Type=search", "url2": "http://yukiwarisou.org" }, "geometry": { "type": "Point", "coordinates": [ 136.7805975, 37.2891781 ] } },
{ "type": "Feature", "properties": { "内容": "短期入所生活介護センターあかかみ【短期入所生活介護】石川県輪島市門前町赤神１０の１番地", "url": "https://www.kaigokensaku.mhlw.go.jp/17/index.php?action_kouhyou_detail_004_kani=true&JigyosyoCd=1770400115-00&ServiceCd=210&Type=search", "url2": "http//www.akakami.jp/" }, "geometry": { "type": "Point", "coordinates": [ 136.708625466934194, 37.246195100000016 ] } },
{ "type": "Feature", "properties": { "内容": "第三長寿園短期入所生活介護センター【短期入所生活介護】石川県珠洲市宝立町鵜飼子字３６番地４", "url": "https://www.kaigokensaku.mhlw.go.jp/17/index.php?action_kouhyou_detail_004_kani=true&JigyosyoCd=1770500146-00&ServiceCd=210&Type=search", "url2": "http://choujukai-isk.jp/daisanchoujuen.html" }, "geometry": { "type": "Point", "coordinates": [ 137.239207885180718, 37.405053500949805 ] } },
{ "type": "Feature", "properties": { "内容": "長寿園短期入所生活介護センター【短期入所生活介護】宝立町春日野4字117番地", "url": "https://www.kaigokensaku.mhlw.go.jp/17/index.php?action_kouhyou_detail_004_kani=true&JigyosyoCd=1770500013-00&ServiceCd=210&Type=search", "url2": "https://choujukai-isk.jp" }, "geometry": { "type": "Point", "coordinates": [ 137.240272199999907, 37.4113186 ] } },
{ "type": "Feature", "properties": { "内容": "特別養護老人ホーム　慈妙院加賀【短期入所生活介護】石川県加賀市大聖寺東町1丁目30番地", "url": "https://www.kaigokensaku.mhlw.go.jp/17/index.php?action_kouhyou_detail_004_kani=true&JigyosyoCd=1770600375-00&ServiceCd=210&Type=search", "url2": "http：//www.tokuhoukai.jp" }, "geometry": { "type": "Point", "coordinates": [ 136.3189333, 36.3056762 ] } },
{ "type": "Feature", "properties": { "内容": "特別養護老人ホーム片山津温泉日日好日院【短期入所生活介護】石川県加賀市片山津温泉ア96番地1", "url": "https://www.kaigokensaku.mhlw.go.jp/17/index.php?action_kouhyou_detail_004_kani=true&JigyosyoCd=1770600177-00&ServiceCd=210&Type=search", "url2": "http://www.tokuhoukai.jp" }, "geometry": { "type": "Point", "coordinates": [ 136.36416250000002, 36.3487695 ] } },
{ "type": "Feature", "properties": { "内容": "加賀中央慈妙院【短期入所生活介護】石川県加賀市山田町蛇谷1番地16", "url": "https://www.kaigokensaku.mhlw.go.jp/17/index.php?action_kouhyou_detail_004_kani=true&JigyosyoCd=1770600052-00&ServiceCd=210&Type=search", "url2": "http://www.tokuhoukai.jp/" }, "geometry": { "type": "Point", "coordinates": [ 136.335046599999941, 36.3261359 ] } },
{ "type": "Feature", "properties": { "内容": "山代温泉ほっと篤寿苑【短期入所生活介護】石川県加賀市上野町ケ254", "url": "https://www.kaigokensaku.mhlw.go.jp/17/index.php?action_kouhyou_detail_004_kani=true&JigyosyoCd=1770600060-00&ServiceCd=210&Type=search", "url2": "http://www.tokuhoukai.jp" }, "geometry": { "type": "Point", "coordinates": [ 136.377029399999969, 36.2936772 ] } },
{ "type": "Feature", "properties": { "内容": "山代温泉慈妙院【短期入所生活介護】石川県加賀市山代温泉温泉通73番地", "url": "https://www.kaigokensaku.mhlw.go.jp/17/index.php?action_kouhyou_detail_004_kani=true&JigyosyoCd=1770600383-00&ServiceCd=210&Type=search", "url2": "http://www.tokuhoukai.jp" }, "geometry": { "type": "Point", "coordinates": [ 136.3625733, 36.2918744 ] } },
{ "type": "Feature", "properties": { "内容": "動橋慈妙院【短期入所生活介護】動橋町カ4番地2", "url": "https://www.kaigokensaku.mhlw.go.jp/17/index.php?action_kouhyou_detail_004_kani=true&JigyosyoCd=1770600441-00&ServiceCd=210&Type=search", "url2": null }, "geometry": { "type": "Point", "coordinates": [ 136.384946899999932, 36.3216319 ] } },
{ "type": "Feature", "properties": { "内容": "特別養護老人ホーム　藤華苑【短期入所生活介護】石川県加賀市大聖寺東町1丁目26番地3", "url": "https://www.kaigokensaku.mhlw.go.jp/17/index.php?action_kouhyou_detail_004_kani=true&JigyosyoCd=1770600581-00&ServiceCd=210&Type=search", "url2": "http://www.tokuhoukai.jp" }, "geometry": { "type": "Point", "coordinates": [ 136.318784263893093, 36.305184071052039 ] } },
{ "type": "Feature", "properties": { "内容": "ショートステイちょくし【短期入所生活介護】石川県加賀市勅使町ル75番地1", "url": "https://www.kaigokensaku.mhlw.go.jp/17/index.php?action_kouhyou_detail_004_kani=true&JigyosyoCd=1770600714-00&ServiceCd=210&Type=search", "url2": "https://chokyuhukushi.jp/" }, "geometry": { "type": "Point", "coordinates": [ 136.3896268, 36.3012773 ] } },
{ "type": "Feature", "properties": { "内容": "ショートステイたきの里【短期入所生活介護】石川県加賀市山中温泉滝町リ1番1", "url": "https://www.kaigokensaku.mhlw.go.jp/17/index.php?action_kouhyou_detail_004_kani=true&JigyosyoCd=1770600698-00&ServiceCd=210&Type=search", "url2": "https://chokyuhukushi.jp/" }, "geometry": { "type": "Point", "coordinates": [ 136.4008259, 36.259183400000026 ] } },
{ "type": "Feature", "properties": { "内容": "ショートステイつかたに【短期入所生活介護】石川県加賀市山中温泉塚谷町2丁目132番地1", "url": "https://www.kaigokensaku.mhlw.go.jp/17/index.php?action_kouhyou_detail_004_kani=true&JigyosyoCd=1770600706-00&ServiceCd=210&Type=search", "url2": "https://chokyuhukushi.jp/" }, "geometry": { "type": "Point", "coordinates": [ 136.3673416, 36.2569327 ] } },
{ "type": "Feature", "properties": { "内容": "特別養護老人ホーム　はくいの郷【短期入所生活介護】石川県羽咋市島出町上１番地３", "url": "https://www.kaigokensaku.mhlw.go.jp/17/index.php?action_kouhyou_detail_004_kani=true&JigyosyoCd=1770700225-00&ServiceCd=210&Type=search", "url2": "koukenkai.com" }, "geometry": { "type": "Point", "coordinates": [ 136.771256520237785, 36.900392464528451 ] } },
{ "type": "Feature", "properties": { "内容": "眉丈園短期入所サービスセンター【短期入所生活介護】石川県羽咋市的場町稲荷山出口２６番地２", "url": "https://www.kaigokensaku.mhlw.go.jp/17/index.php?action_kouhyou_detail_004_kani=true&JigyosyoCd=1770700027-00&ServiceCd=210&Type=search", "url2": "http://www.bijyoukai.net/" }, "geometry": { "type": "Point", "coordinates": [ 136.7801643, 36.901981900000045 ] } },
{ "type": "Feature", "properties": { "内容": "ショートステイサービスセンターあいおい【短期入所生活介護】石川県かほく市宇気イ51番地1", "url": "https://www.kaigokensaku.mhlw.go.jp/17/index.php?action_kouhyou_detail_004_kani=true&JigyosyoCd=1772100283-00&ServiceCd=210&Type=search", "url2": "https//care-net.biz/17/" }, "geometry": { "type": "Point", "coordinates": [ 136.714208800000051, 36.7329244 ] } },
{ "type": "Feature", "properties": { "内容": "ことぶき園ショートステイ【短期入所生活介護】石川県かほく市学園台5丁目19番地1", "url": "https://www.kaigokensaku.mhlw.go.jp/17/index.php?action_kouhyou_detail_004_kani=true&JigyosyoCd=1772100010-00&ServiceCd=210&Type=search", "url2": "https://f-kotobukien.jp" }, "geometry": { "type": "Point", "coordinates": [ 136.729494292725406, 36.779883782553775 ] } },
{ "type": "Feature", "properties": { "内容": "あかしあ荘ショートステイサービスセンター【短期入所生活介護】石川県かほく市白尾タ220番地", "url": "https://www.kaigokensaku.mhlw.go.jp/17/index.php?action_kouhyou_detail_004_kani=true&JigyosyoCd=1772100028-00&ServiceCd=210&Type=search", "url2": "http://care-net.biz/17/aioikai/" }, "geometry": { "type": "Point", "coordinates": [ 136.695950950540151, 36.717641799428819 ] } },
{ "type": "Feature", "properties": { "内容": "サテライト芙蓉【短期入所生活介護】石川県かほく市学園台５丁目２９番地", "url": "https://www.kaigokensaku.mhlw.go.jp/17/index.php?action_kouhyou_detail_004_kani=true&JigyosyoCd=1772100218-00&ServiceCd=210&Type=search", "url2": "https://f-kotobukuen.jp/" }, "geometry": { "type": "Point", "coordinates": [ 136.730380300000036, 36.7797787 ] } },
{ "type": "Feature", "properties": { "内容": "ショートステイつるぎ【短期入所生活介護】石川県白山市鶴来水戸町ノ１番地", "url": "https://www.kaigokensaku.mhlw.go.jp/17/index.php?action_kouhyou_detail_004_kani=true&JigyosyoCd=1712210614-00&ServiceCd=210&Type=search", "url2": "http://www/tsurugihp.jp" }, "geometry": { "type": "Point", "coordinates": [ 136.623731600000042, 36.4472426 ] } },
{ "type": "Feature", "properties": { "内容": "美杉の郷【短期入所生活介護】白山市桑島４号８７番地５", "url": "https://www.kaigokensaku.mhlw.go.jp/17/index.php?action_kouhyou_detail_004_kani=true&JigyosyoCd=1772200257-00&ServiceCd=210&Type=search", "url2": "www.misuginosato.jp" }, "geometry": { "type": "Point", "coordinates": [ 136.627081800000042, 36.1917977 ] } },
{ "type": "Feature", "properties": { "内容": "特別養護老人ホーム福寿園　短期入所【短期入所生活介護】白山市山島台四丁目100番地", "url": "https://www.kaigokensaku.mhlw.go.jp/17/index.php?action_kouhyou_detail_004_kani=true&JigyosyoCd=1772200018-00&ServiceCd=210&Type=search", "url2": "http://www.fukujyukai.jp/" }, "geometry": { "type": "Point", "coordinates": [ 136.575819599999932, 36.4706687 ] } },
{ "type": "Feature", "properties": { "内容": "大門園短期入所生活介護センター【短期入所生活介護】石川県白山市佐良ロ123番地", "url": "https://www.kaigokensaku.mhlw.go.jp/17/index.php?action_kouhyou_detail_004_kani=true&JigyosyoCd=1772200224-00&ServiceCd=210&Type=search", "url2": "http://daimonen.or.jp" }, "geometry": { "type": "Point", "coordinates": [ 136.646557600000051, 36.324617 ] } },
{ "type": "Feature", "properties": { "内容": "つるべ荘【短期入所生活介護】一塚町1351番地１", "url": "https://www.kaigokensaku.mhlw.go.jp/17/index.php?action_kouhyou_detail_004_kani=true&JigyosyoCd=1772200125-00&ServiceCd=210&Type=search", "url2": "http://www.fukushikai-m.com" }, "geometry": { "type": "Point", "coordinates": [ 136.558919100000026, 36.5614951 ] } },
{ "type": "Feature", "properties": { "内容": "キラッと篤寿苑【短期入所生活介護】石川県白山市平加町ヌ110－1", "url": "https://www.kaigokensaku.mhlw.go.jp/17/index.php?action_kouhyou_detail_004_kani=true&JigyosyoCd=1772200133-00&ServiceCd=210&Type=search", "url2": "http://www.tokuhoukai.jp/" }, "geometry": { "type": "Point", "coordinates": [ 136.489173899999969, 36.4934807 ] } },
{ "type": "Feature", "properties": { "内容": "ケアハウス剣崎【短期入所生活介護】石川県白山市剣崎町1488番地", "url": "https://www.kaigokensaku.mhlw.go.jp/17/index.php?action_kouhyou_detail_004_kani=true&JigyosyoCd=1772200349-00&ServiceCd=210&Type=search", "url2": "htt://www.fukujyukai.jp" }, "geometry": { "type": "Point", "coordinates": [ 136.56513910000001, 36.4987597 ] } },
{ "type": "Feature", "properties": { "内容": "ショートステイ　あじさいの郷【短期入所生活介護】白山市明島町春130番地", "url": "https://www.kaigokensaku.mhlw.go.jp/17/index.php?action_kouhyou_detail_004_kani=true&JigyosyoCd=1772200208-00&ServiceCd=210&Type=search", "url2": "https://care-net.biz/17/ajisai2004/" }, "geometry": { "type": "Point", "coordinates": [ 136.61285190000001, 36.4610958 ] } },
{ "type": "Feature", "properties": { "内容": "ショートステイ　おかりや【短期入所生活介護】石川県白山市倉光三丁目８番地", "url": "https://www.kaigokensaku.mhlw.go.jp/17/index.php?action_kouhyou_detail_004_kani=true&JigyosyoCd=1772200794-00&ServiceCd=210&Type=search", "url2": "https://www.mattohp.jp/" }, "geometry": { "type": "Point", "coordinates": [ 136.565777700000012, 36.5110414 ] } },
{ "type": "Feature", "properties": { "内容": "特別養護老人ホーム松美苑【短期入所生活介護】石川県白山市笠間町1738番地", "url": "https://www.kaigokensaku.mhlw.go.jp/17/index.php?action_kouhyou_detail_004_kani=true&JigyosyoCd=1772200026-00&ServiceCd=210&Type=search", "url2": "http://www.fukujyukai.jp/kasama/index.html" }, "geometry": { "type": "Point", "coordinates": [ 136.522320700000023, 36.5025379 ] } },
{ "type": "Feature", "properties": { "内容": "地域密着型介護老人福祉施設　鶴来ふくまるハウス【短期入所生活介護】石川県白山市鶴来本町4丁目リ33番地3", "url": "https://www.kaigokensaku.mhlw.go.jp/17/index.php?action_kouhyou_detail_004_kani=true&JigyosyoCd=1772200398-00&ServiceCd=210&Type=search", "url2": "http://www.fukujyukai.jp/" }, "geometry": { "type": "Point", "coordinates": [ 136.6240443, 36.4543907 ] } },
{ "type": "Feature", "properties": { "内容": "特別養護老人ホーム湯寿園【短期入所生活介護】湯谷町乙88番地", "url": "https://www.kaigokensaku.mhlw.go.jp/17/index.php?action_kouhyou_detail_004_kani=true&JigyosyoCd=1772300057-00&ServiceCd=210&Type=search", "url2": null }, "geometry": { "type": "Point", "coordinates": [ 136.524228, 36.4361135 ] } },
{ "type": "Feature", "properties": { "内容": "指定短期入所生活介護　ボニュール根上苑【短期入所生活介護】能美市下ノ江町イ201-1", "url": "https://www.kaigokensaku.mhlw.go.jp/17/index.php?action_kouhyou_detail_004_kani=true&JigyosyoCd=1772300040-00&ServiceCd=210&Type=search", "url2": "https://kihoukai.jp" }, "geometry": { "type": "Point", "coordinates": [ 136.453472199999965, 36.4385405 ] } },
{ "type": "Feature", "properties": { "内容": "富樫苑ショートステイ事業所【短期入所生活介護】石川県野々市市中林4-62", "url": "https://www.kaigokensaku.mhlw.go.jp/17/index.php?action_kouhyou_detail_004_kani=true&JigyosyoCd=1771300173-00&ServiceCd=210&Type=search", "url2": "https://www.togashi-en.jp" }, "geometry": { "type": "Point", "coordinates": [ 136.600508, 36.5160576 ] } },
{ "type": "Feature", "properties": { "内容": "ショートステイかんじん【短期入所生活介護】石川県野々市市新庄二丁目４５番地", "url": "https://www.kaigokensaku.mhlw.go.jp/17/index.php?action_kouhyou_detail_004_kani=true&JigyosyoCd=1771300496-00&ServiceCd=210&Type=search", "url2": "https://yowakai.jp/kanjin/" }, "geometry": { "type": "Point", "coordinates": [ 136.609785, 36.4968101 ] } },
{ "type": "Feature", "properties": { "内容": "マナの家ショートステイ【短期入所生活介護】石川県野々市市本町１丁目２１番２号", "url": "https://www.kaigokensaku.mhlw.go.jp/17/index.php?action_kouhyou_detail_004_kani=true&JigyosyoCd=1771300421-00&ServiceCd=210&Type=search", "url2": "http://www.mananoie.com/" }, "geometry": { "type": "Point", "coordinates": [ 136.619620908589241, 36.535558177447236 ] } },
{ "type": "Feature", "properties": { "内容": "石川県野々市市蓮花寺町1番地1【短期入所生活介護】石川県野々市市蓮花寺町1番地1", "url": "https://www.kaigokensaku.mhlw.go.jp/17/index.php?action_kouhyou_detail_004_kani=true&JigyosyoCd=1751380252-00&ServiceCd=210&Type=search", "url2": "https://kanazawaminami.jp/" }, "geometry": { "type": "Point", "coordinates": [ 136.5911007, 36.5306308 ] } },
{ "type": "Feature", "properties": { "内容": "短期入所生活介護施設あがたの里【短期入所生活介護】石川県河北郡津幡町字能瀬イ1番地1あがたの里", "url": "https://www.kaigokensaku.mhlw.go.jp/17/index.php?action_kouhyou_detail_004_kani=true&JigyosyoCd=1771400148-00&ServiceCd=210&Type=search", "url2": "http://www.agata.ecnet.jp" }, "geometry": { "type": "Point", "coordinates": [ 136.726180500000027, 36.6895246 ] } },
{ "type": "Feature", "properties": { "内容": "ショートステイふぃらーじゅ【短期入所生活介護】石川県河北郡津幡町字東荒屋４１３番地", "url": "https://www.kaigokensaku.mhlw.go.jp/17/index.php?action_kouhyou_detail_004_kani=true&JigyosyoCd=1771400775-00&ServiceCd=210&Type=search", "url2": "http://www.feuillage.gr.jp/" }, "geometry": { "type": "Point", "coordinates": [ 136.750967, 36.6634122 ] } },
{ "type": "Feature", "properties": { "内容": "夕陽ヶ丘苑ショートステイ事業所【短期入所生活介護】河北郡内灘町字大学１丁目５番地１", "url": "https://www.kaigokensaku.mhlw.go.jp/17/index.php?action_kouhyou_detail_004_kani=true&JigyosyoCd=1771400098-00&ServiceCd=210&Type=search", "url2": "http://care-net.biz/17/yuuhigaokaen/" }, "geometry": { "type": "Point", "coordinates": [ 136.647652599999986, 36.659879 ] } },
{ "type": "Feature", "properties": { "内容": "ショートステイはまなす園【短期入所生活介護】羽咋郡志賀町赤住ハの４番地１", "url": "https://www.kaigokensaku.mhlw.go.jp/17/index.php?action_kouhyou_detail_004_kani=true&JigyosyoCd=1771500095-00&ServiceCd=210&Type=search", "url2": "http://www.hamanasuen.jp" }, "geometry": { "type": "Point", "coordinates": [ 136.740475400000037, 37.0498217 ] } },
{ "type": "Feature", "properties": { "内容": "志賀町ショートステイ【短期入所生活介護】石川県羽咋郡志賀町高浜町レの２４番地１", "url": "https://www.kaigokensaku.mhlw.go.jp/17/index.php?action_kouhyou_detail_004_kani=true&JigyosyoCd=1771500327-00&ServiceCd=210&Type=search", "url2": "http://www.hamanasuen.jp" }, "geometry": { "type": "Point", "coordinates": [ 136.772299400000065, 37.0075087 ] } },
{ "type": "Feature", "properties": { "内容": "特別養護老人ホーム　宝達苑【短期入所生活介護】石川県羽咋郡宝達志水町北川尻ニ部55番地", "url": "https://www.kaigokensaku.mhlw.go.jp/17/index.php?action_kouhyou_detail_004_kani=true&JigyosyoCd=1771500152-00&ServiceCd=210&Type=search", "url2": "http://koukenkai.com" }, "geometry": { "type": "Point", "coordinates": [ 136.749978798583925, 36.800188258240283 ] } },
{ "type": "Feature", "properties": { "内容": "ショートステイ　第二宝達苑【短期入所生活介護】石川県羽咋郡宝達志水町小川ハ２５０番地", "url": "https://www.kaigokensaku.mhlw.go.jp/17/index.php?action_kouhyou_detail_004_kani=true&JigyosyoCd=1771500368-00&ServiceCd=210&Type=search", "url2": "koukenkai.com" }, "geometry": { "type": "Point", "coordinates": [ 136.758680269836418, 36.821315938960971 ] } },
{ "type": "Feature", "properties": { "内容": "社会福祉法人渚会特別養護老人ホームちどり園【短期入所生活介護】石川県羽咋郡宝達志水町宿五号１０番地２", "url": "https://www.kaigokensaku.mhlw.go.jp/17/index.php?action_kouhyou_detail_004_kani=true&JigyosyoCd=1771500111-00&ServiceCd=210&Type=search", "url2": "www.nagisa-chidori.com" }, "geometry": { "type": "Point", "coordinates": [ 136.7756657, 36.8441142 ] } },
{ "type": "Feature", "properties": { "内容": "短期入所生活介護センター鹿寿苑【短期入所生活介護】石川県鹿島郡中能登町西馬場エ部５６番地", "url": "https://www.kaigokensaku.mhlw.go.jp/17/index.php?action_kouhyou_detail_004_kani=true&JigyosyoCd=1771600051-00&ServiceCd=210&Type=search", "url2": "https://www.rokujyuen.com" }, "geometry": { "type": "Point", "coordinates": [ 136.901381799999967, 36.9830497 ] } },
{ "type": "Feature", "properties": { "内容": "ほのぼの短期入所生活介護事業所「ほのぼの」【短期入所生活介護】石川県鹿島郡中能登町末坂2部33番地1", "url": "https://www.kaigokensaku.mhlw.go.jp/17/index.php?action_kouhyou_detail_004_kani=true&JigyosyoCd=1771600028-00&ServiceCd=210&Type=search", "url2": "http:/www.keiju.co.jp" }, "geometry": { "type": "Point", "coordinates": [ 136.902985079706752, 36.991532789654215 ] } },
{ "type": "Feature", "properties": { "内容": "特別養護老人ホーム能登穴水聖頌園【短期入所生活介護】鳳珠郡穴水町字岩車6,27の2番地", "url": "https://www.kaigokensaku.mhlw.go.jp/17/index.php?action_kouhyou_detail_004_kani=true&JigyosyoCd=1771700125-00&ServiceCd=210&Type=search", "url2": "https://www.bokuyoufukushikai.com/" }, "geometry": { "type": "Point", "coordinates": [ 136.960687199999938, 37.2112538 ] } },
{ "type": "Feature", "properties": { "内容": "地域密着型特別養護老人ホーム　第二穴水聖頌園【短期入所生活介護】石川健鳳珠郡穴水町字大町ほ17番1", "url": "https://www.kaigokensaku.mhlw.go.jp/17/index.php?action_kouhyou_detail_004_kani=true&JigyosyoCd=1771700448-00&ServiceCd=210&Type=search", "url2": "https://www.bokuyoufukushikai.com/contact/" }, "geometry": { "type": "Point", "coordinates": [ 136.903623814263909, 37.231066071981125 ] } },
{ "type": "Feature", "properties": { "内容": "特別養護老人ホーム第二長寿園【短期入所生活介護】石川県鳳珠郡能登町字布浦ノ字10番地3", "url": "https://www.kaigokensaku.mhlw.go.jp/17/index.php?action_kouhyou_detail_004_kani=true&JigyosyoCd=1771700265-00&ServiceCd=210&Type=search", "url2": "https://choujukai-isk" }, "geometry": { "type": "Point", "coordinates": [ 137.253179400000022, 37.3449061 ] } },
{ "type": "Feature", "properties": { "内容": "短期入所施設　石川県鳳寿荘【短期入所生活介護】能登町字藤波井字48-2", "url": "https://www.kaigokensaku.mhlw.go.jp/17/index.php?action_kouhyou_detail_004_kani=true&JigyosyoCd=1771700117-00&ServiceCd=210&Type=search", "url2": "http://care-net.biz./17/houjusou" }, "geometry": { "type": "Point", "coordinates": [ 137.134601, 37.307665 ] } },
{ "type": "Feature", "properties": { "内容": "短期入所生活介護こすもす【短期入所生活介護】石川県鳳珠郡能登町字五郎左エ門分藤17番地", "url": "https://www.kaigokensaku.mhlw.go.jp/17/index.php?action_kouhyou_detail_004_kani=true&JigyosyoCd=1771700174-00&ServiceCd=210&Type=search", "url2": "www.cosmos-seisyokai.com" }, "geometry": { "type": "Point", "coordinates": [ 137.087263485456816, 37.344784741620749 ] } }
]
}
