{
"type": "FeatureCollection",
"name": "geo_17_認知症対応型通所介護",
"crs": { "type": "name", "properties": { "name": "urn:ogc:def:crs:OGC:1.3:CRS84" } },
"features": [
{ "type": "Feature", "properties": { "内容": "ちょっこりネットみんちか【認知症対応型通所介護】金沢市北安江4丁目26番2号", "url2": "https://www.kaigokensaku.mhlw.go.jp/17/index.php?action_kouhyou_detail_004_kani=true&JigyosyoCd=1770102414-00&ServiceCd=720&Type=search" }, "geometry": { "type": "Point", "coordinates": [ 136.642119, 36.5874494 ] } },
{ "type": "Feature", "properties": { "内容": "城北クリニック【認知症対応型通所介護】金沢市京町２０番５０号", "url2": "https://www.kaigokensaku.mhlw.go.jp/17/index.php?action_kouhyou_detail_004_kani=true&JigyosyoCd=1710117688-00&ServiceCd=720&Type=search" }, "geometry": { "type": "Point", "coordinates": [ 136.656426600000032, 36.5829169 ] } },
{ "type": "Feature", "properties": { "内容": "デイサービスゆいま～る戸水【認知症対応型通所介護】石川県金沢市戸水１丁目２９３番地", "url2": "https://www.kaigokensaku.mhlw.go.jp/17/index.php?action_kouhyou_detail_004_kani=true&JigyosyoCd=1790101065-00&ServiceCd=720&Type=search" }, "geometry": { "type": "Point", "coordinates": [ 136.623356, 36.6031291 ] } },
{ "type": "Feature", "properties": { "内容": "ファミリーケア城南　認知症対応型通所介護【認知症対応型通所介護】金沢市城南1丁目21番21号", "url2": "https://www.kaigokensaku.mhlw.go.jp/17/index.php?action_kouhyou_detail_004_kani=true&JigyosyoCd=1790100059-00&ServiceCd=720&Type=search" }, "geometry": { "type": "Point", "coordinates": [ 136.672204599999986, 36.5447496 ] } },
{ "type": "Feature", "properties": { "内容": "デイサービスゆいま～る三口新町【認知症対応型通所介護】金沢市三口新町3-14-8", "url2": "https://www.kaigokensaku.mhlw.go.jp/17/index.php?action_kouhyou_detail_004_kani=true&JigyosyoCd=1790100414-00&ServiceCd=720&Type=search" }, "geometry": { "type": "Point", "coordinates": [ 136.67917639999996, 36.5459662 ] } },
{ "type": "Feature", "properties": { "内容": "バンザイフクスケ【認知症対応型通所介護】長坂1丁目4番43号", "url2": "https://www.kaigokensaku.mhlw.go.jp/17/index.php?action_kouhyou_detail_004_kani=true&JigyosyoCd=1790100935-00&ServiceCd=720&Type=search" }, "geometry": { "type": "Point", "coordinates": [ 136.633600900000062, 36.5318443 ] } },
{ "type": "Feature", "properties": { "内容": "デイサービスセンターゆいま～る【認知症対応型通所介護】金沢市米泉町8-38", "url2": "https://www.kaigokensaku.mhlw.go.jp/17/index.php?action_kouhyou_detail_004_kani=true&JigyosyoCd=1790100125-00&ServiceCd=720&Type=search" }, "geometry": { "type": "Point", "coordinates": [ 136.625093800000059, 36.5523312 ] } },
{ "type": "Feature", "properties": { "内容": "白南風デイサービスセンター【認知症対応型通所介護】石川県七尾市中島町鹿島台は部１４番４", "url2": "https://www.kaigokensaku.mhlw.go.jp/17/index.php?action_kouhyou_detail_004_kani=true&JigyosyoCd=1770200283-00&ServiceCd=720&Type=search" }, "geometry": { "type": "Point", "coordinates": [ 136.887602458583046, 37.131204818978851 ] } },
{ "type": "Feature", "properties": { "内容": "せーさん家【認知症対応型通所介護】石川県小松市吉竹町わ２", "url2": "https://www.kaigokensaku.mhlw.go.jp/17/index.php?action_kouhyou_detail_004_kani=true&JigyosyoCd=1790300204-00&ServiceCd=720&Type=search" }, "geometry": { "type": "Point", "coordinates": [ 136.479285900000036, 36.3906566 ] } },
{ "type": "Feature", "properties": { "内容": "有限会社陽だまり【認知症対応型通所介護】小松市吉竹町４丁目４０３", "url2": "https://www.kaigokensaku.mhlw.go.jp/17/index.php?action_kouhyou_detail_004_kani=true&JigyosyoCd=1770300240-00&ServiceCd=720&Type=search" }, "geometry": { "type": "Point", "coordinates": [ 136.471050200000036, 36.3953193 ] } },
{ "type": "Feature", "properties": { "内容": "デイサービスセンター　第二松寿園【認知症対応型通所介護】石川県小松市月津町ヲ９５番地", "url2": "https://www.kaigokensaku.mhlw.go.jp/17/index.php?action_kouhyou_detail_004_kani=true&JigyosyoCd=1770300182-00&ServiceCd=720&Type=search" }, "geometry": { "type": "Point", "coordinates": [ 136.414590099999941, 36.3515556 ] } },
{ "type": "Feature", "properties": { "内容": "デイサービスやたの【認知症対応型通所介護】矢田野町５１－２６番地", "url2": "https://www.kaigokensaku.mhlw.go.jp/17/index.php?action_kouhyou_detail_004_kani=true&JigyosyoCd=1790300139-00&ServiceCd=720&Type=search" }, "geometry": { "type": "Point", "coordinates": [ 136.420261699999969, 36.3339311 ] } },
{ "type": "Feature", "properties": { "内容": "デイ　ひなたぼっこ【認知症対応型通所介護】輪島市山本町矢本前15番地2", "url2": "https://www.kaigokensaku.mhlw.go.jp/17/index.php?action_kouhyou_detail_004_kani=true&JigyosyoCd=1790400012-00&ServiceCd=720&Type=search" }, "geometry": { "type": "Point", "coordinates": [ 136.876684599999976, 37.3767044 ] } },
{ "type": "Feature", "properties": { "内容": "あての木園ふげしデイサービスセンター【認知症対応型通所介護】石川県輪島市堀町９字２５番地あての木園ふげしデイサービスセンター", "url2": "https://www.kaigokensaku.mhlw.go.jp/17/index.php?action_kouhyou_detail_004_kani=true&JigyosyoCd=1790400129-00&ServiceCd=720&Type=search" }, "geometry": { "type": "Point", "coordinates": [ 136.894365200000038, 37.3962671 ] } },
{ "type": "Feature", "properties": { "内容": "ぬくもりの里【認知症対応型通所介護】片山津町北118番地", "url2": "https://www.kaigokensaku.mhlw.go.jp/17/index.php?action_kouhyou_detail_004_kani=true&JigyosyoCd=1790600256-00&ServiceCd=720&Type=search" }, "geometry": { "type": "Point", "coordinates": [ 136.37269230000004, 36.3412456 ] } },
{ "type": "Feature", "properties": { "内容": "デイサービス桜の園【認知症対応型通所介護】松が丘１丁目１５－１５", "url2": "https://www.kaigokensaku.mhlw.go.jp/17/index.php?action_kouhyou_detail_004_kani=true&JigyosyoCd=1770600243-00&ServiceCd=720&Type=search" }, "geometry": { "type": "Point", "coordinates": [ 135.599899, 34.8739331 ] } },
{ "type": "Feature", "properties": { "内容": "デイサービスぽぽ【認知症対応型通所介護】石川県かほく市高松ラ28番地28", "url2": "https://www.kaigokensaku.mhlw.go.jp/17/index.php?action_kouhyou_detail_004_kani=true&JigyosyoCd=1792100016-00&ServiceCd=720&Type=search" }, "geometry": { "type": "Point", "coordinates": [ 136.7252813, 36.7740832 ] } },
{ "type": "Feature", "properties": { "内容": "グループホーム　キラッと篤寿苑【認知症対応型通所介護】石川県白山市平加町ヌ１１０－１", "url2": "https://www.kaigokensaku.mhlw.go.jp/17/index.php?action_kouhyou_detail_004_kani=true&JigyosyoCd=1792200048-00&ServiceCd=720&Type=search" }, "geometry": { "type": "Point", "coordinates": [ 136.48988664150238, 36.493556204753183 ] } },
{ "type": "Feature", "properties": { "内容": "デイサービス太陽のひだまり徳光【認知症対応型通所介護】石川県白山市徳光町2665番地17", "url2": "https://www.kaigokensaku.mhlw.go.jp/17/index.php?action_kouhyou_detail_004_kani=true&JigyosyoCd=1792200147-00&ServiceCd=720&Type=search" }, "geometry": { "type": "Point", "coordinates": [ 136.530160600000045, 36.5360222 ] } },
{ "type": "Feature", "properties": { "内容": "デイサービス　くろゆり【認知症対応型通所介護】石川県白山市吉野東２－１", "url2": "https://www.kaigokensaku.mhlw.go.jp/17/index.php?action_kouhyou_detail_004_kani=true&JigyosyoCd=1792200071-00&ServiceCd=720&Type=search" }, "geometry": { "type": "Point", "coordinates": [ 136.6262767, 36.3509578 ] } },
{ "type": "Feature", "properties": { "内容": "デイサービス　わらべ【認知症対応型通所介護】三道山町ト11番地1", "url2": "https://www.kaigokensaku.mhlw.go.jp/17/index.php?action_kouhyou_detail_004_kani=true&JigyosyoCd=1792300178-00&ServiceCd=720&Type=search" }, "geometry": { "type": "Point", "coordinates": [ 136.506590599999981, 36.4475138 ] } },
{ "type": "Feature", "properties": { "内容": "地域サロン　よりみち【認知症対応型通所介護】能美市緑が丘九丁目５４番地", "url2": "https://www.kaigokensaku.mhlw.go.jp/17/index.php?action_kouhyou_detail_004_kani=true&JigyosyoCd=1792300053-00&ServiceCd=720&Type=search" }, "geometry": { "type": "Point", "coordinates": [ 136.5376073, 36.4394135 ] } },
{ "type": "Feature", "properties": { "内容": "イエローガーデン野々市【認知症対応型通所介護】石川県野々市市柳町36番2", "url2": "https://www.kaigokensaku.mhlw.go.jp/17/index.php?action_kouhyou_detail_004_kani=true&JigyosyoCd=1771300454-00&ServiceCd=720&Type=search" }, "geometry": { "type": "Point", "coordinates": [ 136.5844285, 36.5284545 ] } },
{ "type": "Feature", "properties": { "内容": "認知症対応型デイサービスひまわり【認知症対応型通所介護】石川県鹿島郡中能登町能登部上チ部30番地", "url2": "https://www.kaigokensaku.mhlw.go.jp/17/index.php?action_kouhyou_detail_004_kani=true&JigyosyoCd=1791600057-00&ServiceCd=720&Type=search" }, "geometry": { "type": "Point", "coordinates": [ 136.875783735581962, 36.966105864139109 ] } },
{ "type": "Feature", "properties": { "内容": "なかよしデイサービス【認知症対応型通所介護】石川県鳳珠郡能登町字瑞穂10字120番地", "url2": "https://www.kaigokensaku.mhlw.go.jp/17/index.php?action_kouhyou_detail_004_kani=true&JigyosyoCd=1791700097-00&ServiceCd=720&Type=search" }, "geometry": { "type": "Point", "coordinates": [ 137.040930584378316, 37.281554542749355 ] } },
{ "type": "Feature", "properties": { "内容": "認知症対応型デイサービスセンター　こすもす【認知症対応型通所介護】石川県鳳珠郡能登町字五郎左エ門分藤17番地", "url2": "https://www.kaigokensaku.mhlw.go.jp/17/index.php?action_kouhyou_detail_004_kani=true&JigyosyoCd=1791700055-00&ServiceCd=720&Type=search" }, "geometry": { "type": "Point", "coordinates": [ 137.087333222891203, 37.344729300367085 ] } },
{ "type": "Feature", "properties": { "内容": "ぽかぽか　でい【認知症対応型通所介護】石川県鳳珠郡能登町字上町ヘ部20番", "url2": "https://www.kaigokensaku.mhlw.go.jp/17/index.php?action_kouhyou_detail_004_kani=true&JigyosyoCd=1771700257-00&ServiceCd=720&Type=search" }, "geometry": { "type": "Point", "coordinates": [ 137.11325910611265, 37.35035827931604 ] } }
]
}
