{
"type": "FeatureCollection",
"name": "geo_17_4",
"crs": { "type": "name", "properties": { "name": "urn:ogc:def:crs:OGC:1.3:CRS84" } },
"features": [
{ "type": "Feature", "properties": { "ID": 1741241001, "正式名称": "ゆたか助産院", "機関区分": 4, "都道府県コード": 17, "市区町村コード": 206, "所在地": "石川県加賀市大聖寺本町３９番地２号", "緯度": 36.306335, "経度": 136.311745, "url": "https://www.iryou.teikyouseido.mhlw.go.jp/znk-web/juminkanja/S2430/initialize?prefCd=17&kikanCd=1241001&kikanKbn=4", "url2": "https://yutaka-mw.com", "内容": "ゆたか助産院【4:助産院】石川県加賀市大聖寺本町３９番地２号" }, "geometry": { "type": "Point", "coordinates": [ 136.311745, 36.306335 ] } },
{ "type": "Feature", "properties": { "ID": 1741241002, "正式名称": "わこ助産院", "機関区分": 4, "都道府県コード": 17, "市区町村コード": 206, "所在地": "石川県加賀市荒木町ニ２９甲", "緯度": 36.28359, "経度": 136.34531, "url": "https://www.iryou.teikyouseido.mhlw.go.jp/znk-web/juminkanja/S2430/initialize?prefCd=17&kikanCd=1241002&kikanKbn=4", "url2": null, "内容": "わこ助産院【4:助産院】石川県加賀市荒木町ニ２９甲" }, "geometry": { "type": "Point", "coordinates": [ 136.34531, 36.28359 ] } },
{ "type": "Feature", "properties": { "ID": 1741241004, "正式名称": "あゆみ助産院", "機関区分": 4, "都道府県コード": 17, "市区町村コード": 206, "所在地": "石川県加賀市松が丘３丁目１３番地９", "緯度": 36.322566, "経度": 136.336234, "url": "https://www.iryou.teikyouseido.mhlw.go.jp/znk-web/juminkanja/S2430/initialize?prefCd=17&kikanCd=1241004&kikanKbn=4", "url2": null, "内容": "あゆみ助産院【4:助産院】石川県加賀市松が丘３丁目１３番地９" }, "geometry": { "type": "Point", "coordinates": [ 136.336234, 36.322566 ] } },
{ "type": "Feature", "properties": { "ID": 1742140001, "正式名称": "すみれ助産院", "機関区分": 4, "都道府県コード": 17, "市区町村コード": 210, "所在地": "石川県白山市山島台１丁目４７番地", "緯度": 36.471313, "経度": 136.579875, "url": "https://www.iryou.teikyouseido.mhlw.go.jp/znk-web/juminkanja/S2430/initialize?prefCd=17&kikanCd=2140001&kikanKbn=4", "url2": null, "内容": "すみれ助産院【4:助産院】石川県白山市山島台１丁目４７番地" }, "geometry": { "type": "Point", "coordinates": [ 136.579875, 36.471313 ] } },
{ "type": "Feature", "properties": { "ID": 1742140002, "正式名称": "助産院　いのちの森", "機関区分": 4, "都道府県コード": 17, "市区町村コード": 210, "所在地": "石川県白山市藤木町２５５－２", "緯度": 36.482253, "経度": 136.5828, "url": "https://www.iryou.teikyouseido.mhlw.go.jp/znk-web/juminkanja/S2430/initialize?prefCd=17&kikanCd=2140002&kikanKbn=4", "url2": "https://inochinomoristyle.jimdo.com/", "内容": "助産院　いのちの森【4:助産院】石川県白山市藤木町２５５－２" }, "geometry": { "type": "Point", "coordinates": [ 136.5828, 36.482253 ] } },
{ "type": "Feature", "properties": { "ID": 1742140003, "正式名称": "どんぐり助産院", "機関区分": 4, "都道府県コード": 17, "市区町村コード": 210, "所在地": "石川県白山市荒屋町に９５ー３", "緯度": 36.482723, "経度": 136.606616, "url": "https://www.iryou.teikyouseido.mhlw.go.jp/znk-web/juminkanja/S2430/initialize?prefCd=17&kikanCd=2140003&kikanKbn=4", "url2": "https://donguri-sanba.com/", "内容": "どんぐり助産院【4:助産院】石川県白山市荒屋町に９５ー３" }, "geometry": { "type": "Point", "coordinates": [ 136.606616, 36.482723 ] } },
{ "type": "Feature", "properties": { "ID": 1742240002, "正式名称": "たらちね助産院", "機関区分": 4, "都道府県コード": 17, "市区町村コード": 201, "所在地": "石川県金沢市七ツ屋町二５－１", "緯度": 36.589331, "経度": 136.649823, "url": "https://www.iryou.teikyouseido.mhlw.go.jp/znk-web/juminkanja/S2430/initialize?prefCd=17&kikanCd=2240002&kikanKbn=4", "url2": "https://tarachine-ishikawa.jimdo.free.com/", "内容": "たらちね助産院【4:助産院】石川県金沢市七ツ屋町二５－１" }, "geometry": { "type": "Point", "coordinates": [ 136.649823, 36.589331 ] } },
{ "type": "Feature", "properties": { "ID": 1742240004, "正式名称": "頼助産院（子そだて応援１２ＳＵＮ相談室）", "機関区分": 4, "都道府県コード": 17, "市区町村コード": 365, "所在地": "石川県河北郡内灘町鶴ヶ丘１−２９６−２", "緯度": 36.639675, "経度": 136.641592, "url": "https://www.iryou.teikyouseido.mhlw.go.jp/znk-web/juminkanja/S2430/initialize?prefCd=17&kikanCd=2240004&kikanKbn=4", "url2": "http://www.rai-jyosanin.com", "内容": "頼助産院（子そだて応援１２ＳＵＮ相談室）【4:助産院】石川県河北郡内灘町鶴ヶ丘１−２９６−２" }, "geometry": { "type": "Point", "coordinates": [ 136.641592, 36.639675 ] } },
{ "type": "Feature", "properties": { "ID": 174327, "正式名称": "まき助産院", "機関区分": 4, "都道府県コード": 17, "市区町村コード": 210, "所在地": "石川県白山市千代野西３丁目３－１０", "緯度": 36.523061, "経度": 136.536358, "url": "https://www.iryou.teikyouseido.mhlw.go.jp/znk-web/juminkanja/S2430/initialize?prefCd=17&kikanCd=327&kikanKbn=4", "url2": null, "内容": "まき助産院【4:助産院】石川県白山市千代野西３丁目３－１０" }, "geometry": { "type": "Point", "coordinates": [ 136.536358, 36.523061 ] } },
{ "type": "Feature", "properties": { "ID": 174507, "正式名称": "くじら助産院", "機関区分": 4, "都道府県コード": 17, "市区町村コード": 203, "所在地": "石川県小松市埴田町ト６番地１", "緯度": 36.404979, "経度": 136.516966, "url": "https://www.iryou.teikyouseido.mhlw.go.jp/znk-web/juminkanja/S2430/initialize?prefCd=17&kikanCd=507&kikanKbn=4", "url2": "https://kujirajosanin.com/", "内容": "くじら助産院【4:助産院】石川県小松市埴田町ト６番地１" }, "geometry": { "type": "Point", "coordinates": [ 136.516966, 36.404979 ] } },
{ "type": "Feature", "properties": { "ID": 1745140003, "正式名称": "ひだまりの家助産院", "機関区分": 4, "都道府県コード": 17, "市区町村コード": 201, "所在地": "石川県金沢市大友１丁目３１１", "緯度": 36.601744, "経度": 136.629206, "url": "https://www.iryou.teikyouseido.mhlw.go.jp/znk-web/juminkanja/S2430/initialize?prefCd=17&kikanCd=5140003&kikanKbn=4", "url2": null, "内容": "ひだまりの家助産院【4:助産院】石川県金沢市大友１丁目３１１" }, "geometry": { "type": "Point", "coordinates": [ 136.629206, 36.601744 ] } },
{ "type": "Feature", "properties": { "ID": 1745140004, "正式名称": "ひまわり助産院", "機関区分": 4, "都道府県コード": 17, "市区町村コード": 201, "所在地": "石川県金沢市泉野出町４丁目１３－２２", "緯度": 36.535006, "経度": 136.651606, "url": "https://www.iryou.teikyouseido.mhlw.go.jp/znk-web/juminkanja/S2430/initialize?prefCd=17&kikanCd=5140004&kikanKbn=4", "url2": null, "内容": "ひまわり助産院【4:助産院】石川県金沢市泉野出町４丁目１３－２２" }, "geometry": { "type": "Point", "coordinates": [ 136.651606, 36.535006 ] } },
{ "type": "Feature", "properties": { "ID": 1745140005, "正式名称": "星の子助産院", "機関区分": 4, "都道府県コード": 17, "市区町村コード": 201, "所在地": "石川県金沢市大友町ハ３７番地７", "緯度": 36.604728, "経度": 136.625869, "url": "https://www.iryou.teikyouseido.mhlw.go.jp/znk-web/juminkanja/S2430/initialize?prefCd=17&kikanCd=5140005&kikanKbn=4", "url2": null, "内容": "星の子助産院【4:助産院】石川県金沢市大友町ハ３７番地７" }, "geometry": { "type": "Point", "coordinates": [ 136.625869, 36.604728 ] } },
{ "type": "Feature", "properties": { "ID": 1745140006, "正式名称": "山本助産院", "機関区分": 4, "都道府県コード": 17, "市区町村コード": 201, "所在地": "石川県金沢市新保本１丁目２２２番地", "緯度": 36.549684, "経度": 136.605793, "url": "https://www.iryou.teikyouseido.mhlw.go.jp/znk-web/juminkanja/S2430/initialize?prefCd=17&kikanCd=5140006&kikanKbn=4", "url2": null, "内容": "山本助産院【4:助産院】石川県金沢市新保本１丁目２２２番地" }, "geometry": { "type": "Point", "coordinates": [ 136.605793, 36.549684 ] } },
{ "type": "Feature", "properties": { "ID": 1745140011, "正式名称": "森木真美母乳育児相談室", "機関区分": 4, "都道府県コード": 17, "市区町村コード": 201, "所在地": "石川県金沢市笠舞２丁目２０番１６号", "緯度": 36.551334, "経度": 136.671373, "url": "https://www.iryou.teikyouseido.mhlw.go.jp/znk-web/juminkanja/S2430/initialize?prefCd=17&kikanCd=5140011&kikanKbn=4", "url2": "http://moriki-oketani.com/", "内容": "森木真美母乳育児相談室【4:助産院】石川県金沢市笠舞２丁目２０番１６号" }, "geometry": { "type": "Point", "coordinates": [ 136.671373, 36.551334 ] } },
{ "type": "Feature", "properties": { "ID": 1745140014, "正式名称": "しのぶ助産院", "機関区分": 4, "都道府県コード": 17, "市区町村コード": 201, "所在地": "石川県金沢市松村", "緯度": 36.585734, "経度": 136.613649, "url": "https://www.iryou.teikyouseido.mhlw.go.jp/znk-web/juminkanja/S2430/initialize?prefCd=17&kikanCd=5140014&kikanKbn=4", "url2": null, "内容": "しのぶ助産院【4:助産院】石川県金沢市松村" }, "geometry": { "type": "Point", "coordinates": [ 136.613649, 36.585734 ] } },
{ "type": "Feature", "properties": { "ID": 174538, "正式名称": "助産院ｍｕｒｏ", "機関区分": 4, "都道府県コード": 17, "市区町村コード": 386, "所在地": "石川県羽咋郡宝達志水町柳瀬", "緯度": 36.859769, "経度": 136.778743, "url": "https://www.iryou.teikyouseido.mhlw.go.jp/znk-web/juminkanja/S2430/initialize?prefCd=17&kikanCd=538&kikanKbn=4", "url2": null, "内容": "助産院ｍｕｒｏ【4:助産院】石川県羽咋郡宝達志水町柳瀬" }, "geometry": { "type": "Point", "coordinates": [ 136.778743, 36.859769 ] } },
{ "type": "Feature", "properties": { "ID": 174540, "正式名称": "まなゆり助産院", "機関区分": 4, "都道府県コード": 17, "市区町村コード": 201, "所在地": "石川県金沢市大額１丁目６１番地", "緯度": 36.515494, "経度": 136.620722, "url": "https://www.iryou.teikyouseido.mhlw.go.jp/znk-web/juminkanja/S2430/initialize?prefCd=17&kikanCd=540&kikanKbn=4", "url2": "https://www.manayuri-707.com/", "内容": "まなゆり助産院【4:助産院】石川県金沢市大額１丁目６１番地" }, "geometry": { "type": "Point", "coordinates": [ 136.620722, 36.515494 ] } },
{ "type": "Feature", "properties": { "ID": 174766, "正式名称": "あじさい助産院", "機関区分": 4, "都道府県コード": 17, "市区町村コード": 201, "所在地": "石川県金沢市玉鉾２－３８３－１", "緯度": 36.572386, "経度": 136.621146, "url": "https://www.iryou.teikyouseido.mhlw.go.jp/znk-web/juminkanja/S2430/initialize?prefCd=17&kikanCd=766&kikanKbn=4", "url2": null, "内容": "あじさい助産院【4:助産院】石川県金沢市玉鉾２－３８３－１" }, "geometry": { "type": "Point", "coordinates": [ 136.621146, 36.572386 ] } },
{ "type": "Feature", "properties": { "ID": 174767, "正式名称": "助産院　Ｆｕｍｉｙｏ　Ｍｉｄｗｉｆｅｒｙ", "機関区分": 4, "都道府県コード": 17, "市区町村コード": 212, "所在地": "石川県野々市市御経塚１丁目１３９", "緯度": 36.544647, "経度": 136.597874, "url": "https://www.iryou.teikyouseido.mhlw.go.jp/znk-web/juminkanja/S2430/initialize?prefCd=17&kikanCd=767&kikanKbn=4", "url2": "https://fumiyo-midwifery.jimdosite.com/", "内容": "助産院　Ｆｕｍｉｙｏ　Ｍｉｄｗｉｆｅｒｙ【4:助産院】石川県野々市市御経塚１丁目１３９" }, "geometry": { "type": "Point", "coordinates": [ 136.597874, 36.544647 ] } },
{ "type": "Feature", "properties": { "ID": 174771, "正式名称": "たんぽぽ助産院", "機関区分": 4, "都道府県コード": 17, "市区町村コード": 201, "所在地": "石川県金沢市三口新町２－１１－１６", "緯度": 36.538953, "経度": 136.681831, "url": "https://www.iryou.teikyouseido.mhlw.go.jp/znk-web/juminkanja/S2430/initialize?prefCd=17&kikanCd=771&kikanKbn=4", "url2": null, "内容": "たんぽぽ助産院【4:助産院】石川県金沢市三口新町２－１１－１６" }, "geometry": { "type": "Point", "coordinates": [ 136.681831, 36.538953 ] } },
{ "type": "Feature", "properties": { "ID": 174781, "正式名称": "母乳育児サポート美芳助産院", "機関区分": 4, "都道府県コード": 17, "市区町村コード": 201, "所在地": "石川県金沢市新神田３－３－１３", "緯度": 36.561582, "経度": 136.631077, "url": "https://www.iryou.teikyouseido.mhlw.go.jp/znk-web/juminkanja/S2430/initialize?prefCd=17&kikanCd=781&kikanKbn=4", "url2": "https://miho-josan-in.com/", "内容": "母乳育児サポート美芳助産院【4:助産院】石川県金沢市新神田３－３－１３" }, "geometry": { "type": "Point", "coordinates": [ 136.631077, 36.561582 ] } },
{ "type": "Feature", "properties": { "ID": 174797, "正式名称": "やえ助産院", "機関区分": 4, "都道府県コード": 17, "市区町村コード": 210, "所在地": "石川県白山市みずほ２－８－３", "緯度": 36.492647, "経度": 136.584764, "url": "https://www.iryou.teikyouseido.mhlw.go.jp/znk-web/juminkanja/S2430/initialize?prefCd=17&kikanCd=797&kikanKbn=4", "url2": null, "内容": "やえ助産院【4:助産院】石川県白山市みずほ２－８－３" }, "geometry": { "type": "Point", "coordinates": [ 136.584764, 36.492647 ] } },
{ "type": "Feature", "properties": { "ID": 174809, "正式名称": "しらうめ助産院", "機関区分": 4, "都道府県コード": 17, "市区町村コード": 201, "所在地": "石川県金沢市泉野町３丁目１８番４号", "緯度": 36.546947, "経度": 136.650706, "url": "https://www.iryou.teikyouseido.mhlw.go.jp/znk-web/juminkanja/S2430/initialize?prefCd=17&kikanCd=809&kikanKbn=4", "url2": null, "内容": "しらうめ助産院【4:助産院】石川県金沢市泉野町３丁目１８番４号" }, "geometry": { "type": "Point", "coordinates": [ 136.650706, 36.546947 ] } },
{ "type": "Feature", "properties": { "ID": 174811, "正式名称": "くじら助産院ファミリーサロン", "機関区分": 4, "都道府県コード": 17, "市区町村コード": 211, "所在地": "石川県能美市小杉町イ２０３－７", "緯度": 36.422919, "経度": 136.484034, "url": "https://www.iryou.teikyouseido.mhlw.go.jp/znk-web/juminkanja/S2430/initialize?prefCd=17&kikanCd=811&kikanKbn=4", "url2": "kujirajosanin.com", "内容": "くじら助産院ファミリーサロン【4:助産院】石川県能美市小杉町イ２０３－７" }, "geometry": { "type": "Point", "coordinates": [ 136.484034, 36.422919 ] } }
]
}
