{
"type": "FeatureCollection",
"name": "geo_17_各種学校",
"crs": { "type": "name", "properties": { "name": "urn:ogc:def:crs:EPSG::6668" } },
"features": [
{ "type": "Feature", "properties": { "P29_001": "17201", "P29_002": "H217320100012", "P29_003": "16015", "P29_004": "泉丘文化服装学院", "P29_005": "石川県金沢市寺町2-7-10", "P29_006": "4", "P29_007": "0", "P29_008": "00", "P29_009": null }, "geometry": { "type": "Point", "coordinates": [ 136.656026782898351, 36.548708933588244 ] } },
{ "type": "Feature", "properties": { "P29_001": "17201", "P29_002": "H217320100021", "P29_003": "16015", "P29_004": "石川高等編物学校", "P29_005": "石川県金沢市尾山町5-7", "P29_006": "4", "P29_007": "0", "P29_008": "00", "P29_009": null }, "geometry": { "type": "Point", "coordinates": [ 136.655348568971618, 36.569352744515335 ] } },
{ "type": "Feature", "properties": { "P29_001": "17201", "P29_002": "H217320100030", "P29_003": "16015", "P29_004": "青木クッキングスクール", "P29_005": "石川県金沢市長町1-1-17", "P29_006": "4", "P29_007": "0", "P29_008": "00", "P29_009": null }, "geometry": { "type": "Point", "coordinates": [ 136.650742728966179, 36.562978824452721 ] } },
{ "type": "Feature", "properties": { "P29_001": "17201", "P29_002": "H217320100049", "P29_003": "16015", "P29_004": "大徳自動車学校", "P29_005": "石川県金沢市松村5-96", "P29_006": "4", "P29_007": "0", "P29_008": "00", "P29_009": null }, "geometry": { "type": "Point", "coordinates": [ 136.611926495555394, 36.590831566250628 ] } },
{ "type": "Feature", "properties": { "P29_001": "17201", "P29_002": "H217320100058", "P29_003": "16015", "P29_004": "東部自動車学校", "P29_005": "石川県金沢市横枕町ロ8", "P29_006": "4", "P29_007": "0", "P29_008": "00", "P29_009": null }, "geometry": { "type": "Point", "coordinates": [ 136.680309133230224, 36.606162877810171 ] } },
{ "type": "Feature", "properties": { "P29_001": "17201", "P29_002": "H217320100067", "P29_003": "16015", "P29_004": "ドライビングスクールエクシール城東", "P29_005": "石川県金沢市松寺町申100", "P29_006": "4", "P29_007": "0", "P29_008": "00", "P29_009": null }, "geometry": { "type": "Point", "coordinates": [ 136.657842619509211, 36.604882765994944 ] } },
{ "type": "Feature", "properties": { "P29_001": "17201", "P29_002": "H217320100085", "P29_003": "16015", "P29_004": "金沢駅西予備校", "P29_005": "石川県金沢市駅西本町1-1-31", "P29_006": "4", "P29_007": "0", "P29_008": "00", "P29_009": null }, "geometry": { "type": "Point", "coordinates": [ 136.640485760093583, 36.578623377598248 ] } },
{ "type": "Feature", "properties": { "P29_001": "17201", "P29_002": "H217320100094", "P29_003": "16015", "P29_004": "かなざわ和裁学院", "P29_005": "石川県金沢市松島3-70", "P29_006": "4", "P29_007": "0", "P29_008": "00", "P29_009": null }, "geometry": { "type": "Point", "coordinates": [ 136.603181434571752, 36.565994071497649 ] } },
{ "type": "Feature", "properties": { "P29_001": "17202", "P29_002": "H217320200011", "P29_003": "16015", "P29_004": "七尾自動車学校", "P29_005": "石川県七尾市古府町南谷21", "P29_006": "4", "P29_007": "0", "P29_008": "00", "P29_009": null }, "geometry": { "type": "Point", "coordinates": [ 136.966505276043705, 37.020952025032386 ] } },
{ "type": "Feature", "properties": { "P29_001": "17203", "P29_002": "H217320300010", "P29_003": "16015", "P29_004": "石川県加南自動車学校", "P29_005": "石川県小松市今江町ち94-1", "P29_006": "4", "P29_007": "0", "P29_008": "00", "P29_009": null }, "geometry": { "type": "Point", "coordinates": [ 136.438857980096998, 36.374081785263208 ] } },
{ "type": "Feature", "properties": { "P29_001": "17203", "P29_002": "H217320300029", "P29_003": "16015", "P29_004": "こまつ自動車学校", "P29_005": "石川県小松市平面町イ74", "P29_006": "4", "P29_007": "0", "P29_008": "00", "P29_009": null }, "geometry": { "type": "Point", "coordinates": [ 136.470967758455259, 36.415432290618682 ] } },
{ "type": "Feature", "properties": { "P29_001": "17203", "P29_002": "H217320300038", "P29_003": "16015", "P29_004": "小松市医師会附属小松准看護学院", "P29_005": "石川県小松市本町2-12", "P29_006": "4", "P29_007": "0", "P29_008": "00", "P29_009": null }, "geometry": { "type": "Point", "coordinates": [ 136.449132976731761, 36.407467644015533 ] } },
{ "type": "Feature", "properties": { "P29_001": "17204", "P29_002": "H217320400019", "P29_003": "16015", "P29_004": "輪島綜合自動車学校", "P29_005": "石川県輪島市横地町9字90", "P29_006": "4", "P29_007": "0", "P29_008": "00", "P29_009": null }, "geometry": { "type": "Point", "coordinates": [ 136.906658188245956, 37.371394033889075 ] } },
{ "type": "Feature", "properties": { "P29_001": "17206", "P29_002": "H217320600017", "P29_003": "16015", "P29_004": "加賀自動車学校", "P29_005": "石川県加賀市津波倉町ロ-53", "P29_006": "4", "P29_007": "0", "P29_008": "00", "P29_009": null }, "geometry": { "type": "Point", "coordinates": [ 136.378631394028844, 36.310761500942405 ] } },
{ "type": "Feature", "properties": { "P29_001": "17207", "P29_002": "H217320700016", "P29_003": "16015", "P29_004": "千里浜なぎさドライビングスクール", "P29_005": "石川県羽咋市千里浜町ソ3", "P29_006": "4", "P29_007": "0", "P29_008": "00", "P29_009": null }, "geometry": { "type": "Point", "coordinates": [ 136.769186542558373, 36.89775728364404 ] } },
{ "type": "Feature", "properties": { "P29_001": "17209", "P29_002": "H217320900014", "P29_003": "16015", "P29_004": "太陽自動車学校", "P29_005": "石川県かほく市七窪ヲ-3", "P29_006": "4", "P29_007": "0", "P29_008": "00", "P29_009": null }, "geometry": { "type": "Point", "coordinates": [ 136.705857922922121, 36.732910842526692 ] } },
{ "type": "Feature", "properties": { "P29_001": "17210", "P29_002": "H217321000011", "P29_003": "16015", "P29_004": "北陸中部自動車学校", "P29_005": "石川県白山市上安田町239", "P29_006": "4", "P29_007": "0", "P29_008": "00", "P29_009": null }, "geometry": { "type": "Point", "coordinates": [ 136.540711308275064, 36.478087969421644 ] } },
{ "type": "Feature", "properties": { "P29_001": "17212", "P29_002": "H217321200019", "P29_003": "16015", "P29_004": "北鉄自動車学校", "P29_005": "石川県野々市市蓮花寺町230", "P29_006": "4", "P29_007": "0", "P29_008": "00", "P29_009": null }, "geometry": { "type": "Point", "coordinates": [ 136.593860479346631, 36.529503331642182 ] } },
{ "type": "Feature", "properties": { "P29_001": "17463", "P29_002": "H217346300015", "P29_003": "16015", "P29_004": "能登自動車学校", "P29_005": "石川県鳳珠郡能登町字布浦タ字74", "P29_006": "4", "P29_007": "0", "P29_008": "00", "P29_009": null }, "geometry": { "type": "Point", "coordinates": [ 137.249711812880292, 37.348518259722916 ] } }
]
}
