{
"type": "FeatureCollection",
"name": "geo_17_特別支援学校",
"crs": { "type": "name", "properties": { "name": "urn:ogc:def:crs:EPSG::6668" } },
"features": [
{ "type": "Feature", "properties": { "P29_001": "17201", "P29_002": "E117110000015", "P29_003": "16012", "P29_004": "金沢大学人間社会学域学校教育学類附属特別支援学校", "P29_005": "石川県金沢市東兼六町2-10", "P29_006": "1", "P29_007": "0", "P29_008": "00", "P29_009": null }, "geometry": { "type": "Point", "coordinates": [ 136.666065033435871, 36.562693198799472 ] } },
{ "type": "Feature", "properties": { "P29_001": "17201", "P29_002": "E117220100011", "P29_003": "16012", "P29_004": "石川県立盲学校", "P29_005": "石川県金沢市小立野5-3-1", "P29_006": "2", "P29_007": "0", "P29_008": "00", "P29_009": null }, "geometry": { "type": "Point", "coordinates": [ 136.677383528109715, 36.553591477908256 ] } },
{ "type": "Feature", "properties": { "P29_001": "17201", "P29_002": "E117220100020", "P29_003": "16012", "P29_004": "石川県立ろう学校", "P29_005": "石川県金沢市窪6-218", "P29_006": "2", "P29_007": "0", "P29_008": "00", "P29_009": null }, "geometry": { "type": "Point", "coordinates": [ 136.642303191498968, 36.529583325043269 ] } },
{ "type": "Feature", "properties": { "P29_001": "17201", "P29_002": "E117220100039", "P29_003": "16012", "P29_004": "石川県立医王特別支援学校", "P29_005": "石川県金沢市岩出町ホ1", "P29_006": "2", "P29_007": "0", "P29_008": "00", "P29_009": null }, "geometry": { "type": "Point", "coordinates": [ 136.702406351149932, 36.611572539503392 ] } },
{ "type": "Feature", "properties": { "P29_001": "17201", "P29_002": "E117220100048", "P29_003": "16012", "P29_004": "石川県立いしかわ特別支援学校", "P29_005": "石川県金沢市南森本町リ1-1", "P29_006": "2", "P29_007": "0", "P29_008": "00", "P29_009": null }, "geometry": { "type": "Point", "coordinates": [ 136.694348733969491, 36.614287793070439 ] } },
{ "type": "Feature", "properties": { "P29_001": "17202", "P29_002": "E117220200010", "P29_003": "16012", "P29_004": "石川県立七尾特別支援学校", "P29_005": "石川県七尾市下町己部54", "P29_006": "2", "P29_007": "0", "P29_008": "00", "P29_009": null }, "geometry": { "type": "Point", "coordinates": [ 136.934467112989978, 37.017157537293137 ] } },
{ "type": "Feature", "properties": { "P29_001": "17203", "P29_002": "E117220300019", "P29_003": "16012", "P29_004": "石川県立小松特別支援学校", "P29_005": "石川県小松市金平町丁76", "P29_006": "2", "P29_007": "0", "P29_008": "00", "P29_009": null }, "geometry": { "type": "Point", "coordinates": [ 136.507635806965624, 36.354841058382981 ] } },
{ "type": "Feature", "properties": { "P29_001": "17203", "P29_002": "E117220300028", "P29_003": "16012", "P29_004": "石川県立小松瀬領特別支援学校", "P29_005": "石川県小松市瀬領町丁138-1", "P29_006": "2", "P29_007": "0", "P29_008": "00", "P29_009": null }, "geometry": { "type": "Point", "coordinates": [ 136.485963170656902, 36.329995453072407 ] } },
{ "type": "Feature", "properties": { "P29_001": "17203", "P29_002": "E117220300037", "P29_003": "16012", "P29_004": "石川県立医王特別支援学校小松みどり分校", "P29_005": "石川県小松市向本折町ヘ14-1", "P29_006": "2", "P29_007": "0", "P29_008": "00", "P29_009": null }, "geometry": { "type": "Point", "coordinates": [ 136.438418489313278, 36.398645741829505 ] } },
{ "type": "Feature", "properties": { "P29_001": "17204", "P29_002": "E117220400018", "P29_003": "16012", "P29_004": "石川県立七尾特別支援学校輪島分校", "P29_005": "石川県輪島市門前町広岡5-3", "P29_006": "2", "P29_007": "0", "P29_008": "00", "P29_009": null }, "geometry": { "type": "Point", "coordinates": [ 136.767815271845478, 37.286222713644847 ] } },
{ "type": "Feature", "properties": { "P29_001": "17205", "P29_002": "E117220500017", "P29_003": "16012", "P29_004": "石川県立七尾特別支援学校珠洲分校", "P29_005": "石川県珠洲市宝立町鵜飼6-20", "P29_006": "2", "P29_007": "0", "P29_008": "00", "P29_009": null }, "geometry": { "type": "Point", "coordinates": [ 137.238757895873789, 37.403356040621439 ] } },
{ "type": "Feature", "properties": { "P29_001": "17206", "P29_002": "E117220600016", "P29_003": "16012", "P29_004": "石川県立錦城特別支援学校", "P29_005": "石川県加賀市豊町イ120-1", "P29_006": "2", "P29_007": "0", "P29_008": "00", "P29_009": null }, "geometry": { "type": "Point", "coordinates": [ 136.310843212896714, 36.3255394124715 ] } },
{ "type": "Feature", "properties": { "P29_001": "17212", "P29_002": "E117221200018", "P29_003": "16012", "P29_004": "石川県立明和特別支援学校", "P29_005": "石川県野々市市中林4-70", "P29_006": "2", "P29_007": "0", "P29_008": "00", "P29_009": null }, "geometry": { "type": "Point", "coordinates": [ 136.600856380366253, 36.515164609361982 ] } }
]
}
