{
"type": "FeatureCollection",
"name": "geo_17_中学校",
"crs": { "type": "name", "properties": { "name": "urn:ogc:def:crs:EPSG::6668" } },
"features": [
{ "type": "Feature", "properties": { "P29_001": "17201", "P29_002": "C117110000010", "P29_003": "16002", "P29_004": "金沢大学人間社会学域学校教育学類附属中学校", "P29_005": "石川県金沢市平和町1-1-15", "P29_006": "1", "P29_007": "1", "P29_008": "00", "P29_009": null }, "geometry": { "type": "Point", "coordinates": [ 136.665589121951541, 36.537454611435123 ] } },
{ "type": "Feature", "properties": { "P29_001": "17201", "P29_002": "C117220100016", "P29_003": "16002", "P29_004": "金沢市立泉中学校", "P29_005": "石川県金沢市弥生1-26-1", "P29_006": "3", "P29_007": "1", "P29_008": "00", "P29_009": null }, "geometry": { "type": "Point", "coordinates": [ 136.646679719363107, 36.549139101297406 ] } },
{ "type": "Feature", "properties": { "P29_001": "17201", "P29_002": "C117220100025", "P29_003": "16002", "P29_004": "金沢市立野田中学校", "P29_005": "石川県金沢市若草町1-23", "P29_006": "3", "P29_007": "1", "P29_008": "00", "P29_009": null }, "geometry": { "type": "Point", "coordinates": [ 136.657618939018676, 36.544143857319348 ] } },
{ "type": "Feature", "properties": { "P29_001": "17201", "P29_002": "C117220100034", "P29_003": "16002", "P29_004": "金沢市立城南中学校", "P29_005": "石川県金沢市城南1-24-1", "P29_006": "3", "P29_007": "1", "P29_008": "00", "P29_009": null }, "geometry": { "type": "Point", "coordinates": [ 136.674323448072784, 36.543713590895607 ] } },
{ "type": "Feature", "properties": { "P29_001": "17201", "P29_002": "C117220100043", "P29_003": "16002", "P29_004": "金沢市立紫錦台中学校", "P29_005": "石川県金沢市飛梅町3-30", "P29_006": "3", "P29_007": "1", "P29_008": "00", "P29_009": null }, "geometry": { "type": "Point", "coordinates": [ 136.668898433720017, 36.558101371247453 ] } },
{ "type": "Feature", "properties": { "P29_001": "17201", "P29_002": "C117220100052", "P29_003": "16002", "P29_004": "金沢市立兼六中学校", "P29_005": "石川県金沢市田井町12-12", "P29_006": "3", "P29_007": "1", "P29_008": "00", "P29_009": null }, "geometry": { "type": "Point", "coordinates": [ 136.680313105790418, 36.559551522615088 ] } },
{ "type": "Feature", "properties": { "P29_001": "17201", "P29_002": "C117220100089", "P29_003": "16002", "P29_004": "金沢市立鳴和中学校", "P29_005": "石川県金沢市鳴和2-10-60", "P29_006": "3", "P29_007": "1", "P29_008": "00", "P29_009": null }, "geometry": { "type": "Point", "coordinates": [ 136.671471509621227, 36.586828187577815 ] } },
{ "type": "Feature", "properties": { "P29_001": "17201", "P29_002": "C117220100098", "P29_003": "16002", "P29_004": "金沢市立長田中学校", "P29_005": "石川県金沢市二宮町1-1", "P29_006": "3", "P29_007": "1", "P29_008": "00", "P29_009": null }, "geometry": { "type": "Point", "coordinates": [ 136.629320059773306, 36.584939328745989 ] } },
{ "type": "Feature", "properties": { "P29_001": "17201", "P29_002": "C117220100105", "P29_003": "16002", "P29_004": "金沢市立浅野川中学校", "P29_005": "石川県金沢市諸江町下丁388", "P29_006": "3", "P29_007": "1", "P29_008": "00", "P29_009": null }, "geometry": { "type": "Point", "coordinates": [ 136.64926541351889, 36.602639742672793 ] } },
{ "type": "Feature", "properties": { "P29_001": "17201", "P29_002": "C117220100114", "P29_003": "16002", "P29_004": "金沢市立金石中学校", "P29_005": "石川県金沢市金石東1-13-1", "P29_006": "3", "P29_007": "1", "P29_008": "00", "P29_009": null }, "geometry": { "type": "Point", "coordinates": [ 136.597500957053057, 36.600198986588751 ] } },
{ "type": "Feature", "properties": { "P29_001": "17201", "P29_002": "C117220100123", "P29_003": "16002", "P29_004": "金沢市立芝原中学校", "P29_005": "石川県金沢市湯涌荒屋町23", "P29_006": "3", "P29_007": "1", "P29_008": "00", "P29_009": null }, "geometry": { "type": "Point", "coordinates": [ 136.753337663222339, 36.491776617102495 ] } },
{ "type": "Feature", "properties": { "P29_001": "17201", "P29_002": "C117220100132", "P29_003": "16002", "P29_004": "金沢市立西南部中学校", "P29_005": "石川県金沢市新保本1-149", "P29_006": "3", "P29_007": "1", "P29_008": "00", "P29_009": null }, "geometry": { "type": "Point", "coordinates": [ 136.60607499442969, 36.552492097421641 ] } },
{ "type": "Feature", "properties": { "P29_001": "17201", "P29_002": "C117220100141", "P29_003": "16002", "P29_004": "金沢市立内川中学校", "P29_005": "石川県金沢市別所町ヰ18", "P29_006": "3", "P29_007": "1", "P29_008": "00", "P29_009": null }, "geometry": { "type": "Point", "coordinates": [ 136.675948586980951, 36.504354804498199 ] } },
{ "type": "Feature", "properties": { "P29_001": "17201", "P29_002": "C117220100150", "P29_003": "16002", "P29_004": "金沢市立医王山中学校", "P29_005": "石川県金沢市金沢市二俣町さ21", "P29_006": "3", "P29_007": "1", "P29_008": "00", "P29_009": null }, "geometry": { "type": "Point", "coordinates": [ 136.759807348729197, 36.555359036204671 ] } },
{ "type": "Feature", "properties": { "P29_001": "17201", "P29_002": "C117220100169", "P29_003": "16002", "P29_004": "金沢市立森本中学校", "P29_005": "石川県金沢市弥勒町ヨ22", "P29_006": "3", "P29_007": "1", "P29_008": "00", "P29_009": null }, "geometry": { "type": "Point", "coordinates": [ 136.691092084924179, 36.615494246616898 ] } },
{ "type": "Feature", "properties": { "P29_001": "17201", "P29_002": "C117220100178", "P29_003": "16002", "P29_004": "金沢市立額中学校", "P29_005": "石川県金沢市額乙丸町イ7", "P29_006": "3", "P29_007": "1", "P29_008": "00", "P29_009": null }, "geometry": { "type": "Point", "coordinates": [ 136.623178472023, 36.511097949974001 ] } },
{ "type": "Feature", "properties": { "P29_001": "17201", "P29_002": "C117220100187", "P29_003": "16002", "P29_004": "金沢市立高岡中学校", "P29_005": "石川県金沢市新神田1-10-1", "P29_006": "3", "P29_007": "1", "P29_008": "00", "P29_009": null }, "geometry": { "type": "Point", "coordinates": [ 136.635926083283636, 36.565853497491233 ] } },
{ "type": "Feature", "properties": { "P29_001": "17201", "P29_002": "C117220100196", "P29_003": "16002", "P29_004": "金沢市立高尾台中学校", "P29_005": "石川県金沢市高尾台1-128", "P29_006": "3", "P29_007": "1", "P29_008": "00", "P29_009": null }, "geometry": { "type": "Point", "coordinates": [ 136.634230013776573, 36.523174103847929 ] } },
{ "type": "Feature", "properties": { "P29_001": "17201", "P29_002": "C117220100203", "P29_003": "16002", "P29_004": "金沢市立緑中学校", "P29_005": "石川県金沢市みどり2-3", "P29_006": "3", "P29_007": "1", "P29_008": "00", "P29_009": null }, "geometry": { "type": "Point", "coordinates": [ 136.584442790998509, 36.570008868859496 ] } },
{ "type": "Feature", "properties": { "P29_001": "17201", "P29_002": "C117220100212", "P29_003": "16002", "P29_004": "金沢市立港中学校", "P29_005": "石川県金沢市近岡町217", "P29_006": "3", "P29_007": "1", "P29_008": "00", "P29_009": null }, "geometry": { "type": "Point", "coordinates": [ 136.628093231744316, 36.609827481903409 ] } },
{ "type": "Feature", "properties": { "P29_001": "17201", "P29_002": "C117220100221", "P29_003": "16002", "P29_004": "金沢市立北鳴中学校", "P29_005": "石川県金沢市小坂町北95", "P29_006": "3", "P29_007": "1", "P29_008": "00", "P29_009": null }, "geometry": { "type": "Point", "coordinates": [ 136.676501056987064, 36.595031931844375 ] } },
{ "type": "Feature", "properties": { "P29_001": "17201", "P29_002": "C117220100230", "P29_003": "16002", "P29_004": "金沢市立大徳中学校", "P29_005": "石川県金沢市観音堂町ト35", "P29_006": "3", "P29_007": "1", "P29_008": "00", "P29_009": null }, "geometry": { "type": "Point", "coordinates": [ 136.607229534513664, 36.590419123010712 ] } },
{ "type": "Feature", "properties": { "P29_001": "17201", "P29_002": "C117220100249", "P29_003": "16002", "P29_004": "金沢市立犀生中学校", "P29_005": "石川県金沢市末町10-4", "P29_006": "3", "P29_007": "1", "P29_008": "00", "P29_009": null }, "geometry": { "type": "Point", "coordinates": [ 136.699826336308973, 36.514625979990875 ] } },
{ "type": "Feature", "properties": { "P29_001": "17201", "P29_002": "C117220100258", "P29_003": "16002", "P29_004": "金沢市立清泉中学校", "P29_005": "石川県金沢市泉本町3-3", "P29_006": "3", "P29_007": "1", "P29_008": "00", "P29_009": null }, "geometry": { "type": "Point", "coordinates": [ 136.636068917160969, 36.548176397774888 ] } },
{ "type": "Feature", "properties": { "P29_001": "17201", "P29_002": "C117220100267", "P29_003": "16002", "P29_004": "石川県立金沢錦丘中学校", "P29_005": "石川県金沢市窪6-218", "P29_006": "2", "P29_007": "1", "P29_008": "00", "P29_009": null }, "geometry": { "type": "Point", "coordinates": [ 136.642285408169812, 36.53054018066787 ] } },
{ "type": "Feature", "properties": { "P29_001": "17201", "P29_002": "C117220102684", "P29_003": "16002", "P29_004": "金沢市立長町中学校", "P29_005": "石川県金沢市長町1-10-35", "P29_006": "3", "P29_007": "1", "P29_008": "00", "P29_009": null }, "geometry": { "type": "Point", "coordinates": [ 136.650722600704029, 36.566916481375969 ] } },
{ "type": "Feature", "properties": { "P29_001": "17201", "P29_002": "C117220102693", "P29_003": "16002", "P29_004": "金沢市立長町中学校芳斎分校", "P29_005": "石川県金沢市小将町1-15", "P29_006": "3", "P29_007": "1", "P29_008": "00", "P29_009": null }, "geometry": { "type": "Point", "coordinates": [ 136.664389515913115, 36.564385002307311 ] } },
{ "type": "Feature", "properties": { "P29_001": "17202", "P29_002": "C117220200015", "P29_003": "16002", "P29_004": "七尾市立七尾東部中学校", "P29_005": "石川県七尾市藤野町リ部1", "P29_006": "3", "P29_007": "1", "P29_008": "00", "P29_009": null }, "geometry": { "type": "Point", "coordinates": [ 136.969386997581864, 37.027871004362545 ] } },
{ "type": "Feature", "properties": { "P29_001": "17202", "P29_002": "C117220200024", "P29_003": "16002", "P29_004": "七尾市立能登香島中学校", "P29_005": "石川県七尾市石崎町香島1-96", "P29_006": "3", "P29_007": "1", "P29_008": "00", "P29_009": null }, "geometry": { "type": "Point", "coordinates": [ 136.927837783980948, 37.080270968155624 ] } },
{ "type": "Feature", "properties": { "P29_001": "17202", "P29_002": "C117220200033", "P29_003": "16002", "P29_004": "七尾市立七尾中学校", "P29_005": "石川県七尾市藤橋町辰部52-1", "P29_006": "3", "P29_007": "1", "P29_008": "00", "P29_009": null }, "geometry": { "type": "Point", "coordinates": [ 136.958143368648905, 37.03803907062121 ] } },
{ "type": "Feature", "properties": { "P29_001": "17202", "P29_002": "C117220200042", "P29_003": "16002", "P29_004": "七尾市立中島中学校", "P29_005": "石川県七尾市中島町中島甲部170", "P29_006": "3", "P29_007": "1", "P29_008": "00", "P29_009": null }, "geometry": { "type": "Point", "coordinates": [ 136.854663566874365, 37.121305873154938 ] } },
{ "type": "Feature", "properties": { "P29_001": "17203", "P29_002": "C117220300014", "P29_003": "16002", "P29_004": "小松市立芦城中学校", "P29_005": "石川県小松市芦田町2-69", "P29_006": "3", "P29_007": "1", "P29_008": "00", "P29_009": null }, "geometry": { "type": "Point", "coordinates": [ 136.443166471023034, 36.404518802759775 ] } },
{ "type": "Feature", "properties": { "P29_001": "17203", "P29_002": "C117220300023", "P29_003": "16002", "P29_004": "小松市立丸内中学校", "P29_005": "石川県小松市小寺町甲27", "P29_006": "3", "P29_007": "1", "P29_008": "00", "P29_009": null }, "geometry": { "type": "Point", "coordinates": [ 136.452282048177381, 36.413814624035396 ] } },
{ "type": "Feature", "properties": { "P29_001": "17203", "P29_002": "C117220300032", "P29_003": "16002", "P29_004": "小松市立松陽中学校", "P29_005": "石川県小松市大領町イ103", "P29_006": "3", "P29_007": "1", "P29_008": "00", "P29_009": null }, "geometry": { "type": "Point", "coordinates": [ 136.449623464917494, 36.388973169860677 ] } },
{ "type": "Feature", "properties": { "P29_001": "17203", "P29_002": "C117220300041", "P29_003": "16002", "P29_004": "小松市立御幸中学校", "P29_005": "石川県小松市村松町50", "P29_006": "3", "P29_007": "1", "P29_008": "00", "P29_009": null }, "geometry": { "type": "Point", "coordinates": [ 136.41517207738957, 36.372609195420608 ] } },
{ "type": "Feature", "properties": { "P29_001": "17203", "P29_002": "C117220300050", "P29_003": "16002", "P29_004": "小松市立南部中学校", "P29_005": "石川県小松市島町ヌ43", "P29_006": "3", "P29_007": "1", "P29_008": "00", "P29_009": null }, "geometry": { "type": "Point", "coordinates": [ 136.425574363885033, 36.348808483924763 ] } },
{ "type": "Feature", "properties": { "P29_001": "17203", "P29_002": "C117220300069", "P29_003": "16002", "P29_004": "小松市立国府中学校", "P29_005": "石川県小松市小野町己152-2", "P29_006": "3", "P29_007": "1", "P29_008": "00", "P29_009": null }, "geometry": { "type": "Point", "coordinates": [ 136.505835930390873, 36.413405267144448 ] } },
{ "type": "Feature", "properties": { "P29_001": "17203", "P29_002": "C117220300078", "P29_003": "16002", "P29_004": "小松市立中海中学校", "P29_005": "石川県小松市軽海町2-4-1", "P29_006": "3", "P29_007": "1", "P29_008": "00", "P29_009": null }, "geometry": { "type": "Point", "coordinates": [ 136.508988702797268, 36.397542221834385 ] } },
{ "type": "Feature", "properties": { "P29_001": "17203", "P29_002": "C117220300096", "P29_003": "16002", "P29_004": "小松市立安宅中学校", "P29_005": "石川県小松市安宅町安宅林4-112", "P29_006": "3", "P29_007": "1", "P29_008": "00", "P29_009": null }, "geometry": { "type": "Point", "coordinates": [ 136.421366892527828, 36.415547196146029 ] } },
{ "type": "Feature", "properties": { "P29_001": "17203", "P29_002": "C117220300103", "P29_003": "16002", "P29_004": "小松市立板津中学校", "P29_005": "石川県小松市松梨町丙8", "P29_006": "3", "P29_007": "1", "P29_008": "00", "P29_009": null }, "geometry": { "type": "Point", "coordinates": [ 136.461336636857226, 36.424414659654126 ] } },
{ "type": "Feature", "properties": { "P29_001": "17204", "P29_002": "C117220400013", "P29_003": "16002", "P29_004": "輪島市立輪島中学校舳倉島分校", "P29_005": "石川県輪島市海士町舳倉島高見7", "P29_006": "3", "P29_007": "9", "P29_008": "00", "P29_009": null }, "geometry": { "type": "Point", "coordinates": [ 136.919401477990419, 37.85094605432969 ] } },
{ "type": "Feature", "properties": { "P29_001": "17204", "P29_002": "C117220400022", "P29_003": "16002", "P29_004": "輪島市立東陽中学校", "P29_005": "石川県輪島市町野町粟蔵川原田33", "P29_006": "3", "P29_007": "1", "P29_008": "00", "P29_009": null }, "geometry": { "type": "Point", "coordinates": [ 137.087716647735618, 37.422749570850151 ] } },
{ "type": "Feature", "properties": { "P29_001": "17204", "P29_002": "C117220400031", "P29_003": "16002", "P29_004": "輪島市立輪島中学校", "P29_005": "石川県輪島市河井町11部39-1", "P29_006": "3", "P29_007": "1", "P29_008": "00", "P29_009": null }, "geometry": { "type": "Point", "coordinates": [ 136.91193374769847, 37.390467407462801 ] } },
{ "type": "Feature", "properties": { "P29_001": "17204", "P29_002": "C117220400040", "P29_003": "16002", "P29_004": "輪島市立門前中学校", "P29_005": "石川県輪島市門前町清水10-21", "P29_006": "3", "P29_007": "1", "P29_008": "00", "P29_009": null }, "geometry": { "type": "Point", "coordinates": [ 136.764137090643061, 37.291906937051998 ] } },
{ "type": "Feature", "properties": { "P29_001": "17205", "P29_002": "C117220500012", "P29_003": "16002", "P29_004": "珠洲市立三崎中学校", "P29_005": "石川県珠洲市三崎町宇治ヨ-114", "P29_006": "3", "P29_007": "1", "P29_008": "00", "P29_009": null }, "geometry": { "type": "Point", "coordinates": [ 137.342319133521187, 37.473848573797454 ] } },
{ "type": "Feature", "properties": { "P29_001": "17205", "P29_002": "C117220500021", "P29_003": "16002", "P29_004": "珠洲市立緑丘中学校", "P29_005": "石川県珠洲市野々江町6-1", "P29_006": "3", "P29_007": "1", "P29_008": "00", "P29_009": null }, "geometry": { "type": "Point", "coordinates": [ 137.272955378628296, 37.446520272423037 ] } },
{ "type": "Feature", "properties": { "P29_001": "17206", "P29_002": "C117220600011", "P29_003": "16002", "P29_004": "加賀市立錦城中学校", "P29_005": "石川県加賀市大聖寺地方町6乙74-1", "P29_006": "3", "P29_007": "1", "P29_008": "00", "P29_009": null }, "geometry": { "type": "Point", "coordinates": [ 136.303306157469819, 36.300147401895224 ] } },
{ "type": "Feature", "properties": { "P29_001": "17206", "P29_002": "C117220600020", "P29_003": "16002", "P29_004": "加賀市立橋立中学校", "P29_005": "石川県加賀市小塩町ろ-1", "P29_006": "3", "P29_007": "1", "P29_008": "00", "P29_009": null }, "geometry": { "type": "Point", "coordinates": [ 136.313636506012074, 36.348734738207504 ] } },
{ "type": "Feature", "properties": { "P29_001": "17206", "P29_002": "C117220600039", "P29_003": "16002", "P29_004": "加賀市立片山津中学校", "P29_005": "石川県加賀市潮津町レ1-1", "P29_006": "3", "P29_007": "1", "P29_008": "00", "P29_009": null }, "geometry": { "type": "Point", "coordinates": [ 136.349090521416741, 36.351252574829047 ] } },
{ "type": "Feature", "properties": { "P29_001": "17206", "P29_002": "C117220600048", "P29_003": "16002", "P29_004": "加賀市立東和中学校", "P29_005": "石川県加賀市動橋町ネ54-1", "P29_006": "3", "P29_007": "1", "P29_008": "00", "P29_009": null }, "geometry": { "type": "Point", "coordinates": [ 136.381757826487586, 36.325373545351141 ] } },
{ "type": "Feature", "properties": { "P29_001": "17206", "P29_002": "C117220600057", "P29_003": "16002", "P29_004": "加賀市立山代中学校", "P29_005": "石川県加賀市上野町エ45-2", "P29_006": "3", "P29_007": "1", "P29_008": "00", "P29_009": null }, "geometry": { "type": "Point", "coordinates": [ 136.373459018527029, 36.297843529293274 ] } },
{ "type": "Feature", "properties": { "P29_001": "17206", "P29_002": "C117220600066", "P29_003": "16002", "P29_004": "加賀市立山中中学校", "P29_005": "石川県加賀市山中温泉上原町ト甲1-1", "P29_006": "3", "P29_007": "1", "P29_008": "00", "P29_009": null }, "geometry": { "type": "Point", "coordinates": [ 136.364331672659489, 36.25398383422678 ] } },
{ "type": "Feature", "properties": { "P29_001": "17207", "P29_002": "C117220700010", "P29_003": "16002", "P29_004": "羽咋市立羽咋中学校", "P29_005": "石川県羽咋市中央町キ59", "P29_006": "3", "P29_007": "1", "P29_008": "00", "P29_009": null }, "geometry": { "type": "Point", "coordinates": [ 136.775753930561564, 36.891231645654045 ] } },
{ "type": "Feature", "properties": { "P29_001": "17207", "P29_002": "C117220700029", "P29_003": "16002", "P29_004": "羽咋市立邑知中学校", "P29_005": "石川県羽咋市飯山町ホ57", "P29_006": "3", "P29_007": "1", "P29_008": "00", "P29_009": null }, "geometry": { "type": "Point", "coordinates": [ 136.829865475222334, 36.905685075836395 ] } },
{ "type": "Feature", "properties": { "P29_001": "17209", "P29_002": "C117220900018", "P29_003": "16002", "P29_004": "かほく市立高松中学校", "P29_005": "石川県かほく市高松ヤ42", "P29_006": "3", "P29_007": "1", "P29_008": "00", "P29_009": null }, "geometry": { "type": "Point", "coordinates": [ 136.721022739277544, 36.767659477959029 ] } },
{ "type": "Feature", "properties": { "P29_001": "17209", "P29_002": "C117220900027", "P29_003": "16002", "P29_004": "かほく市立河北台中学校", "P29_005": "石川県かほく市遠塚ロ47-1", "P29_006": "3", "P29_007": "1", "P29_008": "00", "P29_009": null }, "geometry": { "type": "Point", "coordinates": [ 136.703380320481727, 36.734500762740289 ] } },
{ "type": "Feature", "properties": { "P29_001": "17209", "P29_002": "C117220900036", "P29_003": "16002", "P29_004": "かほく市立宇ノ気中学校", "P29_005": "石川県かほく市森レ1", "P29_006": "3", "P29_007": "1", "P29_008": "00", "P29_009": null }, "geometry": { "type": "Point", "coordinates": [ 136.706998325631417, 36.723398169171681 ] } },
{ "type": "Feature", "properties": { "P29_001": "17210", "P29_002": "C117221000015", "P29_003": "16002", "P29_004": "白山市立松任中学校", "P29_005": "石川県白山市末広2-1", "P29_006": "3", "P29_007": "1", "P29_008": "00", "P29_009": null }, "geometry": { "type": "Point", "coordinates": [ 136.568782276718338, 36.517532700700841 ] } },
{ "type": "Feature", "properties": { "P29_001": "17210", "P29_002": "C117221000024", "P29_003": "16002", "P29_004": "白山市立笠間中学校", "P29_005": "石川県白山市笠間町157", "P29_006": "3", "P29_007": "1", "P29_008": "00", "P29_009": null }, "geometry": { "type": "Point", "coordinates": [ 136.525108224978794, 36.499929189306478 ] } },
{ "type": "Feature", "properties": { "P29_001": "17210", "P29_002": "C117221000033", "P29_003": "16002", "P29_004": "白山市立北星中学校", "P29_005": "石川県白山市平木町112-1", "P29_006": "3", "P29_007": "1", "P29_008": "00", "P29_009": null }, "geometry": { "type": "Point", "coordinates": [ 136.542752717007943, 36.535959434506374 ] } },
{ "type": "Feature", "properties": { "P29_001": "17210", "P29_002": "C117221000042", "P29_003": "16002", "P29_004": "白山市立光野中学校", "P29_005": "石川県白山市番匠町468-1", "P29_006": "3", "P29_007": "1", "P29_008": "00", "P29_009": null }, "geometry": { "type": "Point", "coordinates": [ 136.58151729474065, 36.535176114334547 ] } },
{ "type": "Feature", "properties": { "P29_001": "17210", "P29_002": "C117221000051", "P29_003": "16002", "P29_004": "白山市立美川中学校", "P29_005": "石川県白山市美川浜町タ5", "P29_006": "3", "P29_007": "1", "P29_008": "00", "P29_009": null }, "geometry": { "type": "Point", "coordinates": [ 136.492268841856742, 36.48938189192333 ] } },
{ "type": "Feature", "properties": { "P29_001": "17210", "P29_002": "C117221000060", "P29_003": "16002", "P29_004": "白山市立鶴来中学校", "P29_005": "石川県白山市鶴来本町4-リ16", "P29_006": "3", "P29_007": "1", "P29_008": "00", "P29_009": null }, "geometry": { "type": "Point", "coordinates": [ 136.624706862560515, 36.454420664403855 ] } },
{ "type": "Feature", "properties": { "P29_001": "17210", "P29_002": "C117221000079", "P29_003": "16002", "P29_004": "白山市立鳥越中学校", "P29_005": "石川県白山市釜清水町チ140", "P29_006": "3", "P29_007": "1", "P29_008": "00", "P29_009": null }, "geometry": { "type": "Point", "coordinates": [ 136.608224619454546, 36.363698561680025 ] } },
{ "type": "Feature", "properties": { "P29_001": "17210", "P29_002": "C117221000088", "P29_003": "16002", "P29_004": "白山市立北辰中学校", "P29_005": "石川県白山市日向町ロ24-2", "P29_006": "3", "P29_007": "1", "P29_008": "00", "P29_009": null }, "geometry": { "type": "Point", "coordinates": [ 136.596499770768389, 36.483539727305718 ] } },
{ "type": "Feature", "properties": { "P29_001": "17210", "P29_002": "C117221000097", "P29_003": "16002", "P29_004": "白山市立白嶺中学校", "P29_005": "石川県白山市市瀬戸申66", "P29_006": "3", "P29_007": "1", "P29_008": "00", "P29_009": null }, "geometry": { "type": "Point", "coordinates": [ 136.640473574560872, 36.296433039330971 ] } },
{ "type": "Feature", "properties": { "P29_001": "17211", "P29_002": "C117221100014", "P29_003": "16002", "P29_004": "能美市立根上中学校", "P29_005": "石川県能美市浜町ワ60", "P29_006": "3", "P29_007": "1", "P29_008": "00", "P29_009": null }, "geometry": { "type": "Point", "coordinates": [ 136.45625740723213, 36.445928393859454 ] } },
{ "type": "Feature", "properties": { "P29_001": "17211", "P29_002": "C117221100023", "P29_003": "16002", "P29_004": "能美市立寺井中学校", "P29_005": "石川県能美市寺井町ラ161", "P29_006": "3", "P29_007": "1", "P29_008": "00", "P29_009": null }, "geometry": { "type": "Point", "coordinates": [ 136.491246065482699, 36.440116810507547 ] } },
{ "type": "Feature", "properties": { "P29_001": "17211", "P29_002": "C117221100032", "P29_003": "16002", "P29_004": "能美市立辰口中学校", "P29_005": "石川県能美市辰口町129", "P29_006": "3", "P29_007": "1", "P29_008": "00", "P29_009": null }, "geometry": { "type": "Point", "coordinates": [ 136.547291904275198, 36.448284813091014 ] } },
{ "type": "Feature", "properties": { "P29_001": "17212", "P29_002": "C117221200013", "P29_003": "16002", "P29_004": "野々市市立野々市中学校", "P29_005": "石川県野々市市三納3-1", "P29_006": "3", "P29_007": "1", "P29_008": "00", "P29_009": null }, "geometry": { "type": "Point", "coordinates": [ 136.608274226277189, 36.524435516860024 ] } },
{ "type": "Feature", "properties": { "P29_001": "17212", "P29_002": "C117221200022", "P29_003": "16002", "P29_004": "野々市市立布水中学校", "P29_005": "石川県野々市市押野2-100", "P29_006": "3", "P29_007": "1", "P29_008": "00", "P29_009": null }, "geometry": { "type": "Point", "coordinates": [ 136.612478284999128, 36.538432771498947 ] } },
{ "type": "Feature", "properties": { "P29_001": "17324", "P29_002": "C117232400018", "P29_003": "16002", "P29_004": "川北町立川北中学校", "P29_005": "石川県能美郡川北町壱ツ屋チ82", "P29_006": "3", "P29_007": "1", "P29_008": "00", "P29_009": null }, "geometry": { "type": "Point", "coordinates": [ 136.543476867402632, 36.472583394852158 ] } },
{ "type": "Feature", "properties": { "P29_001": "17361", "P29_002": "C117236100012", "P29_003": "16002", "P29_004": "津幡町立津幡中学校", "P29_005": "石川県河北郡津幡町字加賀爪ヌ6-1", "P29_006": "3", "P29_007": "1", "P29_008": "00", "P29_009": null }, "geometry": { "type": "Point", "coordinates": [ 136.737588532235918, 36.667082826850312 ] } },
{ "type": "Feature", "properties": { "P29_001": "17361", "P29_002": "C117236100021", "P29_003": "16002", "P29_004": "津幡町立津幡南中学校", "P29_005": "石川県河北郡津幡町字南中条3-7", "P29_006": "3", "P29_007": "1", "P29_008": "00", "P29_009": null }, "geometry": { "type": "Point", "coordinates": [ 136.721232106558915, 36.659779403513383 ] } },
{ "type": "Feature", "properties": { "P29_001": "17365", "P29_002": "C117236500018", "P29_003": "16002", "P29_004": "内灘町立内灘中学校", "P29_005": "石川県河北郡内灘町字鶴ケ丘2-308", "P29_006": "3", "P29_007": "1", "P29_008": "00", "P29_009": null }, "geometry": { "type": "Point", "coordinates": [ 136.644115967174969, 36.645609973806138 ] } },
{ "type": "Feature", "properties": { "P29_001": "17365", "P29_002": "C117236500027", "P29_003": "16002", "P29_004": "内灘町立内灘中学校ハマナス分校", "P29_005": "石川県河北郡内灘町字大根布と543", "P29_006": "3", "P29_007": "1", "P29_008": "00", "P29_009": null }, "geometry": { "type": "Point", "coordinates": [ 136.638795654510801, 36.650049710157369 ] } },
{ "type": "Feature", "properties": { "P29_001": "17384", "P29_002": "C117238400015", "P29_003": "16002", "P29_004": "志賀町立富来中学校", "P29_005": "石川県羽咋郡志賀町富来領家町ハ1-1", "P29_006": "3", "P29_007": "1", "P29_008": "00", "P29_009": null }, "geometry": { "type": "Point", "coordinates": [ 136.728930129769253, 37.144964125781925 ] } },
{ "type": "Feature", "properties": { "P29_001": "17384", "P29_002": "C117238400024", "P29_003": "16002", "P29_004": "志賀町立志賀中学校", "P29_005": "石川県羽咋郡志賀町高浜町ノ-152", "P29_006": "3", "P29_007": "1", "P29_008": "00", "P29_009": null }, "geometry": { "type": "Point", "coordinates": [ 136.771845997357701, 36.999180437528395 ] } },
{ "type": "Feature", "properties": { "P29_001": "17386", "P29_002": "C117238600013", "P29_003": "16002", "P29_004": "宝達志水町立宝達中学校", "P29_005": "石川県羽咋郡宝達志水町小川カ150", "P29_006": "3", "P29_007": "1", "P29_008": "00", "P29_009": null }, "geometry": { "type": "Point", "coordinates": [ 136.756061252537705, 36.818638548715299 ] } },
{ "type": "Feature", "properties": { "P29_001": "17407", "P29_002": "C117240700018", "P29_003": "16002", "P29_004": "中能登町立中能登中学校", "P29_005": "石川県鹿島郡中能登町良川け部1-1", "P29_006": "3", "P29_007": "1", "P29_008": "00", "P29_009": null }, "geometry": { "type": "Point", "coordinates": [ 136.88961662576915, 36.972827534271765 ] } },
{ "type": "Feature", "properties": { "P29_001": "17461", "P29_002": "C117246100011", "P29_003": "16002", "P29_004": "穴水町立穴水中学校", "P29_005": "石川県鳳珠郡穴水町大町ヌ-201", "P29_006": "3", "P29_007": "1", "P29_008": "00", "P29_009": null }, "geometry": { "type": "Point", "coordinates": [ 136.899586558605847, 37.230444902972565 ] } },
{ "type": "Feature", "properties": { "P29_001": "17463", "P29_002": "C117246300019", "P29_003": "16002", "P29_004": "能登町立能都中学校", "P29_005": "石川県鳳珠郡能登町藤波14-35", "P29_006": "3", "P29_007": "1", "P29_008": "00", "P29_009": null }, "geometry": { "type": "Point", "coordinates": [ 137.144103303580806, 37.302536310120395 ] } },
{ "type": "Feature", "properties": { "P29_001": "17463", "P29_002": "C117246300028", "P29_003": "16002", "P29_004": "能登町立柳田中学校", "P29_005": "石川県鳳珠郡能登町字柳田礼部3", "P29_006": "3", "P29_007": "1", "P29_008": "00", "P29_009": null }, "geometry": { "type": "Point", "coordinates": [ 137.09263454486674, 37.365853929789068 ] } },
{ "type": "Feature", "properties": { "P29_001": "17463", "P29_002": "C117246300037", "P29_003": "16002", "P29_004": "能登町立松波中学校", "P29_005": "石川県鳳珠郡能登町松波16-26", "P29_006": "3", "P29_007": "1", "P29_008": "00", "P29_009": null }, "geometry": { "type": "Point", "coordinates": [ 137.245075952509637, 37.346843396581008 ] } },
{ "type": "Feature", "properties": { "P29_001": "17463", "P29_002": "C117246300046", "P29_003": "16002", "P29_004": "能登町立小木中学校", "P29_005": "石川県鳳珠郡能登町小木1-1-1", "P29_006": "3", "P29_007": "1", "P29_008": "00", "P29_009": null }, "geometry": { "type": "Point", "coordinates": [ 137.223245943127523, 37.303941486305938 ] } },
{ "type": "Feature", "properties": { "P29_001": "17201", "P29_002": "C117320100014", "P29_003": "16002", "P29_004": "北陸学院中学校", "P29_005": "石川県金沢市飛梅町1-10", "P29_006": "4", "P29_007": "1", "P29_008": "00", "P29_009": null }, "geometry": { "type": "Point", "coordinates": [ 136.666808703752935, 36.559325034962619 ] } },
{ "type": "Feature", "properties": { "P29_001": "17201", "P29_002": "C117320100023", "P29_003": "16002", "P29_004": "星稜中学校", "P29_005": "石川県金沢市小坂町南206", "P29_006": "4", "P29_007": "1", "P29_008": "00", "P29_009": null }, "geometry": { "type": "Point", "coordinates": [ 136.682518812254443, 36.584947808481317 ] } },
{ "type": "Feature", "properties": { "P29_001": "17201", "P29_002": "C117320100274", "P29_003": "16002", "P29_004": "金沢学院大学附属中学校", "P29_005": "石川県金沢市末町10", "P29_006": "4", "P29_007": "1", "P29_008": "00", "P29_009": null }, "geometry": { "type": "Point", "coordinates": [ 136.695376153253818, 36.513988661298917 ] } },
{ "type": "Feature", "properties": { "P29_001": "17201", "P29_002": "C117320102753", "P29_003": "16002", "P29_004": "金沢龍谷高等学校中等部", "P29_005": "石川県金沢市上安原町169-1", "P29_006": "4", "P29_007": "1", "P29_008": "00", "P29_009": null }, "geometry": { "type": "Point", "coordinates": [ 136.585618734817814, 36.565778761247095 ] } },
{ "type": "Feature", "properties": { "P29_001": "17210", "P29_002": "C117321000013", "P29_003": "16002", "P29_004": "叡明館（中等部）", "P29_005": "石川県白山市長島町1001", "P29_006": "4", "P29_007": "1", "P29_008": "00", "P29_009": null }, "geometry": { "type": "Point", "coordinates": [ 136.557636373374663, 36.495269768541931 ] } }
]
}
