{
"type": "FeatureCollection",
"name": "geo_17_介護老人福祉施設",
"crs": { "type": "name", "properties": { "name": "urn:ogc:def:crs:OGC:1.3:CRS84" } },
"features": [
{ "type": "Feature", "properties": { "内容": "特別養護老人ホームなんぶやすらぎホーム【介護老人福祉施設】石川県金沢市弥生３丁目２番１号", "url": "https://www.kaigokensaku.mhlw.go.jp/17/index.php?action_kouhyou_detail_004_kani=true&JigyosyoCd=1770103230-00&ServiceCd=510&Type=search", "url2": "http//yasuragi39.com" }, "geometry": { "type": "Point", "coordinates": [ 136.6431761, 36.5438577 ] } },
{ "type": "Feature", "properties": { "内容": "やすはら苑【介護老人福祉施設】金沢市下安原町東1458番地1", "url": "https://www.kaigokensaku.mhlw.go.jp/17/index.php?action_kouhyou_detail_004_kani=true&JigyosyoCd=1770103131-00&ServiceCd=510&Type=search", "url2": "https://yasuharaen.or.jp/" }, "geometry": { "type": "Point", "coordinates": [ 136.575781300000017, 36.5730751 ] } },
{ "type": "Feature", "properties": { "内容": "特別養護老人ホーム寿晃園【介護老人福祉施設】石川県金沢市鞍月東１丁目１９番地", "url": "https://www.kaigokensaku.mhlw.go.jp/17/index.php?action_kouhyou_detail_004_kani=true&JigyosyoCd=1770100350-00&ServiceCd=510&Type=search", "url2": "http://chuoufukushikai.jp/" }, "geometry": { "type": "Point", "coordinates": [ 136.6307723, 36.593756700000014 ] } },
{ "type": "Feature", "properties": { "内容": "特別養護老人ホーム　金澤五番丁【介護老人福祉施設】石川県金沢市下本多町五番丁１４番地特別養護老人ホーム金澤五番丁", "url": "https://www.kaigokensaku.mhlw.go.jp/17/index.php?action_kouhyou_detail_004_kani=true&JigyosyoCd=1770103073-00&ServiceCd=510&Type=search", "url2": "http://www.bijyoukai.net/" }, "geometry": { "type": "Point", "coordinates": [ 136.657971800000041, 36.5567482 ] } },
{ "type": "Feature", "properties": { "内容": "特別養護老人ホームさくらセンター【介護老人福祉施設】石川県金沢市湊２丁目１６９番地", "url": "https://www.kaigokensaku.mhlw.go.jp/17/index.php?action_kouhyou_detail_004_kani=true&JigyosyoCd=1770105813-00&ServiceCd=510&Type=search", "url2": "http://sakura-center.org/" }, "geometry": { "type": "Point", "coordinates": [ 136.652475900000013, 36.6350908 ] } },
{ "type": "Feature", "properties": { "内容": "万陽苑(清風館)【介護老人福祉施設】石川県金沢市三口新町1丁目8番1号", "url": "https://www.kaigokensaku.mhlw.go.jp/17/index.php?action_kouhyou_detail_004_kani=true&JigyosyoCd=1770105466-00&ServiceCd=510&Type=search", "url2": "http://www.yofuen.com" }, "geometry": { "type": "Point", "coordinates": [ 136.683384599999954, 36.5398058 ] } },
{ "type": "Feature", "properties": { "内容": "特別養護老人ホーム　あかつき【介護老人福祉施設】石川県金沢市平和町１丁目2-28", "url": "https://www.kaigokensaku.mhlw.go.jp/17/index.php?action_kouhyou_detail_004_kani=true&JigyosyoCd=1770105102-00&ServiceCd=510&Type=search", "url2": "http://www.seishi.isg.or.jp/akatsuki/index.html" }, "geometry": { "type": "Point", "coordinates": [ 136.663202599999977, 36.5385032 ] } },
{ "type": "Feature", "properties": { "内容": "社会福祉法人　北伸福祉会　特別養護老人ホーム　金沢朱鷺の苑【介護老人福祉施設】金沢市岸川町ほ5番地", "url": "https://www.kaigokensaku.mhlw.go.jp/17/index.php?action_kouhyou_detail_004_kani=true&JigyosyoCd=1770100244-00&ServiceCd=510&Type=search", "url2": "https://www.tokinoen.com/" }, "geometry": { "type": "Point", "coordinates": [ 136.711450499999955, 36.6400462 ] } },
{ "type": "Feature", "properties": { "内容": "特別養護老人ホーム石川県八田ホーム【介護老人福祉施設】石川県金沢市八田町東912番地", "url": "https://www.kaigokensaku.mhlw.go.jp/17/index.php?action_kouhyou_detail_004_kani=true&JigyosyoCd=1770100699-00&ServiceCd=510&Type=search", "url2": "http://care-net.biz/17/hattahome/" }, "geometry": { "type": "Point", "coordinates": [ 136.687918149073738, 36.62837930506393 ] } },
{ "type": "Feature", "properties": { "内容": "特別養護老人ホーム　戸室和楽ホーム【介護老人福祉施設】石川県金沢市俵町コ１番地１", "url": "https://www.kaigokensaku.mhlw.go.jp/17/index.php?action_kouhyou_detail_004_kani=true&JigyosyoCd=1770101358-00&ServiceCd=510&Type=search", "url2": "http://www.bijyoukai.net/" }, "geometry": { "type": "Point", "coordinates": [ 136.7172448, 36.5333936 ] } },
{ "type": "Feature", "properties": { "内容": "特別養護老人ホーム　第２千木園【介護老人福祉施設】石川県金沢市観法寺町ヘ７４番地１", "url": "https://www.kaigokensaku.mhlw.go.jp/17/index.php?action_kouhyou_detail_004_kani=true&JigyosyoCd=1770102364-00&ServiceCd=510&Type=search", "url2": "http://www.sengi.jp/dai2sengien/" }, "geometry": { "type": "Point", "coordinates": [ 136.704598900000065, 36.6222541 ] } },
{ "type": "Feature", "properties": { "内容": "社会福祉法人　北伸福祉会　第二金沢朱鷺の苑【介護老人福祉施設】石川県金沢市上辰巳町10-211-１", "url": "https://www.kaigokensaku.mhlw.go.jp/17/index.php?action_kouhyou_detail_004_kani=true&JigyosyoCd=1770100236-00&ServiceCd=510&Type=search", "url2": "http://www.toknoen.com" }, "geometry": { "type": "Point", "coordinates": [ 136.702669799999967, 36.5154265 ] } },
{ "type": "Feature", "properties": { "内容": "萬生苑【介護老人福祉施設】金沢市利屋町は64番地1", "url": "https://www.kaigokensaku.mhlw.go.jp/17/index.php?action_kouhyou_detail_004_kani=true&JigyosyoCd=1770101309-00&ServiceCd=510&Type=search", "url2": "www://kyuraku.info/mannsyouen" }, "geometry": { "type": "Point", "coordinates": [ 136.713855500000022, 36.6451401 ] } },
{ "type": "Feature", "properties": { "内容": "特別養護老人ホームいずみ園【介護老人福祉施設】石川県金沢市増泉４丁目４番２８号", "url": "https://www.kaigokensaku.mhlw.go.jp/17/index.php?action_kouhyou_detail_004_kani=true&JigyosyoCd=1770101911-00&ServiceCd=510&Type=search", "url2": "https://www.izumien.or.jp/" }, "geometry": { "type": "Point", "coordinates": [ 136.6351039, 36.5569337 ] } },
{ "type": "Feature", "properties": { "内容": "特別養護老人ホーム　やすらぎホーム【介護老人福祉施設】金沢市上荒屋1-39", "url": "https://www.kaigokensaku.mhlw.go.jp/17/index.php?action_kouhyou_detail_004_kani=true&JigyosyoCd=1770100186-00&ServiceCd=510&Type=search", "url2": "http://www.yasuragi39.com/" }, "geometry": { "type": "Point", "coordinates": [ 136.593050100000028, 36.5456846 ] } },
{ "type": "Feature", "properties": { "内容": "社会福祉法人北伸福祉会　特別養護老人ホーム中央金沢朱鷺の苑【介護老人福祉施設】石川県金沢市広岡２丁目１番７号", "url": "https://www.kaigokensaku.mhlw.go.jp/17/index.php?action_kouhyou_detail_004_kani=true&JigyosyoCd=1770100277-00&ServiceCd=510&Type=search", "url2": "http;//chuo＠tokinoen.com" }, "geometry": { "type": "Point", "coordinates": [ 136.643785900000012, 36.5769342 ] } },
{ "type": "Feature", "properties": { "内容": "特別養護老人ホーム　千木園【介護老人福祉施設】石川県金沢市千木町ホ３番地１", "url": "https://www.kaigokensaku.mhlw.go.jp/17/index.php?action_kouhyou_detail_004_kani=true&JigyosyoCd=1770100434-00&ServiceCd=510&Type=search", "url2": "https://sengi.jp/sengien/" }, "geometry": { "type": "Point", "coordinates": [ 136.671788299999946, 36.6119111 ] } },
{ "type": "Feature", "properties": { "内容": "万陽苑（明悠館）【介護老人福祉施設】金沢市三口新町1丁目8番1号", "url": "https://www.kaigokensaku.mhlw.go.jp/17/index.php?action_kouhyou_detail_004_kani=true&JigyosyoCd=1770100145-00&ServiceCd=510&Type=search", "url2": "http://www.yofuen.com/" }, "geometry": { "type": "Point", "coordinates": [ 136.683384599999954, 36.5398058 ] } },
{ "type": "Feature", "properties": { "内容": "第三万陽苑【介護老人福祉施設】石川県金沢市三小牛町２４の３番地１", "url": "https://www.kaigokensaku.mhlw.go.jp/17/index.php?action_kouhyou_detail_004_kani=true&JigyosyoCd=1770100160-00&ServiceCd=510&Type=search", "url2": "https://daisanmanyoen.yofuen.com" }, "geometry": { "type": "Point", "coordinates": [ 136.672940899999958, 36.5045689 ] } },
{ "type": "Feature", "properties": { "内容": "特別養護老人ホーム　第二万陽苑【介護老人福祉施設】石川県金沢市大桑町中ノ大平１８番地２５", "url": "https://www.kaigokensaku.mhlw.go.jp/17/index.php?action_kouhyou_detail_004_kani=true&JigyosyoCd=1770100152-00&ServiceCd=510&Type=search", "url2": "http://www.yofuen.com" }, "geometry": { "type": "Point", "coordinates": [ 136.674896399999966, 36.524519 ] } },
{ "type": "Feature", "properties": { "内容": "特別養護老人ホーム　ななみの里【介護老人福祉施設】石川県七尾市石崎町泉台1番地1", "url": "https://www.kaigokensaku.mhlw.go.jp/17/index.php?action_kouhyou_detail_004_kani=true&JigyosyoCd=1770200523-00&ServiceCd=510&Type=search", "url2": "http://www.nanami-01.jp" }, "geometry": { "type": "Point", "coordinates": [ 136.930225, 37.0828239 ] } },
{ "type": "Feature", "properties": { "内容": "のとじま悠々ホーム【介護老人福祉施設】石川県七尾市能登島半浦町5部6番地2", "url": "https://www.kaigokensaku.mhlw.go.jp/17/index.php?action_kouhyou_detail_004_kani=true&JigyosyoCd=1770200374-00&ServiceCd=510&Type=search", "url2": "https://saharagroup-jp" }, "geometry": { "type": "Point", "coordinates": [ 136.928466193856792, 37.123937622394635 ] } },
{ "type": "Feature", "properties": { "内容": "特別養護老人ホーム　秀楽苑【介護老人福祉施設】石川県七尾市中島町鹿島台は部17番地3", "url": "https://www.kaigokensaku.mhlw.go.jp/17/index.php?action_kouhyou_detail_004_kani=true&JigyosyoCd=1770200259-00&ServiceCd=510&Type=search", "url2": "http://www.shurakuen.jp/" }, "geometry": { "type": "Point", "coordinates": [ 136.889571199999978, 37.1310423 ] } },
{ "type": "Feature", "properties": { "内容": "介護老人福祉施設　千寿苑【介護老人福祉施設】石川県七尾市千野町に部15番地", "url": "https://www.kaigokensaku.mhlw.go.jp/17/index.php?action_kouhyou_detail_004_kani=true&JigyosyoCd=1770200184-00&ServiceCd=510&Type=search", "url2": "http://enyama.jp/senjuen/" }, "geometry": { "type": "Point", "coordinates": [ 136.953055531352248, 37.017707038906657 ] } },
{ "type": "Feature", "properties": { "内容": "エレガンテなぎの浦【介護老人福祉施設】七尾市津向町ト部１０７番地４", "url": "https://www.kaigokensaku.mhlw.go.jp/17/index.php?action_kouhyou_detail_004_kani=true&JigyosyoCd=1770200010-00&ServiceCd=510&Type=search", "url2": "http://www.tokujyu.jp" }, "geometry": { "type": "Point", "coordinates": [ 136.955187737332494, 37.056424854318763 ] } },
{ "type": "Feature", "properties": { "内容": "特別養護老人ホームあっとほーむ若葉【介護老人福祉施設】石川県七尾市矢田町22号七株田12番地5", "url": "https://www.kaigokensaku.mhlw.go.jp/17/index.php?action_kouhyou_detail_004_kani=true&JigyosyoCd=1770200135-00&ServiceCd=510&Type=search", "url2": "http://www.homewakaba.com" }, "geometry": { "type": "Point", "coordinates": [ 136.983191799999986, 37.025588 ] } },
{ "type": "Feature", "properties": { "内容": "特別養護老人ホーム　愛らんど萌寿【介護老人福祉施設】石川県小松市波佐谷町東６４番地", "url": "https://www.kaigokensaku.mhlw.go.jp/17/index.php?action_kouhyou_detail_004_kani=true&JigyosyoCd=1770300612-00&ServiceCd=510&Type=search", "url2": null }, "geometry": { "type": "Point", "coordinates": [ 136.479392734918179, 36.342337852091084 ] } },
{ "type": "Feature", "properties": { "内容": "特別養護老人ホーム　みゆきの郷【介護老人福祉施設】石川県小松市松崎町赤場１－１", "url": "https://www.kaigokensaku.mhlw.go.jp/17/index.php?action_kouhyou_detail_004_kani=true&JigyosyoCd=1770300422-00&ServiceCd=510&Type=search", "url2": "https://tensenkai.jp/miyukinosato/" }, "geometry": { "type": "Point", "coordinates": [ 136.414245599999958, 36.3718409 ] } },
{ "type": "Feature", "properties": { "内容": "特別養護老人ホームあたかの郷【介護老人福祉施設】石川県小松市安宅町ル１番地２８", "url": "https://www.kaigokensaku.mhlw.go.jp/17/index.php?action_kouhyou_detail_004_kani=true&JigyosyoCd=1770300059-00&ServiceCd=510&Type=search", "url2": "http://www.asahikai.net/" }, "geometry": { "type": "Point", "coordinates": [ 136.424178, 36.4253499 ] } },
{ "type": "Feature", "properties": { "内容": "介護老人福祉施設　第二松寿園【介護老人福祉施設】石川県小松市月津町ヲ９５番地", "url": "https://www.kaigokensaku.mhlw.go.jp/17/index.php?action_kouhyou_detail_004_kani=true&JigyosyoCd=1770300182-00&ServiceCd=510&Type=search", "url2": "https://syoujyuen.jp/" }, "geometry": { "type": "Point", "coordinates": [ 136.414590099999941, 36.3515556 ] } },
{ "type": "Feature", "properties": { "内容": "介護老人福祉施設　自生園【介護老人福祉施設】石川県小松市上荒屋町ソ４番地１０", "url": "https://www.kaigokensaku.mhlw.go.jp/17/index.php?action_kouhyou_detail_004_kani=true&JigyosyoCd=1770300034-00&ServiceCd=510&Type=search", "url2": "https://jishoen.com/" }, "geometry": { "type": "Point", "coordinates": [ 136.43120250000004, 36.3281492 ] } },
{ "type": "Feature", "properties": { "内容": "介護老人福祉施設松寿園【介護老人福祉施設】石川県小松市向本折町ホ31番地", "url": "https://www.kaigokensaku.mhlw.go.jp/17/index.php?action_kouhyou_detail_004_kani=true&JigyosyoCd=1770300083-00&ServiceCd=510&Type=search", "url2": "http://syoujyuen.jp" }, "geometry": { "type": "Point", "coordinates": [ 136.43974419999995, 36.3968306 ] } },
{ "type": "Feature", "properties": { "内容": "特別養護老人ホーム　明峰の里【介護老人福祉施設】石川県小松市蛭川町西１０３番地１", "url": "https://www.kaigokensaku.mhlw.go.jp/17/index.php?action_kouhyou_detail_004_kani=true&JigyosyoCd=1770300521-00&ServiceCd=510&Type=search", "url2": "https://meihou-kai.jp" }, "geometry": { "type": "Point", "coordinates": [ 136.455213800000024, 36.4341718 ] } },
{ "type": "Feature", "properties": { "内容": "特別養護老人ホームめぐみの里【介護老人福祉施設】石川県小松市平面町へ１３３番地１特別養護老人ホームめぐみの里", "url": "https://www.kaigokensaku.mhlw.go.jp/17/index.php?action_kouhyou_detail_004_kani=true&JigyosyoCd=1770301057-00&ServiceCd=510&Type=search", "url2": "http://www.meguminosato.or.jp/" }, "geometry": { "type": "Point", "coordinates": [ 136.46726232069534, 36.420755270876974 ] } },
{ "type": "Feature", "properties": { "内容": "特別養護老人ホーム　あての木園【介護老人福祉施設】輪島市三井町小泉上野２番地", "url": "https://www.kaigokensaku.mhlw.go.jp/17/index.php?action_kouhyou_detail_004_kani=true&JigyosyoCd=1770400016-00&ServiceCd=510&Type=search", "url2": "atenoki@skyblue.ocn.ne.jp" }, "geometry": { "type": "Point", "coordinates": [ 136.896431799999959, 37.2970977 ] } },
{ "type": "Feature", "properties": { "内容": "特別養護老人ホームゆきわりそう【介護老人福祉施設】石川県輪島市門前町深田２２－４２番地", "url": "https://www.kaigokensaku.mhlw.go.jp/17/index.php?action_kouhyou_detail_004_kani=true&JigyosyoCd=1770400123-00&ServiceCd=510&Type=search", "url2": "http://yukiwarisou.org" }, "geometry": { "type": "Point", "coordinates": [ 136.7805975, 37.2891781 ] } },
{ "type": "Feature", "properties": { "内容": "指定介護老人福祉施設あかかみ【介護老人福祉施設】石川県輪島市門前町赤神１０の１番地", "url": "https://www.kaigokensaku.mhlw.go.jp/17/index.php?action_kouhyou_detail_004_kani=true&JigyosyoCd=1770400115-00&ServiceCd=510&Type=search", "url2": "http//www.akakami.jp/" }, "geometry": { "type": "Point", "coordinates": [ 136.708625466934194, 37.246195100000016 ] } },
{ "type": "Feature", "properties": { "内容": "特別養護老人ホーム長寿園【介護老人福祉施設】宝立町春日野4字117番地", "url": "https://www.kaigokensaku.mhlw.go.jp/17/index.php?action_kouhyou_detail_004_kani=true&JigyosyoCd=1770500013-00&ServiceCd=510&Type=search", "url2": "https://choujukai-isk.jp" }, "geometry": { "type": "Point", "coordinates": [ 137.240272199999907, 37.4113186 ] } },
{ "type": "Feature", "properties": { "内容": "特別養護老人ホーム　慈妙院加賀【介護老人福祉施設】石川県加賀市大聖寺東町1丁目30番地", "url": "https://www.kaigokensaku.mhlw.go.jp/17/index.php?action_kouhyou_detail_004_kani=true&JigyosyoCd=1770600375-00&ServiceCd=510&Type=search", "url2": "http：//www.tokuhoukai.jp" }, "geometry": { "type": "Point", "coordinates": [ 136.318904299999986, 36.305632400000029 ] } },
{ "type": "Feature", "properties": { "内容": "特別養護老人ホーム　片山津温泉日日好日院【介護老人福祉施設】石川県加賀市片山津温泉ア９６番地１", "url": "https://www.kaigokensaku.mhlw.go.jp/17/index.php?action_kouhyou_detail_004_kani=true&JigyosyoCd=1770600177-00&ServiceCd=510&Type=search", "url2": "http://www.tokuhoukai.jp" }, "geometry": { "type": "Point", "coordinates": [ 136.36416250000002, 36.3487695 ] } },
{ "type": "Feature", "properties": { "内容": "特別養護老人ホーム　加賀中央慈妙院【介護老人福祉施設】石川県加賀市山田町蛇谷1番地16", "url": "https://www.kaigokensaku.mhlw.go.jp/17/index.php?action_kouhyou_detail_004_kani=true&JigyosyoCd=1770600052-00&ServiceCd=510&Type=search", "url2": "http://www.tokuhoukai.jp/" }, "geometry": { "type": "Point", "coordinates": [ 136.335046599999941, 36.3261359 ] } },
{ "type": "Feature", "properties": { "内容": "ユニット型特別養護老人ホームサンライフたきの里【介護老人福祉施設】石川県加賀市山中温泉滝町リ１番１", "url": "https://www.kaigokensaku.mhlw.go.jp/17/index.php?action_kouhyou_detail_004_kani=true&JigyosyoCd=1770600698-00&ServiceCd=510&Type=search", "url2": "https://chokyuhukushi.jp/" }, "geometry": { "type": "Point", "coordinates": [ 136.4012089, 36.2586118 ] } },
{ "type": "Feature", "properties": { "内容": "特別養護老人ホーム　藤華苑【介護老人福祉施設】石川県加賀市大聖寺東町1丁目26番地3", "url": "https://www.kaigokensaku.mhlw.go.jp/17/index.php?action_kouhyou_detail_004_kani=true&JigyosyoCd=1770600581-00&ServiceCd=510&Type=search", "url2": "http://www.tokuhoukai.jp/" }, "geometry": { "type": "Point", "coordinates": [ 136.318762464418, 36.305156100770724 ] } },
{ "type": "Feature", "properties": { "内容": "特別養護老人ホーム　はくいの郷【介護老人福祉施設】石川県羽咋市島出町上1番地３", "url": "https://www.kaigokensaku.mhlw.go.jp/17/index.php?action_kouhyou_detail_004_kani=true&JigyosyoCd=1770700225-00&ServiceCd=510&Type=search", "url2": "koukenkai.com" }, "geometry": { "type": "Point", "coordinates": [ 136.771326257672172, 36.900375305243571 ] } },
{ "type": "Feature", "properties": { "内容": "特別養護老人ホーム眉丈園【介護老人福祉施設】石川県羽咋市的場町稻荷山出口２６番地２", "url": "https://www.kaigokensaku.mhlw.go.jp/17/index.php?action_kouhyou_detail_004_kani=true&JigyosyoCd=1770700027-00&ServiceCd=510&Type=search", "url2": "http://www.bijyoukai.net/" }, "geometry": { "type": "Point", "coordinates": [ 136.780020263893107, 36.901789803931123 ] } },
{ "type": "Feature", "properties": { "内容": "特別養護老人ホームあかしあ荘【介護老人福祉施設】石川県かほく市白尾タ220番地", "url": "https://www.kaigokensaku.mhlw.go.jp/17/index.php?action_kouhyou_detail_004_kani=true&JigyosyoCd=1772100028-00&ServiceCd=510&Type=search", "url2": "http://care-net.biz/17/akasiasou/" }, "geometry": { "type": "Point", "coordinates": [ 136.695944245017586, 36.717650937081935 ] } },
{ "type": "Feature", "properties": { "内容": "特別養護老人ホーム　ことぶき園【介護老人福祉施設】石川県かほく市学園台5丁目19番地1", "url": "https://www.kaigokensaku.mhlw.go.jp/17/index.php?action_kouhyou_detail_004_kani=true&JigyosyoCd=1772100010-00&ServiceCd=510&Type=search", "url2": "https://f-kotobukien.jp" }, "geometry": { "type": "Point", "coordinates": [ 136.729490970101779, 36.779880216610287 ] } },
{ "type": "Feature", "properties": { "内容": "特別養護老人ホーム松美苑【介護老人福祉施設】石川県白山市笠間町1738番地", "url": "https://www.kaigokensaku.mhlw.go.jp/17/index.php?action_kouhyou_detail_004_kani=true&JigyosyoCd=1772200026-00&ServiceCd=510&Type=search", "url2": "http://www.fukujyukai.jp/kasama/index.html" }, "geometry": { "type": "Point", "coordinates": [ 136.522320700000023, 36.5025379 ] } },
{ "type": "Feature", "properties": { "内容": "美杉の郷【介護老人福祉施設】白山市桑島４号８７番地５", "url": "https://www.kaigokensaku.mhlw.go.jp/17/index.php?action_kouhyou_detail_004_kani=true&JigyosyoCd=1772200257-00&ServiceCd=510&Type=search", "url2": "www.misuginosato.jp" }, "geometry": { "type": "Point", "coordinates": [ 136.625598200000013, 36.1985246 ] } },
{ "type": "Feature", "properties": { "内容": "特別養護老人ホーム　キラッと篤寿苑【介護老人福祉施設】白山市平加町ヌ110-1", "url": "https://www.kaigokensaku.mhlw.go.jp/17/index.php?action_kouhyou_detail_004_kani=true&JigyosyoCd=1772200133-00&ServiceCd=510&Type=search", "url2": "http://www.tokuhoukai.jp/" }, "geometry": { "type": "Point", "coordinates": [ 136.489173899999969, 36.4934807 ] } },
{ "type": "Feature", "properties": { "内容": "つるべ荘【介護老人福祉施設】一塚町1351番地１", "url": "https://www.kaigokensaku.mhlw.go.jp/17/index.php?action_kouhyou_detail_004_kani=true&JigyosyoCd=1772200125-00&ServiceCd=510&Type=search", "url2": "https://www.fukushikai-m.com" }, "geometry": { "type": "Point", "coordinates": [ 136.558919100000026, 36.5614951 ] } },
{ "type": "Feature", "properties": { "内容": "特別養護老人ホーム　あじさいの郷【介護老人福祉施設】白山市明島町春130番地", "url": "https://www.kaigokensaku.mhlw.go.jp/17/index.php?action_kouhyou_detail_004_kani=true&JigyosyoCd=1772200208-00&ServiceCd=510&Type=search", "url2": "https://care-net.biz/17/ajisai2004/" }, "geometry": { "type": "Point", "coordinates": [ 136.61285190000001, 36.4610958 ] } },
{ "type": "Feature", "properties": { "内容": "特別養護老人ホーム　大門園【介護老人福祉施設】石川県白山市佐良ロ123番地", "url": "https://www.kaigokensaku.mhlw.go.jp/17/index.php?action_kouhyou_detail_004_kani=true&JigyosyoCd=1772200224-00&ServiceCd=510&Type=search", "url2": "https://daimonen.com" }, "geometry": { "type": "Point", "coordinates": [ 136.646557600000051, 36.324617 ] } },
{ "type": "Feature", "properties": { "内容": "特別養護老人ホーム　福寿園【介護老人福祉施設】白山市山島台四丁目100番地", "url": "https://www.kaigokensaku.mhlw.go.jp/17/index.php?action_kouhyou_detail_004_kani=true&JigyosyoCd=1772200018-00&ServiceCd=510&Type=search", "url2": "http://www.fukujyukai.jp/" }, "geometry": { "type": "Point", "coordinates": [ 136.575819599999932, 36.4706687 ] } },
{ "type": "Feature", "properties": { "内容": "特別養護老人ホーム　ボニュール根上苑【介護老人福祉施設】石川県能美市下ノ江町イ201番地1", "url": "https://www.kaigokensaku.mhlw.go.jp/17/index.php?action_kouhyou_detail_004_kani=true&JigyosyoCd=1772300040-00&ServiceCd=510&Type=search", "url2": "https://kihoukai.jp" }, "geometry": { "type": "Point", "coordinates": [ 136.453472199999965, 36.4385405 ] } },
{ "type": "Feature", "properties": { "内容": "特別養護老人ホーム湯寿園【介護老人福祉施設】能美市湯谷町乙88番地", "url": "https://www.kaigokensaku.mhlw.go.jp/17/index.php?action_kouhyou_detail_004_kani=true&JigyosyoCd=1772300057-00&ServiceCd=510&Type=search", "url2": "http://www.toujukai.com/" }, "geometry": { "type": "Point", "coordinates": [ 136.524228, 36.4361135 ] } },
{ "type": "Feature", "properties": { "内容": "富樫苑【介護老人福祉施設】石川県野々市市中林4-62", "url": "https://www.kaigokensaku.mhlw.go.jp/17/index.php?action_kouhyou_detail_004_kani=true&JigyosyoCd=1771300173-00&ServiceCd=510&Type=search", "url2": "https://www.togashi-en.jp" }, "geometry": { "type": "Point", "coordinates": [ 136.600508, 36.5160576 ] } },
{ "type": "Feature", "properties": { "内容": "特別養護老人ホームかんじん【介護老人福祉施設】石川県野々市市新庄二丁目４５番地", "url": "https://www.kaigokensaku.mhlw.go.jp/17/index.php?action_kouhyou_detail_004_kani=true&JigyosyoCd=1771300496-00&ServiceCd=510&Type=search", "url2": "https://yowakai.jp/kanjin/" }, "geometry": { "type": "Point", "coordinates": [ 136.609929839286792, 36.49677128837336 ] } },
{ "type": "Feature", "properties": { "内容": "特別養護老人ホームかんじん川北【介護老人福祉施設】石川県能美郡川北町字壱ツ屋２２５番地１特別養護老人ホームかんじん川北", "url": "https://www.kaigokensaku.mhlw.go.jp/17/index.php?action_kouhyou_detail_004_kani=true&JigyosyoCd=1771200225-00&ServiceCd=510&Type=search", "url2": "http://yowakai.jp" }, "geometry": { "type": "Point", "coordinates": [ 136.542663801960771, 36.466778577196642 ] } },
{ "type": "Feature", "properties": { "内容": "特別養護老人ホームふぃらーじゅ【介護老人福祉施設】石川県河北郡津幡町字東荒屋４１３番地", "url": "https://www.kaigokensaku.mhlw.go.jp/17/index.php?action_kouhyou_detail_004_kani=true&JigyosyoCd=1771400775-00&ServiceCd=510&Type=search", "url2": "http://www.feuillage.gr.jp/" }, "geometry": { "type": "Point", "coordinates": [ 136.750967, 36.6634122 ] } },
{ "type": "Feature", "properties": { "内容": "特別養護老人ホームあがたの里【介護老人福祉施設】石川県河北郡津幡町字能瀬イ1番地1あがたの里", "url": "https://www.kaigokensaku.mhlw.go.jp/17/index.php?action_kouhyou_detail_004_kani=true&JigyosyoCd=1771400148-00&ServiceCd=510&Type=search", "url2": "http://www.agata.ecnet.jp" }, "geometry": { "type": "Point", "coordinates": [ 136.726180500000027, 36.6895246 ] } },
{ "type": "Feature", "properties": { "内容": "特別養護老人ホーム　夕陽ヶ丘苑【介護老人福祉施設】河北郡内灘町字大学１丁目５番地１", "url": "https://www.kaigokensaku.mhlw.go.jp/17/index.php?action_kouhyou_detail_004_kani=true&JigyosyoCd=1771400098-00&ServiceCd=510&Type=search", "url2": "https://care-net.biz/17/yuuhigaokaen/" }, "geometry": { "type": "Point", "coordinates": [ 136.647652599999986, 36.659879 ] } },
{ "type": "Feature", "properties": { "内容": "ますほの里【介護老人福祉施設】石川県羽咋郡志賀町酒見韮山205番地特別養護老人ホームますほの里", "url": "https://www.kaigokensaku.mhlw.go.jp/17/index.php?action_kouhyou_detail_004_kani=true&JigyosyoCd=1771500210-00&ServiceCd=510&Type=search", "url2": null }, "geometry": { "type": "Point", "coordinates": [ 136.70108730000004, 37.1511219 ] } },
{ "type": "Feature", "properties": { "内容": "介護老人福祉施設はまなす園【介護老人福祉施設】羽咋郡志賀町赤住ハの４番地１", "url": "https://www.kaigokensaku.mhlw.go.jp/17/index.php?action_kouhyou_detail_004_kani=true&JigyosyoCd=1771500095-00&ServiceCd=510&Type=search", "url2": "http://www.hamanasuen.jp" }, "geometry": { "type": "Point", "coordinates": [ 136.740475400000037, 37.0498217 ] } },
{ "type": "Feature", "properties": { "内容": "特別養護老人ホームちどり園【介護老人福祉施設】石川県羽咋郡宝達志水町宿五号１０番地２", "url": "https://www.kaigokensaku.mhlw.go.jp/17/index.php?action_kouhyou_detail_004_kani=true&JigyosyoCd=1771500111-00&ServiceCd=510&Type=search", "url2": "http://nagisa-chidori.com/" }, "geometry": { "type": "Point", "coordinates": [ 136.7756657, 36.8441142 ] } },
{ "type": "Feature", "properties": { "内容": "特別養護老人ホーム　宝達苑【介護老人福祉施設】石川県羽咋郡宝達志水町北川尻二部55番地", "url": "https://www.kaigokensaku.mhlw.go.jp/17/index.php?action_kouhyou_detail_004_kani=true&JigyosyoCd=1771500152-00&ServiceCd=510&Type=search", "url2": "http://www.koukenkai.com" }, "geometry": { "type": "Point", "coordinates": [ 136.749957340911806, 36.800222621810846 ] } },
{ "type": "Feature", "properties": { "内容": "特別養護老人ホーム鹿寿苑【介護老人福祉施設】石川県鹿島郡中能登町西馬場エ部５６番地", "url": "https://www.kaigokensaku.mhlw.go.jp/17/index.php?action_kouhyou_detail_004_kani=true&JigyosyoCd=1771600051-00&ServiceCd=510&Type=search", "url2": "https://www.rokujyuen.com" }, "geometry": { "type": "Point", "coordinates": [ 136.902, 36.98 ] } },
{ "type": "Feature", "properties": { "内容": "特別養護老人ホーム　能登穴水聖頌園【介護老人福祉施設】石川県鳳珠郡穴水町字岩車6,27の2番地", "url": "https://www.kaigokensaku.mhlw.go.jp/17/index.php?action_kouhyou_detail_004_kani=true&JigyosyoCd=1771700125-00&ServiceCd=510&Type=search", "url2": "http://www.bokuyoufukushikai.com" }, "geometry": { "type": "Point", "coordinates": [ 136.960687199999938, 37.2112538 ] } },
{ "type": "Feature", "properties": { "内容": "特別養護老人ホーム第二長寿園【介護老人福祉施設】鳳珠郡能登町字布浦ノ字１０番地３", "url": "https://www.kaigokensaku.mhlw.go.jp/17/index.php?action_kouhyou_detail_004_kani=true&JigyosyoCd=1771700265-00&ServiceCd=510&Type=search", "url2": "https://choujukai-isk.jp" }, "geometry": { "type": "Point", "coordinates": [ 137.253179400000022, 37.3449061 ] } },
{ "type": "Feature", "properties": { "内容": "特別養護老人ホーム石川県鳳寿荘【介護老人福祉施設】能登町字藤波井字48-2", "url": "https://www.kaigokensaku.mhlw.go.jp/17/index.php?action_kouhyou_detail_004_kani=true&JigyosyoCd=1771700117-00&ServiceCd=510&Type=search", "url2": "https://care-net.biz/17/houjusou/" }, "geometry": { "type": "Point", "coordinates": [ 137.24452139999994, 37.3532156 ] } },
{ "type": "Feature", "properties": { "内容": "特別養護老人ホーム　こすもす【介護老人福祉施設】石川県鳳珠郡能登町字五郎左エ門分藤17番地", "url": "https://www.kaigokensaku.mhlw.go.jp/17/index.php?action_kouhyou_detail_004_kani=true&JigyosyoCd=1771700174-00&ServiceCd=510&Type=search", "url2": "www.cosmos-seisyokai.com" }, "geometry": { "type": "Point", "coordinates": [ 137.087225934530608, 37.344789006325406 ] } }
]
}
