{
"type": "FeatureCollection",
"name": "geo_17_訪問介護",
"crs": { "type": "name", "properties": { "name": "urn:ogc:def:crs:OGC:1.3:CRS84" } },
"features": [
{ "type": "Feature", "properties": { "内容": "さくら・介護ステーションあかり【訪問介護】金沢市小橋町６番３号柴田ハイツ２０１号室", "url2": "https://www.kaigokensaku.mhlw.go.jp/17/index.php?action_kouhyou_detail_004_kani=true&JigyosyoCd=1770104337-00&ServiceCd=110&Type=search" }, "geometry": { "type": "Point", "coordinates": [ 136.6639374, 36.5779094 ] } },
{ "type": "Feature", "properties": { "内容": "訪問介護事業所　白寿園金沢西【訪問介護】石川県金沢市古府3丁目99番地", "url2": "https://www.kaigokensaku.mhlw.go.jp/17/index.php?action_kouhyou_detail_004_kani=true&JigyosyoCd=1770105250-00&ServiceCd=110&Type=search" }, "geometry": { "type": "Point", "coordinates": [ 136.607604400000014, 36.5702109 ] } },
{ "type": "Feature", "properties": { "内容": "ヘルパーステーションむぎ【訪問介護】石川県金沢市保古1丁目90番地フロール601号室", "url2": "https://www.kaigokensaku.mhlw.go.jp/17/index.php?action_kouhyou_detail_004_kani=true&JigyosyoCd=1770106720-00&ServiceCd=110&Type=search" }, "geometry": { "type": "Point", "coordinates": [ 136.6216432, 36.5575876 ] } },
{ "type": "Feature", "properties": { "内容": "ヘルパーステーション味噌蔵【訪問介護】石川県金沢市兼六元町15-33住宅型有料老人ホーム味噌蔵", "url2": "https://www.kaigokensaku.mhlw.go.jp/17/index.php?action_kouhyou_detail_004_kani=true&JigyosyoCd=1770106480-00&ServiceCd=110&Type=search" }, "geometry": { "type": "Point", "coordinates": [ 136.666973900000016, 36.5646028 ] } },
{ "type": "Feature", "properties": { "内容": "訪問介護事業所　白寿園【訪問介護】金沢市鞍月4丁目143番地", "url2": "https://www.kaigokensaku.mhlw.go.jp/17/index.php?action_kouhyou_detail_004_kani=true&JigyosyoCd=1770102893-00&ServiceCd=110&Type=search" }, "geometry": { "type": "Point", "coordinates": [ 136.62351149999995, 36.5969007 ] } },
{ "type": "Feature", "properties": { "内容": "訪問介護事業所　白寿園城北【訪問介護】浅野本町ニ124番地1", "url2": "https://www.kaigokensaku.mhlw.go.jp/17/index.php?action_kouhyou_detail_004_kani=true&JigyosyoCd=1770105268-00&ServiceCd=110&Type=search" }, "geometry": { "type": "Point", "coordinates": [ 136.656918099999984, 36.5871385 ] } },
{ "type": "Feature", "properties": { "内容": "有限会社　伸和　介護サービス　すこやかさん【訪問介護】金沢市入江2丁目４２４", "url2": "https://www.kaigokensaku.mhlw.go.jp/17/index.php?action_kouhyou_detail_004_kani=true&JigyosyoCd=1770102554-00&ServiceCd=110&Type=search" }, "geometry": { "type": "Point", "coordinates": [ 136.626856800000041, 36.5662823 ] } },
{ "type": "Feature", "properties": { "内容": "ホームヘルプサービス・ホクレア【訪問介護】石川県金沢市神野2丁目56番地BequemⅢ　101号", "url2": "https://www.kaigokensaku.mhlw.go.jp/17/index.php?action_kouhyou_detail_004_kani=true&JigyosyoCd=1770104063-00&ServiceCd=110&Type=search" }, "geometry": { "type": "Point", "coordinates": [ 136.594997445369017, 36.565578917346279 ] } },
{ "type": "Feature", "properties": { "内容": "陽風園訪問介護センター【訪問介護】金沢市三口新町１丁目８番１号", "url2": "https://www.kaigokensaku.mhlw.go.jp/17/index.php?action_kouhyou_detail_004_kani=true&JigyosyoCd=1770100145-00&ServiceCd=110&Type=search" }, "geometry": { "type": "Point", "coordinates": [ 136.682270799999969, 36.5402835 ] } },
{ "type": "Feature", "properties": { "内容": "パートナーズ金沢中央【訪問介護】石川県金沢市糸田二丁目１８１番地　ヴィレーラ1階ヴィレーラ１階", "url2": "https://www.kaigokensaku.mhlw.go.jp/17/index.php?action_kouhyou_detail_004_kani=true&JigyosyoCd=1770106423-00&ServiceCd=110&Type=search" }, "geometry": { "type": "Point", "coordinates": [ 136.623471368122864, 36.559206389550447 ] } },
{ "type": "Feature", "properties": { "内容": "ヘルパーステーションとびうめ【訪問介護】石川県金沢市飛梅町2番1号とびうめ館", "url2": "https://www.kaigokensaku.mhlw.go.jp/17/index.php?action_kouhyou_detail_004_kani=true&JigyosyoCd=1710112846-00&ServiceCd=110&Type=search" }, "geometry": { "type": "Point", "coordinates": [ 136.667579499999988, 36.5591035 ] } },
{ "type": "Feature", "properties": { "内容": "訪問介護ぷー【訪問介護】石川県金沢市金石通町2番12号", "url2": "https://www.kaigokensaku.mhlw.go.jp/17/index.php?action_kouhyou_detail_004_kani=true&JigyosyoCd=1770106985-00&ServiceCd=110&Type=search" }, "geometry": { "type": "Point", "coordinates": [ 136.594475100000039, 36.6039842 ] } },
{ "type": "Feature", "properties": { "内容": "にっこり神宮寺【訪問介護】金沢市神宮寺１丁目１番１号", "url2": "https://www.kaigokensaku.mhlw.go.jp/17/index.php?action_kouhyou_detail_004_kani=true&JigyosyoCd=1770103339-00&ServiceCd=110&Type=search" }, "geometry": { "type": "Point", "coordinates": [ 136.669042499999932, 36.5812451 ] } },
{ "type": "Feature", "properties": { "内容": "こみけあヘルパーステーション光が丘【訪問介護】金沢市光が丘3丁目211番地2こみけあ光が丘（1番館）", "url2": "https://www.kaigokensaku.mhlw.go.jp/17/index.php?action_kouhyou_detail_004_kani=true&JigyosyoCd=1770103420-00&ServiceCd=110&Type=search" }, "geometry": { "type": "Point", "coordinates": [ 136.62732230000006, 36.5121722 ] } },
{ "type": "Feature", "properties": { "内容": "金沢春日ケアセンター【訪問介護】金沢市元菊町20番1号", "url2": "https://www.kaigokensaku.mhlw.go.jp/17/index.php?action_kouhyou_detail_004_kani=true&JigyosyoCd=1750180018-00&ServiceCd=110&Type=search" }, "geometry": { "type": "Point", "coordinates": [ 136.642261100000042, 36.573679 ] } },
{ "type": "Feature", "properties": { "内容": "にじいろケアプラス【訪問介護】石川県金沢市近岡町３８８番地1", "url2": "https://www.kaigokensaku.mhlw.go.jp/17/index.php?action_kouhyou_detail_004_kani=true&JigyosyoCd=1760191054-00&ServiceCd=110&Type=search" }, "geometry": { "type": "Point", "coordinates": [ 136.6324473, 36.61219 ] } },
{ "type": "Feature", "properties": { "内容": "たけの子【訪問介護】石川県金沢市南四十万1丁目89番地4", "url2": "https://www.kaigokensaku.mhlw.go.jp/17/index.php?action_kouhyou_detail_004_kani=true&JigyosyoCd=1770104147-00&ServiceCd=110&Type=search" }, "geometry": { "type": "Point", "coordinates": [ 136.622017000512102, 36.49886695237457 ] } },
{ "type": "Feature", "properties": { "内容": "ヘルパーステーション　りんく【訪問介護】額谷１丁目８１番", "url2": "https://www.kaigokensaku.mhlw.go.jp/17/index.php?action_kouhyou_detail_004_kani=true&JigyosyoCd=1770101663-00&ServiceCd=110&Type=search" }, "geometry": { "type": "Point", "coordinates": [ 136.62830075172883, 36.510395092683581 ] } },
{ "type": "Feature", "properties": { "内容": "特定非営利活動法人　金沢市ホームヘルプサービスひまわり【訪問介護】金沢市三社町1番４４号石川県女性センター　1階", "url2": "https://www.kaigokensaku.mhlw.go.jp/17/index.php?action_kouhyou_detail_004_kani=true&JigyosyoCd=1770100673-00&ServiceCd=110&Type=search" }, "geometry": { "type": "Point", "coordinates": [ 136.64537770000004, 36.5705768 ] } },
{ "type": "Feature", "properties": { "内容": "エミュ　ケアステーション【訪問介護】石川県金沢市窪7-364　伏見台ガーデンコート西尾ビル506号室", "url2": "https://www.kaigokensaku.mhlw.go.jp/17/index.php?action_kouhyou_detail_004_kani=true&JigyosyoCd=1770104378-00&ServiceCd=110&Type=search" }, "geometry": { "type": "Point", "coordinates": [ 136.63887455743577, 36.53180313135833 ] } },
{ "type": "Feature", "properties": { "内容": "尾山互町ホームヘルプサービスセンター【訪問介護】石川県金沢市下本多町五番丁23番地", "url2": "https://www.kaigokensaku.mhlw.go.jp/17/index.php?action_kouhyou_detail_004_kani=true&JigyosyoCd=1770106100-00&ServiceCd=110&Type=search" }, "geometry": { "type": "Point", "coordinates": [ 136.65755551586912, 36.556901400887874 ] } },
{ "type": "Feature", "properties": { "内容": "すずらんケアセンター【訪問介護】金沢市二口町イ109番地", "url2": "https://www.kaigokensaku.mhlw.go.jp/17/index.php?action_kouhyou_detail_004_kani=true&JigyosyoCd=1770103008-00&ServiceCd=110&Type=search" }, "geometry": { "type": "Point", "coordinates": [ 136.636109007903997, 36.573509421246754 ] } },
{ "type": "Feature", "properties": { "内容": "合同会社いえる【訪問介護】石川県金沢市長田２丁目１４番４号", "url2": "https://www.kaigokensaku.mhlw.go.jp/17/index.php?action_kouhyou_detail_004_kani=true&JigyosyoCd=1770105631-00&ServiceCd=110&Type=search" }, "geometry": { "type": "Point", "coordinates": [ 136.637931291881614, 36.577358540366255 ] } },
{ "type": "Feature", "properties": { "内容": "いやし訪問介護支援事業所【訪問介護】石川県金沢市高畠3-88", "url2": "https://www.kaigokensaku.mhlw.go.jp/17/index.php?action_kouhyou_detail_004_kani=true&JigyosyoCd=1770105953-00&ServiceCd=110&Type=search" }, "geometry": { "type": "Point", "coordinates": [ 136.6156953, 36.5728112 ] } },
{ "type": "Feature", "properties": { "内容": "訪問介護いっぷく【訪問介護】石川県金沢市北町丁３５番地林ビル３階", "url2": "https://www.kaigokensaku.mhlw.go.jp/17/index.php?action_kouhyou_detail_004_kani=true&JigyosyoCd=1770106746-00&ServiceCd=110&Type=search" }, "geometry": { "type": "Point", "coordinates": [ 136.6298588, 36.5825257 ] } },
{ "type": "Feature", "properties": { "内容": "Ｓｈａｒｅ金沢【訪問介護】石川県金沢市若松町セ１０４番1", "url2": "https://www.kaigokensaku.mhlw.go.jp/17/index.php?action_kouhyou_detail_004_kani=true&JigyosyoCd=1770105136-00&ServiceCd=110&Type=search" }, "geometry": { "type": "Point", "coordinates": [ 136.6945028, 36.5472301 ] } },
{ "type": "Feature", "properties": { "内容": "特定非営利活動法人　さわやかいいね金沢【訪問介護】金沢市横川4丁目153番地1", "url2": "https://www.kaigokensaku.mhlw.go.jp/17/index.php?action_kouhyou_detail_004_kani=true&JigyosyoCd=1770101895-00&ServiceCd=110&Type=search" }, "geometry": { "type": "Point", "coordinates": [ 136.6285775, 36.5400633 ] } },
{ "type": "Feature", "properties": { "内容": "ヘルパーステーション　あおぞら【訪問介護】金沢市天神町1丁目18番37号", "url2": "https://www.kaigokensaku.mhlw.go.jp/17/index.php?action_kouhyou_detail_004_kani=true&JigyosyoCd=1760190312-00&ServiceCd=110&Type=search" }, "geometry": { "type": "Point", "coordinates": [ 136.67918439999994, 36.557637 ] } },
{ "type": "Feature", "properties": { "内容": "ふきのとう【訪問介護】石川県金沢市額谷2丁目45番地", "url2": "https://www.kaigokensaku.mhlw.go.jp/17/index.php?action_kouhyou_detail_004_kani=true&JigyosyoCd=1770102422-00&ServiceCd=110&Type=search" }, "geometry": { "type": "Point", "coordinates": [ 136.625272499999937, 36.5092058 ] } },
{ "type": "Feature", "properties": { "内容": "訪問介護ステーションWithパル【訪問介護】石川県金沢市長坂２丁目5-22山吉荘　A号", "url2": "https://www.kaigokensaku.mhlw.go.jp/17/index.php?action_kouhyou_detail_004_kani=true&JigyosyoCd=1770107215-00&ServiceCd=110&Type=search" }, "geometry": { "type": "Point", "coordinates": [ 136.661175100000037, 36.5370066 ] } },
{ "type": "Feature", "properties": { "内容": "彦三きらく園訪問介護事業所【訪問介護】石川県金沢市彦三町1-8-8", "url2": "https://www.kaigokensaku.mhlw.go.jp/17/index.php?action_kouhyou_detail_004_kani=true&JigyosyoCd=1770100772-00&ServiceCd=110&Type=search" }, "geometry": { "type": "Point", "coordinates": [ 136.6613016, 36.5730989 ] } },
{ "type": "Feature", "properties": { "内容": "訪問介護シースリー【訪問介護】石川県金沢市末町４の123番地８", "url2": "https://www.kaigokensaku.mhlw.go.jp/17/index.php?action_kouhyou_detail_004_kani=true&JigyosyoCd=1770106860-00&ServiceCd=110&Type=search" }, "geometry": { "type": "Point", "coordinates": [ 136.6924726, 36.5153915 ] } },
{ "type": "Feature", "properties": { "内容": "ヘルパーステーション　クレス【訪問介護】石川県金沢市保古2丁目130-1", "url2": "https://www.kaigokensaku.mhlw.go.jp/17/index.php?action_kouhyou_detail_004_kani=true&JigyosyoCd=1770103693-00&ServiceCd=110&Type=search" }, "geometry": { "type": "Point", "coordinates": [ 136.617690399999987, 36.5548255 ] } },
{ "type": "Feature", "properties": { "内容": "ニチイケアセンターもろえ【訪問介護】金沢市三口町火３７", "url2": "https://www.kaigokensaku.mhlw.go.jp/17/index.php?action_kouhyou_detail_004_kani=true&JigyosyoCd=1770104618-00&ServiceCd=110&Type=search" }, "geometry": { "type": "Point", "coordinates": [ 136.643098900000041, 36.6092658 ] } },
{ "type": "Feature", "properties": { "内容": "訪問介護　金沢健康企画【訪問介護】石川県金沢市西念4丁目19⁻43", "url2": "https://www.kaigokensaku.mhlw.go.jp/17/index.php?action_kouhyou_detail_004_kani=true&JigyosyoCd=1770105698-00&ServiceCd=110&Type=search" }, "geometry": { "type": "Point", "coordinates": [ 136.633948665145653, 36.588073754602526 ] } },
{ "type": "Feature", "properties": { "内容": "ふれあいタウン訪問介護事業所【訪問介護】有松2丁目4番32号", "url2": "https://www.kaigokensaku.mhlw.go.jp/17/index.php?action_kouhyou_detail_004_kani=true&JigyosyoCd=1770107306-00&ServiceCd=110&Type=search" }, "geometry": { "type": "Point", "coordinates": [ 136.639459499999987, 36.5426024 ] } },
{ "type": "Feature", "properties": { "内容": "リアン【訪問介護】石川県金沢市泉野町６丁目３番２０号Rect　Izuminodai　E棟", "url2": "https://www.kaigokensaku.mhlw.go.jp/17/index.php?action_kouhyou_detail_004_kani=true&JigyosyoCd=1770106506-00&ServiceCd=110&Type=search" }, "geometry": { "type": "Point", "coordinates": [ 136.65054587329405, 36.543116345670825 ] } },
{ "type": "Feature", "properties": { "内容": "有限会社　ヘルパ－ステ－ション愛【訪問介護】石川県金沢市古府町南386番地2", "url2": "https://www.kaigokensaku.mhlw.go.jp/17/index.php?action_kouhyou_detail_004_kani=true&JigyosyoCd=1770102125-00&ServiceCd=110&Type=search" }, "geometry": { "type": "Point", "coordinates": [ 136.610839199999987, 36.5616799 ] } },
{ "type": "Feature", "properties": { "内容": "ヘルパーステーション　れんげの郷【訪問介護】石川県金沢市小立野3丁目24番13号", "url2": "https://www.kaigokensaku.mhlw.go.jp/17/index.php?action_kouhyou_detail_004_kani=true&JigyosyoCd=1770105714-00&ServiceCd=110&Type=search" }, "geometry": { "type": "Point", "coordinates": [ 136.677145900000028, 36.548627 ] } },
{ "type": "Feature", "properties": { "内容": "NPO法人WAC「輝き」ヘルパーステーションかがやきの家【訪問介護】石川県金沢市東力1丁目153番地", "url2": "https://www.kaigokensaku.mhlw.go.jp/17/index.php?action_kouhyou_detail_004_kani=true&JigyosyoCd=1770102166-00&ServiceCd=110&Type=search" }, "geometry": { "type": "Point", "coordinates": [ 136.624475890633789, 36.560963639772879 ] } },
{ "type": "Feature", "properties": { "内容": "ヘルパーステーション愛の風【訪問介護】石川県金沢市高畠１丁目３６８番地", "url2": "https://www.kaigokensaku.mhlw.go.jp/17/index.php?action_kouhyou_detail_004_kani=true&JigyosyoCd=1770107439-00&ServiceCd=110&Type=search" }, "geometry": { "type": "Point", "coordinates": [ 136.6141025, 36.5712037 ] } },
{ "type": "Feature", "properties": { "内容": "（有）ケアサービス金沢【訪問介護】長町2丁目7番24号", "url2": "https://www.kaigokensaku.mhlw.go.jp/17/index.php?action_kouhyou_detail_004_kani=true&JigyosyoCd=1770104782-00&ServiceCd=110&Type=search" }, "geometry": { "type": "Point", "coordinates": [ 136.646402800000033, 36.5654552 ] } },
{ "type": "Feature", "properties": { "内容": "ニチイケアセンターかないわ【訪問介護】石川県金沢市金石本町ロ－３１－１", "url2": "https://www.kaigokensaku.mhlw.go.jp/17/index.php?action_kouhyou_detail_004_kani=true&JigyosyoCd=1770101044-00&ServiceCd=110&Type=search" }, "geometry": { "type": "Point", "coordinates": [ 136.596630600000026, 36.5979527 ] } },
{ "type": "Feature", "properties": { "内容": "訪問介護事業所　れんと【訪問介護】大額2丁目67番地", "url2": "https://www.kaigokensaku.mhlw.go.jp/17/index.php?action_kouhyou_detail_004_kani=true&JigyosyoCd=1770104758-00&ServiceCd=110&Type=search" }, "geometry": { "type": "Point", "coordinates": [ 136.625078, 36.5153328 ] } },
{ "type": "Feature", "properties": { "内容": "公益社団法人石川勤労者医療協会ヘルパーステーションたんぽぽ【訪問介護】石川県金沢市平和町３丁目５番２号", "url2": "https://www.kaigokensaku.mhlw.go.jp/17/index.php?action_kouhyou_detail_004_kani=true&JigyosyoCd=1710118223-00&ServiceCd=110&Type=search" }, "geometry": { "type": "Point", "coordinates": [ 136.6609082, 36.5411501 ] } },
{ "type": "Feature", "properties": { "内容": "ヘルパーステーション医王山【訪問介護】田上さくら1丁目36番地住宅型有料老人ホーム医王山", "url2": "https://www.kaigokensaku.mhlw.go.jp/17/index.php?action_kouhyou_detail_004_kani=true&JigyosyoCd=1770103115-00&ServiceCd=110&Type=search" }, "geometry": { "type": "Point", "coordinates": [ 136.691390914680511, 36.540731880560557 ] } },
{ "type": "Feature", "properties": { "内容": "ニチイケアセンター田上【訪問介護】石川県金沢市田上本町3丁目80－1TK7　Ｅ号室", "url2": "https://www.kaigokensaku.mhlw.go.jp/17/index.php?action_kouhyou_detail_004_kani=true&JigyosyoCd=1770106456-00&ServiceCd=110&Type=search" }, "geometry": { "type": "Point", "coordinates": [ 136.695815, 36.536965 ] } },
{ "type": "Feature", "properties": { "内容": "ニチイケアセンター不動寺【訪問介護】石川県金沢市堅田丙４８－１", "url2": "https://www.kaigokensaku.mhlw.go.jp/17/index.php?action_kouhyou_detail_004_kani=true&JigyosyoCd=1770101051-00&ServiceCd=110&Type=search" }, "geometry": { "type": "Point", "coordinates": [ 136.703377100000012, 36.6092505 ] } },
{ "type": "Feature", "properties": { "内容": "アースサポート金沢【訪問介護】石川県金沢市西念三丁目11番1号光オフィス1C", "url2": "https://www.kaigokensaku.mhlw.go.jp/17/index.php?action_kouhyou_detail_004_kani=true&JigyosyoCd=1770104436-00&ServiceCd=110&Type=search" }, "geometry": { "type": "Point", "coordinates": [ 136.6378277, 36.58618 ] } },
{ "type": "Feature", "properties": { "内容": "清泉ヘルパーステーション　あんず館【訪問介護】石川県金沢市泉本町1丁目107番地1号", "url2": "https://www.kaigokensaku.mhlw.go.jp/17/index.php?action_kouhyou_detail_004_kani=true&JigyosyoCd=1770102323-00&ServiceCd=110&Type=search" }, "geometry": { "type": "Point", "coordinates": [ 136.6369876, 36.546235 ] } },
{ "type": "Feature", "properties": { "内容": "訪問介護事業所ふくらすずめ【訪問介護】石川県金沢市黒田1丁目39番3", "url2": "https://www.kaigokensaku.mhlw.go.jp/17/index.php?action_kouhyou_detail_004_kani=true&JigyosyoCd=1770106589-00&ServiceCd=110&Type=search" }, "geometry": { "type": "Point", "coordinates": [ 136.614706529522266, 36.560963537636603 ] } },
{ "type": "Feature", "properties": { "内容": "ヘルパーステーションやすらぎ【訪問介護】金沢市上荒屋1-39", "url2": "https://www.kaigokensaku.mhlw.go.jp/17/index.php?action_kouhyou_detail_004_kani=true&JigyosyoCd=1770100186-00&ServiceCd=110&Type=search" }, "geometry": { "type": "Point", "coordinates": [ 136.593050100000028, 36.5456846 ] } },
{ "type": "Feature", "properties": { "内容": "訪問介護事業所　朗　高尾台【訪問介護】石川県金沢市高尾台1丁目449番地", "url2": "https://www.kaigokensaku.mhlw.go.jp/17/index.php?action_kouhyou_detail_004_kani=true&JigyosyoCd=1770102760-00&ServiceCd=110&Type=search" }, "geometry": { "type": "Point", "coordinates": [ 136.639548, 36.5236548 ] } },
{ "type": "Feature", "properties": { "内容": "ヘルパーステーションつくしんぼ【訪問介護】石川県金沢市京町２０番５０号城北クリニック", "url2": "https://www.kaigokensaku.mhlw.go.jp/17/index.php?action_kouhyou_detail_004_kani=true&JigyosyoCd=1710117688-00&ServiceCd=110&Type=search" }, "geometry": { "type": "Point", "coordinates": [ 136.656471868968282, 36.582951888512206 ] } },
{ "type": "Feature", "properties": { "内容": "ニチイケアセンター笠舞【訪問介護】石川県金沢市笠舞本町１－４－５", "url2": "https://www.kaigokensaku.mhlw.go.jp/17/index.php?action_kouhyou_detail_004_kani=true&JigyosyoCd=1770101234-00&ServiceCd=110&Type=search" }, "geometry": { "type": "Point", "coordinates": [ 136.675071300000013, 36.545393300000015 ] } },
{ "type": "Feature", "properties": { "内容": "訪問介護キャッツアイ【訪問介護】石川県金沢市糸田1丁目75番地", "url2": "https://www.kaigokensaku.mhlw.go.jp/17/index.php?action_kouhyou_detail_004_kani=true&JigyosyoCd=1770105904-00&ServiceCd=110&Type=search" }, "geometry": { "type": "Point", "coordinates": [ 136.628470372733119, 36.559249976457359 ] } },
{ "type": "Feature", "properties": { "内容": "ＳＯＭＰＯケア　金沢金石　訪問介護【訪問介護】石川県金沢市桂町ロ45番地1", "url2": "https://www.kaigokensaku.mhlw.go.jp/17/index.php?action_kouhyou_detail_004_kani=true&JigyosyoCd=1770103164-00&ServiceCd=110&Type=search" }, "geometry": { "type": "Point", "coordinates": [ 136.6036416, 36.60301 ] } },
{ "type": "Feature", "properties": { "内容": "ニチイケアセンター横川【訪問介護】横川5丁目445YSビル102号室", "url2": "https://www.kaigokensaku.mhlw.go.jp/17/index.php?action_kouhyou_detail_004_kani=true&JigyosyoCd=1770106464-00&ServiceCd=110&Type=search" }, "geometry": { "type": "Point", "coordinates": [ 136.6289208, 36.5415676 ] } },
{ "type": "Feature", "properties": { "内容": "パートナーズ金沢南【訪問介護】石川県金沢市高尾台１丁目１００番地2", "url2": "https://www.kaigokensaku.mhlw.go.jp/17/index.php?action_kouhyou_detail_004_kani=true&JigyosyoCd=1770105086-00&ServiceCd=110&Type=search" }, "geometry": { "type": "Point", "coordinates": [ 136.634725495700877, 36.52427355436312 ] } },
{ "type": "Feature", "properties": { "内容": "コープいしかわケアセンター金沢【訪問介護】入江2-384", "url2": "https://www.kaigokensaku.mhlw.go.jp/17/index.php?action_kouhyou_detail_004_kani=true&JigyosyoCd=1770102653-00&ServiceCd=110&Type=search" }, "geometry": { "type": "Point", "coordinates": [ 136.626573399999984, 36.5681988 ] } },
{ "type": "Feature", "properties": { "内容": "訪問介護事業所　ひゃくまん星増泉【訪問介護】石川県金沢市増泉1丁目16番41号", "url2": "https://www.kaigokensaku.mhlw.go.jp/17/index.php?action_kouhyou_detail_004_kani=true&JigyosyoCd=1770105789-00&ServiceCd=110&Type=search" }, "geometry": { "type": "Point", "coordinates": [ 136.6448004, 36.5586254 ] } },
{ "type": "Feature", "properties": { "内容": "ニチイケアセンター大額【訪問介護】大額３丁目２１３番地", "url2": "https://www.kaigokensaku.mhlw.go.jp/17/index.php?action_kouhyou_detail_004_kani=true&JigyosyoCd=1770100863-00&ServiceCd=110&Type=search" }, "geometry": { "type": "Point", "coordinates": [ 136.622906, 36.5122331 ] } },
{ "type": "Feature", "properties": { "内容": "訪問介護ゆとりの園西金沢【訪問介護】石川県金沢市米泉町7丁目59番地", "url2": "https://www.kaigokensaku.mhlw.go.jp/17/index.php?action_kouhyou_detail_004_kani=true&JigyosyoCd=1770105664-00&ServiceCd=110&Type=search" }, "geometry": { "type": "Point", "coordinates": [ 136.623513399999979, 36.5521117 ] } },
{ "type": "Feature", "properties": { "内容": "やよい介護センター【訪問介護】石川県金沢市泉本町4丁目41番地1スプリングホーム泉本町内", "url2": "https://www.kaigokensaku.mhlw.go.jp/17/index.php?action_kouhyou_detail_004_kani=true&JigyosyoCd=1770107074-00&ServiceCd=110&Type=search" }, "geometry": { "type": "Point", "coordinates": [ 136.637772399999989, 36.5515983 ] } },
{ "type": "Feature", "properties": { "内容": "社会福祉法人北伸福祉会　あいびす訪問介護事業所【訪問介護】石川県金沢市北塚町西４７５番地朱鷺の苑二塚デイサービス　２階", "url2": "https://www.kaigokensaku.mhlw.go.jp/17/index.php?action_kouhyou_detail_004_kani=true&JigyosyoCd=1770100228-00&ServiceCd=110&Type=search" }, "geometry": { "type": "Point", "coordinates": [ 136.594174136245783, 36.56962423340704 ] } },
{ "type": "Feature", "properties": { "内容": "訪問ヘルパーステーションささ百合【訪問介護】石川県金沢市御所町２丁目３０６番有料老人ホームささ百合", "url2": "https://www.kaigokensaku.mhlw.go.jp/17/index.php?action_kouhyou_detail_004_kani=true&JigyosyoCd=1770106605-00&ServiceCd=110&Type=search" }, "geometry": { "type": "Point", "coordinates": [ 136.701257700000014, 36.57941597159909 ] } },
{ "type": "Feature", "properties": { "内容": "訪問介護ゆとりの園【訪問介護】入江1丁目219番地", "url2": "https://www.kaigokensaku.mhlw.go.jp/17/index.php?action_kouhyou_detail_004_kani=true&JigyosyoCd=1770104634-00&ServiceCd=110&Type=search" }, "geometry": { "type": "Point", "coordinates": [ 136.631595455120873, 36.567313603066225 ] } },
{ "type": "Feature", "properties": { "内容": "金沢健康福祉財団訪問介護事業所【訪問介護】駅西本町2-12-22", "url2": "https://www.kaigokensaku.mhlw.go.jp/17/index.php?action_kouhyou_detail_004_kani=true&JigyosyoCd=1770106324-00&ServiceCd=110&Type=search" }, "geometry": { "type": "Point", "coordinates": [ 136.649989600000026, 36.5720001 ] } },
{ "type": "Feature", "properties": { "内容": "訪問介護事業所　朗　粟崎【訪問介護】金沢粟崎町２丁目４１４", "url2": "https://www.kaigokensaku.mhlw.go.jp/17/index.php?action_kouhyou_detail_004_kani=true&JigyosyoCd=1770100582-00&ServiceCd=110&Type=search" }, "geometry": { "type": "Point", "coordinates": [ 136.628060399999981, 36.6268521 ] } },
{ "type": "Feature", "properties": { "内容": "ＳＯＭＰＯケア　金沢笠舞　訪問介護【訪問介護】石川県金沢市笠舞１丁目８番１８号", "url2": "https://www.kaigokensaku.mhlw.go.jp/17/index.php?action_kouhyou_detail_004_kani=true&JigyosyoCd=1770103149-00&ServiceCd=110&Type=search" }, "geometry": { "type": "Point", "coordinates": [ 136.672662800000012, 36.5480881 ] } },
{ "type": "Feature", "properties": { "内容": "ヘルパーステーションほのか【訪問介護】金沢市南四十万1-222", "url2": "https://www.kaigokensaku.mhlw.go.jp/17/index.php?action_kouhyou_detail_004_kani=true&JigyosyoCd=1770104477-00&ServiceCd=110&Type=search" }, "geometry": { "type": "Point", "coordinates": [ 136.6187175, 36.4974406 ] } },
{ "type": "Feature", "properties": { "内容": "ヘルパーステーションひまり【訪問介護】石川県金沢市額新保2丁目200番地", "url2": "https://www.kaigokensaku.mhlw.go.jp/17/index.php?action_kouhyou_detail_004_kani=true&JigyosyoCd=1770106308-00&ServiceCd=110&Type=search" }, "geometry": { "type": "Point", "coordinates": [ 136.615400783467067, 36.519389787266562 ] } },
{ "type": "Feature", "properties": { "内容": "ヘルパーセンター　るーと【訪問介護】松島３丁目２０７番地", "url2": "https://www.kaigokensaku.mhlw.go.jp/17/index.php?action_kouhyou_detail_004_kani=true&JigyosyoCd=1770106829-00&ServiceCd=110&Type=search" }, "geometry": { "type": "Point", "coordinates": [ 139.861766, 35.7110783 ] } },
{ "type": "Feature", "properties": { "内容": "ちきちき【訪問介護】金沢市長坂３丁目１６番１１号", "url2": "https://www.kaigokensaku.mhlw.go.jp/17/index.php?action_kouhyou_detail_004_kani=true&JigyosyoCd=1770105847-00&ServiceCd=110&Type=search" }, "geometry": { "type": "Point", "coordinates": [ 136.655430900000027, 36.53445090000001 ] } },
{ "type": "Feature", "properties": { "内容": "ヘルパーステーション四季の里・神宮寺【訪問介護】石川県金沢市田上さくら1-18", "url2": "https://www.kaigokensaku.mhlw.go.jp/17/index.php?action_kouhyou_detail_004_kani=true&JigyosyoCd=1770103123-00&ServiceCd=110&Type=search" }, "geometry": { "type": "Point", "coordinates": [ 136.666345399999955, 36.5821866 ] } },
{ "type": "Feature", "properties": { "内容": "ツクイ金沢【訪問介護】石川県金沢市八日市５丁目４６０", "url2": "https://www.kaigokensaku.mhlw.go.jp/17/index.php?action_kouhyou_detail_004_kani=true&JigyosyoCd=1770106753-00&ServiceCd=110&Type=search" }, "geometry": { "type": "Point", "coordinates": [ 136.610432, 36.5503333 ] } },
{ "type": "Feature", "properties": { "内容": "訪問介護事業所のんび～っと【訪問介護】石川県金沢市疋田２丁目９４番地白寿の里", "url2": "https://www.kaigokensaku.mhlw.go.jp/17/index.php?action_kouhyou_detail_004_kani=true&JigyosyoCd=1770102687-00&ServiceCd=110&Type=search" }, "geometry": { "type": "Point", "coordinates": [ 136.675035500000035, 36.6027686 ] } },
{ "type": "Feature", "properties": { "内容": "学研ココファン金沢鞍月弐番館ヘルパーセンター【訪問介護】石川県金沢市大友1丁目238番地", "url2": "https://www.kaigokensaku.mhlw.go.jp/17/index.php?action_kouhyou_detail_004_kani=true&JigyosyoCd=1770107066-00&ServiceCd=110&Type=search" }, "geometry": { "type": "Point", "coordinates": [ 136.627585900000014, 36.5979617 ] } },
{ "type": "Feature", "properties": { "内容": "ホームヘルパーふくすけ【訪問介護】石川県金沢市久安1丁目172番地", "url2": "https://www.kaigokensaku.mhlw.go.jp/17/index.php?action_kouhyou_detail_004_kani=true&JigyosyoCd=1770105417-00&ServiceCd=110&Type=search" }, "geometry": { "type": "Point", "coordinates": [ 136.6336078, 36.531822 ] } },
{ "type": "Feature", "properties": { "内容": "ココファン金沢清川ヘルパーセンター【訪問介護】石川県金沢市清川町10-12", "url2": "https://www.kaigokensaku.mhlw.go.jp/17/index.php?action_kouhyou_detail_004_kani=true&JigyosyoCd=1770106563-00&ServiceCd=110&Type=search" }, "geometry": { "type": "Point", "coordinates": [ 136.6585923, 36.5496917 ] } },
{ "type": "Feature", "properties": { "内容": "豊心ケアサービス【訪問介護】額乙丸町ロ２６８豊心の里", "url2": "https://www.kaigokensaku.mhlw.go.jp/17/index.php?action_kouhyou_detail_004_kani=true&JigyosyoCd=1770104980-00&ServiceCd=110&Type=search" }, "geometry": { "type": "Point", "coordinates": [ 136.62033547777105, 36.509555467579965 ] } },
{ "type": "Feature", "properties": { "内容": "学研ココファン金沢泉が丘ヘルパーセンター【訪問介護】石川県金沢市泉が丘2-6-53学研ココファン金沢泉が丘", "url2": "https://www.kaigokensaku.mhlw.go.jp/17/index.php?action_kouhyou_detail_004_kani=true&JigyosyoCd=1770105748-00&ServiceCd=110&Type=search" }, "geometry": { "type": "Point", "coordinates": [ 136.646500899999978, 36.5409526 ] } },
{ "type": "Feature", "properties": { "内容": "itosie荒屋【訪問介護】石川県金沢市荒屋1丁目75番地1", "url2": "https://www.kaigokensaku.mhlw.go.jp/17/index.php?action_kouhyou_detail_004_kani=true&JigyosyoCd=1770103396-00&ServiceCd=110&Type=search" }, "geometry": { "type": "Point", "coordinates": [ 136.684117600000036, 36.6161434 ] } },
{ "type": "Feature", "properties": { "内容": "マザーシップ浅野本町【訪問介護】金沢市浅野本町ニ172番1有料老人ホーム　マザーシップ浅野本町", "url2": "https://www.kaigokensaku.mhlw.go.jp/17/index.php?action_kouhyou_detail_004_kani=true&JigyosyoCd=1770104089-00&ServiceCd=110&Type=search" }, "geometry": { "type": "Point", "coordinates": [ 136.656101400000011, 36.589602 ] } },
{ "type": "Feature", "properties": { "内容": "悠悠泉本町訪問介護ステーション【訪問介護】石川県金沢市泉本町4-20-1", "url2": "https://www.kaigokensaku.mhlw.go.jp/17/index.php?action_kouhyou_detail_004_kani=true&JigyosyoCd=1770106472-00&ServiceCd=110&Type=search" }, "geometry": { "type": "Point", "coordinates": [ 136.6388648, 36.5510224 ] } },
{ "type": "Feature", "properties": { "内容": "ヘルパーステーションうららか【訪問介護】石川県金沢市末町拾九字８７番地１", "url2": "https://www.kaigokensaku.mhlw.go.jp/17/index.php?action_kouhyou_detail_004_kani=true&JigyosyoCd=1770106886-00&ServiceCd=110&Type=search" }, "geometry": { "type": "Point", "coordinates": [ 136.689260600000011, 36.5176242 ] } },
{ "type": "Feature", "properties": { "内容": "訪問介護めぐみ八日市【訪問介護】石川県金沢市八日市2丁目230番地", "url2": "https://www.kaigokensaku.mhlw.go.jp/17/index.php?action_kouhyou_detail_004_kani=true&JigyosyoCd=1770107033-00&ServiceCd=110&Type=search" }, "geometry": { "type": "Point", "coordinates": [ 136.6046136, 36.5436866 ] } },
{ "type": "Feature", "properties": { "内容": "ヘルパーステーションかいてき【訪問介護】石川県金沢市間明町2丁目10番地かいてきビル", "url2": "https://www.kaigokensaku.mhlw.go.jp/17/index.php?action_kouhyou_detail_004_kani=true&JigyosyoCd=1770103545-00&ServiceCd=110&Type=search" }, "geometry": { "type": "Point", "coordinates": [ 136.616734854036679, 36.56610644938079 ] } },
{ "type": "Feature", "properties": { "内容": "ヘルパーステーションボヌール【訪問介護】朝霧台２丁目166番地住宅型有料老人ホーム　ボヌール", "url2": "https://www.kaigokensaku.mhlw.go.jp/17/index.php?action_kouhyou_detail_004_kani=true&JigyosyoCd=1770104691-00&ServiceCd=110&Type=search" }, "geometry": { "type": "Point", "coordinates": [ 136.6968779, 36.5363731 ] } },
{ "type": "Feature", "properties": { "内容": "ヘルパーワークス【訪問介護】石川県金沢市駅西本町６丁目１５番地８号藤江南ハイム５０６号室", "url2": "https://www.kaigokensaku.mhlw.go.jp/17/index.php?action_kouhyou_detail_004_kani=true&JigyosyoCd=1760190932-00&ServiceCd=110&Type=search" }, "geometry": { "type": "Point", "coordinates": [ 136.624837, 36.5854403 ] } },
{ "type": "Feature", "properties": { "内容": "ヘルパーステーション四季の里・横川【訪問介護】石川県金沢市横川４－８８四季の里・横川", "url2": "https://www.kaigokensaku.mhlw.go.jp/17/index.php?action_kouhyou_detail_004_kani=true&JigyosyoCd=1770105151-00&ServiceCd=110&Type=search" }, "geometry": { "type": "Point", "coordinates": [ 136.627916, 36.5412756 ] } },
{ "type": "Feature", "properties": { "内容": "医心館訪問介護ステーション金沢【訪問介護】石川県金沢市戸板2丁目77番地", "url2": "https://www.kaigokensaku.mhlw.go.jp/17/index.php?action_kouhyou_detail_004_kani=true&JigyosyoCd=1770107207-00&ServiceCd=110&Type=search" }, "geometry": { "type": "Point", "coordinates": [ 136.6236264, 36.5802327 ] } },
{ "type": "Feature", "properties": { "内容": "訪問介護　めぐみ【訪問介護】高尾台2丁目240", "url2": "https://www.kaigokensaku.mhlw.go.jp/17/index.php?action_kouhyou_detail_004_kani=true&JigyosyoCd=1770102661-00&ServiceCd=110&Type=search" }, "geometry": { "type": "Point", "coordinates": [ 136.6322884, 36.5235459 ] } },
{ "type": "Feature", "properties": { "内容": "ケアサポート金沢　訪問介護事業所【訪問介護】長町2丁目７－２２", "url2": "https://www.kaigokensaku.mhlw.go.jp/17/index.php?action_kouhyou_detail_004_kani=true&JigyosyoCd=1770100137-00&ServiceCd=110&Type=search" }, "geometry": { "type": "Point", "coordinates": [ 136.646272299999964, 36.5653275 ] } },
{ "type": "Feature", "properties": { "内容": "サンケア赤土【訪問介護】金沢市赤土町カ１－２４", "url2": "https://www.kaigokensaku.mhlw.go.jp/17/index.php?action_kouhyou_detail_004_kani=true&JigyosyoCd=1770104246-00&ServiceCd=110&Type=search" }, "geometry": { "type": "Point", "coordinates": [ 136.583710099999962, 36.5897676 ] } },
{ "type": "Feature", "properties": { "内容": "訪問介護事業所　マナの家　木曳野【訪問介護】金沢市木曳野２丁目１５０番地", "url2": "https://www.kaigokensaku.mhlw.go.jp/17/index.php?action_kouhyou_detail_004_kani=true&JigyosyoCd=1770103883-00&ServiceCd=110&Type=search" }, "geometry": { "type": "Point", "coordinates": [ 136.604939699999932, 36.5997638 ] } },
{ "type": "Feature", "properties": { "内容": "ヘルパーステーション　アースケア【訪問介護】金沢市高尾南１－９０", "url2": "https://www.kaigokensaku.mhlw.go.jp/17/index.php?action_kouhyou_detail_004_kani=true&JigyosyoCd=1770104048-00&ServiceCd=110&Type=search" }, "geometry": { "type": "Point", "coordinates": [ 136.634432800000013, 36.5178023 ] } },
{ "type": "Feature", "properties": { "内容": "訪問介護事業所かいてき割出【訪問介護】石川県金沢市割出町138番地", "url2": "https://www.kaigokensaku.mhlw.go.jp/17/index.php?action_kouhyou_detail_004_kani=true&JigyosyoCd=1770106894-00&ServiceCd=110&Type=search" }, "geometry": { "type": "Point", "coordinates": [ 136.643013700000012, 36.603481 ] } },
{ "type": "Feature", "properties": { "内容": "香林苑泉野訪問介護センター【訪問介護】泉野町4丁目20番2号", "url2": "https://www.kaigokensaku.mhlw.go.jp/17/index.php?action_kouhyou_detail_004_kani=true&JigyosyoCd=1770105029-00&ServiceCd=110&Type=search" }, "geometry": { "type": "Point", "coordinates": [ 136.649224499999946, 36.5453465 ] } },
{ "type": "Feature", "properties": { "内容": "訪問介護ステーション　えがおらいふ【訪問介護】木越町チ105-1", "url2": "https://www.kaigokensaku.mhlw.go.jp/17/index.php?action_kouhyou_detail_004_kani=true&JigyosyoCd=1770106050-00&ServiceCd=110&Type=search" }, "geometry": { "type": "Point", "coordinates": [ 136.662576497937238, 36.62227303654528 ] } },
{ "type": "Feature", "properties": { "内容": "香林苑杜の里訪問介護センター【訪問介護】金沢市田上本町2丁目83番地1", "url2": "https://www.kaigokensaku.mhlw.go.jp/17/index.php?action_kouhyou_detail_004_kani=true&JigyosyoCd=1770103586-00&ServiceCd=110&Type=search" }, "geometry": { "type": "Point", "coordinates": [ 136.698591599999986, 36.5344012 ] } },
{ "type": "Feature", "properties": { "内容": "サンケア戸板【訪問介護】石川県　金沢市　戸板１丁目２６番地サンケア戸板", "url2": "https://www.kaigokensaku.mhlw.go.jp/17/index.php?action_kouhyou_detail_004_kani=true&JigyosyoCd=1770105300-00&ServiceCd=110&Type=search" }, "geometry": { "type": "Point", "coordinates": [ 136.624707025842355, 36.579160042490152 ] } },
{ "type": "Feature", "properties": { "内容": "訪問介護ステーション悠ライフ金沢【訪問介護】石川県金沢市有松3-1-10", "url2": "https://www.kaigokensaku.mhlw.go.jp/17/index.php?action_kouhyou_detail_004_kani=true&JigyosyoCd=1770106969-00&ServiceCd=110&Type=search" }, "geometry": { "type": "Point", "coordinates": [ 136.640406399999989, 36.5412843 ] } },
{ "type": "Feature", "properties": { "内容": "指定訪問介護事業所　サンケア杜の里【訪問介護】金沢市もりの里2丁目138番地有料老人ホーム　サンケア杜の里", "url2": "https://www.kaigokensaku.mhlw.go.jp/17/index.php?action_kouhyou_detail_004_kani=true&JigyosyoCd=1770103834-00&ServiceCd=110&Type=search" }, "geometry": { "type": "Point", "coordinates": [ 136.686409, 36.5541485 ] } },
{ "type": "Feature", "properties": { "内容": "アスモ介護サービス金沢【訪問介護】金沢市新神田三丁目8番16号", "url2": "https://www.kaigokensaku.mhlw.go.jp/17/index.php?action_kouhyou_detail_004_kani=true&JigyosyoCd=1770104527-00&ServiceCd=110&Type=search" }, "geometry": { "type": "Point", "coordinates": [ 136.628865300000029, 36.5603525 ] } },
{ "type": "Feature", "properties": { "内容": "訪問介護事業所　もりの都【訪問介護】石川県金沢市もりの里2丁目226番地", "url2": "https://www.kaigokensaku.mhlw.go.jp/17/index.php?action_kouhyou_detail_004_kani=true&JigyosyoCd=1770104493-00&ServiceCd=110&Type=search" }, "geometry": { "type": "Point", "coordinates": [ 136.683512359152246, 36.557933772107567 ] } },
{ "type": "Feature", "properties": { "内容": "ヘルパーステーションあおぞら【訪問介護】金沢市四十万北ヲ21番地1", "url2": "https://www.kaigokensaku.mhlw.go.jp/17/index.php?action_kouhyou_detail_004_kani=true&JigyosyoCd=1770106092-00&ServiceCd=110&Type=search" }, "geometry": { "type": "Point", "coordinates": [ 136.624139099999979, 36.5036509 ] } },
{ "type": "Feature", "properties": { "内容": "学研ココファン金沢三ツ屋ヘルパーセンター【訪問介護】石川県金沢市三ツ屋町ロ38番地1ココファン金沢三ツ屋", "url2": "https://www.kaigokensaku.mhlw.go.jp/17/index.php?action_kouhyou_detail_004_kani=true&JigyosyoCd=1770105987-00&ServiceCd=110&Type=search" }, "geometry": { "type": "Point", "coordinates": [ 136.6446515, 36.6115683 ] } },
{ "type": "Feature", "properties": { "内容": "訪問介護事業所　しらさぎ苑【訪問介護】金沢市割出186番地", "url2": "https://www.kaigokensaku.mhlw.go.jp/17/index.php?action_kouhyou_detail_004_kani=true&JigyosyoCd=1770102711-00&ServiceCd=110&Type=search" }, "geometry": { "type": "Point", "coordinates": [ 136.641709846943627, 36.60394462793257 ] } },
{ "type": "Feature", "properties": { "内容": "訪問介護事業所　白寿園　四十万【訪問介護】石川県金沢市四十万３丁目１０２番地", "url2": "https://www.kaigokensaku.mhlw.go.jp/17/index.php?action_kouhyou_detail_004_kani=true&JigyosyoCd=1770104956-00&ServiceCd=110&Type=search" }, "geometry": { "type": "Point", "coordinates": [ 136.619942, 36.5023836 ] } },
{ "type": "Feature", "properties": { "内容": "サンウェルズ金沢訪問介護ステーション【訪問介護】石川県金沢市戸板1丁目92番地", "url2": "https://www.kaigokensaku.mhlw.go.jp/17/index.php?action_kouhyou_detail_004_kani=true&JigyosyoCd=1770105037-00&ServiceCd=110&Type=search" }, "geometry": { "type": "Point", "coordinates": [ 136.626324837629227, 36.578841946086655 ] } },
{ "type": "Feature", "properties": { "内容": "パートナーズ金沢北【訪問介護】石川県金沢市直江町ﾆ26番地１ナガイビル2階", "url2": "https://www.kaigokensaku.mhlw.go.jp/17/index.php?action_kouhyou_detail_004_kani=true&JigyosyoCd=1770107421-00&ServiceCd=110&Type=search" }, "geometry": { "type": "Point", "coordinates": [ 136.6344513, 36.6060374 ] } },
{ "type": "Feature", "properties": { "内容": "訪問介護ひかり【訪問介護】石川県金沢市東力4-97-18", "url2": "https://www.kaigokensaku.mhlw.go.jp/17/index.php?action_kouhyou_detail_004_kani=true&JigyosyoCd=1770106258-00&ServiceCd=110&Type=search" }, "geometry": { "type": "Point", "coordinates": [ 136.624727900000011, 36.5644046 ] } },
{ "type": "Feature", "properties": { "内容": "学研ココファン金沢鞍月ヘルパーセンター【訪問介護】石川県金沢市鞍月町5丁目219番地", "url2": "https://www.kaigokensaku.mhlw.go.jp/17/index.php?action_kouhyou_detail_004_kani=true&JigyosyoCd=1770105649-00&ServiceCd=110&Type=search" }, "geometry": { "type": "Point", "coordinates": [ 136.6280233, 36.6048953 ] } },
{ "type": "Feature", "properties": { "内容": "訪問介護　まごのて金沢【訪問介護】石川県金沢市西念３丁目13−1Dune駅西303", "url2": "https://www.kaigokensaku.mhlw.go.jp/17/index.php?action_kouhyou_detail_004_kani=true&JigyosyoCd=1770106837-00&ServiceCd=110&Type=search" }, "geometry": { "type": "Point", "coordinates": [ 136.6388835, 36.5875512 ] } },
{ "type": "Feature", "properties": { "内容": "和みヘルパーステーション【訪問介護】石川県金沢市戸水1丁目217番地", "url2": "https://www.kaigokensaku.mhlw.go.jp/17/index.php?action_kouhyou_detail_004_kani=true&JigyosyoCd=1770106522-00&ServiceCd=110&Type=search" }, "geometry": { "type": "Point", "coordinates": [ 136.62403230000001, 36.604142 ] } },
{ "type": "Feature", "properties": { "内容": "寿リハ訪問介護【訪問介護】石川県金沢市駅西新町3‐18‐19", "url2": "https://www.kaigokensaku.mhlw.go.jp/17/index.php?action_kouhyou_detail_004_kani=true&JigyosyoCd=1770105284-00&ServiceCd=110&Type=search" }, "geometry": { "type": "Point", "coordinates": [ 136.6373324, 36.5930497 ] } },
{ "type": "Feature", "properties": { "内容": "シャンティケア訪問介護ステーション【訪問介護】石川県金沢市神宮寺1丁目15番27号シャンティケア金沢", "url2": "https://www.kaigokensaku.mhlw.go.jp/17/index.php?action_kouhyou_detail_004_kani=true&JigyosyoCd=1770107280-00&ServiceCd=110&Type=search" }, "geometry": { "type": "Point", "coordinates": [ 136.6679323, 36.5833085 ] } },
{ "type": "Feature", "properties": { "内容": "うちくるケア金沢【訪問介護】石川県金沢市直江西1-24-1", "url2": "https://www.kaigokensaku.mhlw.go.jp/17/index.php?action_kouhyou_detail_004_kani=true&JigyosyoCd=1770107389-00&ServiceCd=110&Type=search" }, "geometry": { "type": "Point", "coordinates": [ 136.635719200000011, 36.6112097 ] } },
{ "type": "Feature", "properties": { "内容": "学研ココファン金沢三社町ヘルパーセンター【訪問介護】三社町11番21号ココファン金沢三社町", "url2": "https://www.kaigokensaku.mhlw.go.jp/17/index.php?action_kouhyou_detail_004_kani=true&JigyosyoCd=1770107348-00&ServiceCd=110&Type=search" }, "geometry": { "type": "Point", "coordinates": [ 136.642828665606686, 36.570653533718321 ] } },
{ "type": "Feature", "properties": { "内容": "学研ココファン金沢七ツ屋ヘルパーセンター【訪問介護】石川県金沢市北安江１丁目９番６４号学研ココファン金沢七ツ屋", "url2": "https://www.kaigokensaku.mhlw.go.jp/17/index.php?action_kouhyou_detail_004_kani=true&JigyosyoCd=1770107223-00&ServiceCd=110&Type=search" }, "geometry": { "type": "Point", "coordinates": [ 136.6520186, 36.58342 ] } },
{ "type": "Feature", "properties": { "内容": "訪問介護事業所　凪のいえ【訪問介護】石川県金沢市四十万３丁目249番地2", "url2": "https://www.kaigokensaku.mhlw.go.jp/17/index.php?action_kouhyou_detail_004_kani=true&JigyosyoCd=1770106134-00&ServiceCd=110&Type=search" }, "geometry": { "type": "Point", "coordinates": [ 136.616558799999979, 36.50310970000001 ] } },
{ "type": "Feature", "properties": { "内容": "住宅型有料老人ホームハート・ながえ【訪問介護】東長江へ29-1住宅型有料老人ホームハート・ながえ", "url2": "https://www.kaigokensaku.mhlw.go.jp/17/index.php?action_kouhyou_detail_004_kani=true&JigyosyoCd=1770106415-00&ServiceCd=110&Type=search" }, "geometry": { "type": "Point", "coordinates": [ 136.7006426, 36.5633634 ] } },
{ "type": "Feature", "properties": { "内容": "石川県金沢市西金沢5丁目316番地【訪問介護】石川県金沢市西金沢5丁目316番地ファーストビル202", "url2": "https://www.kaigokensaku.mhlw.go.jp/17/index.php?action_kouhyou_detail_004_kani=true&JigyosyoCd=1770106951-00&ServiceCd=110&Type=search" }, "geometry": { "type": "Point", "coordinates": [ 136.6153399, 36.5581399 ] } },
{ "type": "Feature", "properties": { "内容": "訪問介護ホームヘルプ春日和金沢【訪問介護】石川県金沢市乙丸町甲144番地", "url2": "https://www.kaigokensaku.mhlw.go.jp/17/index.php?action_kouhyou_detail_004_kani=true&JigyosyoCd=1770107553-00&ServiceCd=110&Type=search" }, "geometry": { "type": "Point", "coordinates": [ 136.663805, 36.5864504 ] } },
{ "type": "Feature", "properties": { "内容": "訪問介護ステーションFLOS-rest-【訪問介護】石川県金沢市南新保町へ34番地", "url2": "https://www.kaigokensaku.mhlw.go.jp/17/index.php?action_kouhyou_detail_004_kani=true&JigyosyoCd=1770107579-00&ServiceCd=110&Type=search" }, "geometry": { "type": "Point", "coordinates": [ 136.6346944, 36.5979886 ] } },
{ "type": "Feature", "properties": { "内容": "医心館訪問介護ステーション金沢Ⅱ【訪問介護】石川県金沢市泉が丘２丁目12番35号", "url2": "https://www.kaigokensaku.mhlw.go.jp/17/index.php?action_kouhyou_detail_004_kani=true&JigyosyoCd=1770107603-00&ServiceCd=110&Type=search" }, "geometry": { "type": "Point", "coordinates": [ 136.644972200000012, 36.5400131 ] } },
{ "type": "Feature", "properties": { "内容": "しののめのｓｏｒａ【訪問介護】石川県金沢市森山２丁目３番１４号", "url2": "https://www.kaigokensaku.mhlw.go.jp/17/index.php?action_kouhyou_detail_004_kani=true&JigyosyoCd=1770107611-00&ServiceCd=110&Type=search" }, "geometry": { "type": "Point", "coordinates": [ 136.6705988, 36.5807153 ] } },
{ "type": "Feature", "properties": { "内容": "なでしこの丘訪問介護事業所【訪問介護】石川県金沢市馬替2丁目143番地", "url2": "https://www.kaigokensaku.mhlw.go.jp/17/index.php?action_kouhyou_detail_004_kani=true&JigyosyoCd=1750180091-00&ServiceCd=110&Type=search" }, "geometry": { "type": "Point", "coordinates": [ 136.6222807, 36.5229125 ] } },
{ "type": "Feature", "properties": { "内容": "ヘルパーステーション住みよし24【訪問介護】石川県金沢市寺中町ホ９番地１", "url2": "https://www.kaigokensaku.mhlw.go.jp/17/index.php?action_kouhyou_detail_004_kani=true&JigyosyoCd=1770107629-00&ServiceCd=110&Type=search" }, "geometry": { "type": "Point", "coordinates": [ 136.601841900000011, 36.5972306 ] } },
{ "type": "Feature", "properties": { "内容": "アクア金沢訪問介護【訪問介護】石川県金沢市増泉3丁目4番15号", "url2": "https://www.kaigokensaku.mhlw.go.jp/17/index.php?action_kouhyou_detail_004_kani=true&JigyosyoCd=1770107645-00&ServiceCd=110&Type=search" }, "geometry": { "type": "Point", "coordinates": [ 136.640496, 36.5562074 ] } },
{ "type": "Feature", "properties": { "内容": "ヘルパーステーションりん【訪問介護】石川県金沢市矢木二丁目221", "url2": "https://www.kaigokensaku.mhlw.go.jp/17/index.php?action_kouhyou_detail_004_kani=true&JigyosyoCd=1770107702-00&ServiceCd=110&Type=search" }, "geometry": { "type": "Point", "coordinates": [ 136.596007899999989, 36.5549853 ] } },
{ "type": "Feature", "properties": { "内容": "訪問介護事業所かいてき問屋【訪問介護】石川県金沢市三ツ屋町ロ33番地1カーサ・フローラ2　203号", "url2": "https://www.kaigokensaku.mhlw.go.jp/17/index.php?action_kouhyou_detail_004_kani=true&JigyosyoCd=1770107710-00&ServiceCd=110&Type=search" }, "geometry": { "type": "Point", "coordinates": [ 136.644757700000014, 36.6110346 ] } },
{ "type": "Feature", "properties": { "内容": "ヘルパステーションいしがき【訪問介護】石川県金沢市小立野１丁目３４番２９号", "url2": "https://www.kaigokensaku.mhlw.go.jp/17/index.php?action_kouhyou_detail_004_kani=true&JigyosyoCd=1770107744-00&ServiceCd=110&Type=search" }, "geometry": { "type": "Point", "coordinates": [ 136.6838826, 36.5462653 ] } },
{ "type": "Feature", "properties": { "内容": "プラトーライフサポート【訪問介護】石川県金沢市二口町ハ30番地2", "url2": "https://www.kaigokensaku.mhlw.go.jp/17/index.php?action_kouhyou_detail_004_kani=true&JigyosyoCd=1770107751-00&ServiceCd=110&Type=search" }, "geometry": { "type": "Point", "coordinates": [ 136.6343953, 36.5772935 ] } },
{ "type": "Feature", "properties": { "内容": "マーメイド訪問介護事業所【訪問介護】石川県金沢市新神田2丁目6番21号", "url2": "https://www.kaigokensaku.mhlw.go.jp/17/index.php?action_kouhyou_detail_004_kani=true&JigyosyoCd=1770106712-00&ServiceCd=110&Type=search" }, "geometry": { "type": "Point", "coordinates": [ 136.631787835275674, 36.563077175219597 ] } },
{ "type": "Feature", "properties": { "内容": "ひなの家訪問介護【訪問介護】石川県金沢市末町拾四字４５番地", "url2": "https://www.kaigokensaku.mhlw.go.jp/17/index.php?action_kouhyou_detail_004_kani=true&JigyosyoCd=1770107173-00&ServiceCd=110&Type=search" }, "geometry": { "type": "Point", "coordinates": [ 136.689260600000011, 36.5176242 ] } },
{ "type": "Feature", "properties": { "内容": "訪問介護事業所　ふくわらい【訪問介護】金沢市横川5丁目21番地", "url2": "https://www.kaigokensaku.mhlw.go.jp/17/index.php?action_kouhyou_detail_004_kani=true&JigyosyoCd=1770104998-00&ServiceCd=110&Type=search" }, "geometry": { "type": "Point", "coordinates": [ 136.629962657627857, 36.541808789860291 ] } },
{ "type": "Feature", "properties": { "内容": "ライフサポーター　風のーと【訪問介護】石川県七尾市田鶴浜町レ部218番地", "url2": "https://www.kaigokensaku.mhlw.go.jp/17/index.php?action_kouhyou_detail_004_kani=true&JigyosyoCd=1770200580-00&ServiceCd=110&Type=search" }, "geometry": { "type": "Point", "coordinates": [ 136.896898426519755, 37.061189370226835 ] } },
{ "type": "Feature", "properties": { "内容": "医療法人社団和泉会　ヘルパーステーションさはら【訪問介護】石川県七尾市石崎町タ28番地7", "url2": "https://www.kaigokensaku.mhlw.go.jp/17/index.php?action_kouhyou_detail_004_kani=true&JigyosyoCd=1710210749-00&ServiceCd=110&Type=search" }, "geometry": { "type": "Point", "coordinates": [ 136.924523200000067, 37.0756799 ] } },
{ "type": "Feature", "properties": { "内容": "ヘルパーステーションローレル【訪問介護】石川県七尾市富岡町95番地ローレルハイツ恵寿", "url2": "https://www.kaigokensaku.mhlw.go.jp/17/index.php?action_kouhyou_detail_004_kani=true&JigyosyoCd=1770200572-00&ServiceCd=110&Type=search" }, "geometry": { "type": "Point", "coordinates": [ 136.960707, 37.050201 ] } },
{ "type": "Feature", "properties": { "内容": "ＳＯＭＰＯケア　七尾　訪問介護【訪問介護】石川県七尾市神明町ロ部6番地1フラワービル103", "url2": "https://www.kaigokensaku.mhlw.go.jp/17/index.php?action_kouhyou_detail_004_kani=true&JigyosyoCd=1770200606-00&ServiceCd=110&Type=search" }, "geometry": { "type": "Point", "coordinates": [ 136.965509399999974, 37.0424408 ] } },
{ "type": "Feature", "properties": { "内容": "ヘルパーステーション　蒼葉【訪問介護】石川県七尾市石崎町香島１丁目１０６番地１", "url2": "https://www.kaigokensaku.mhlw.go.jp/17/index.php?action_kouhyou_detail_004_kani=true&JigyosyoCd=1770200549-00&ServiceCd=110&Type=search" }, "geometry": { "type": "Point", "coordinates": [ 136.926508793453991, 37.080497389854798 ] } },
{ "type": "Feature", "properties": { "内容": "Industrial・Handsヘルパーステーション【訪問介護】石川県七尾市石崎町香島3丁目33-1", "url2": "https://www.kaigokensaku.mhlw.go.jp/17/index.php?action_kouhyou_detail_004_kani=true&JigyosyoCd=1770200622-00&ServiceCd=110&Type=search" }, "geometry": { "type": "Point", "coordinates": [ 136.9208339, 37.0803902 ] } },
{ "type": "Feature", "properties": { "内容": "ヘルパーステーション　あっとほーむ若葉【訪問介護】石川県七尾市矢田町２２号七株田１２番地５", "url2": "https://www.kaigokensaku.mhlw.go.jp/17/index.php?action_kouhyou_detail_004_kani=true&JigyosyoCd=1770200135-00&ServiceCd=110&Type=search" }, "geometry": { "type": "Point", "coordinates": [ 136.983191799999986, 37.025588 ] } },
{ "type": "Feature", "properties": { "内容": "訪問介護事業所かいてき能登【訪問介護】石川県七尾市能登島半浦町参2番地1グランド・ケア・クラシック能登", "url2": "https://www.kaigokensaku.mhlw.go.jp/17/index.php?action_kouhyou_detail_004_kani=true&JigyosyoCd=1770200630-00&ServiceCd=110&Type=search" }, "geometry": { "type": "Point", "coordinates": [ 136.946065, 37.1152959 ] } },
{ "type": "Feature", "properties": { "内容": "訪問介護事業所かいてき七尾【訪問介護】石川県七尾市能登島半浦町参1002番地1グランド・ケア・クラシック能登", "url2": "https://www.kaigokensaku.mhlw.go.jp/17/index.php?action_kouhyou_detail_004_kani=true&JigyosyoCd=1770200648-00&ServiceCd=110&Type=search" }, "geometry": { "type": "Point", "coordinates": [ 136.946065, 37.1152959 ] } },
{ "type": "Feature", "properties": { "内容": "ウェリナ訪問介護事業所【訪問介護】石川県小松市八幡ロ41－6", "url2": "https://www.kaigokensaku.mhlw.go.jp/17/index.php?action_kouhyou_detail_004_kani=true&JigyosyoCd=1770300679-00&ServiceCd=110&Type=search" }, "geometry": { "type": "Point", "coordinates": [ 136.489943600000061, 36.3890936 ] } },
{ "type": "Feature", "properties": { "内容": "ヘルパーステーション　あおい【訪問介護】石川県小松市八幡ロ37番地7", "url2": "https://www.kaigokensaku.mhlw.go.jp/17/index.php?action_kouhyou_detail_004_kani=true&JigyosyoCd=1770301065-00&ServiceCd=110&Type=search" }, "geometry": { "type": "Point", "coordinates": [ 136.4895594, 36.3884414 ] } },
{ "type": "Feature", "properties": { "内容": "訪問介護ステーションややのいえ【訪問介護】石川県小松市小馬出町18番地", "url2": "https://www.kaigokensaku.mhlw.go.jp/17/index.php?action_kouhyou_detail_004_kani=true&JigyosyoCd=1770301040-00&ServiceCd=110&Type=search" }, "geometry": { "type": "Point", "coordinates": [ 136.447733699999986, 36.4064192 ] } },
{ "type": "Feature", "properties": { "内容": "ニチイケアセンター小松【訪問介護】小松市日の出町1-126ソレアードビル1階", "url2": "https://www.kaigokensaku.mhlw.go.jp/17/index.php?action_kouhyou_detail_004_kani=true&JigyosyoCd=1770300372-00&ServiceCd=110&Type=search" }, "geometry": { "type": "Point", "coordinates": [ 136.455639799999972, 36.4002482 ] } },
{ "type": "Feature", "properties": { "内容": "訪問介護ステーション　咲の樹【訪問介護】石川県小松市大領中町3丁目109番地サービス付き高齢者向け住宅　咲の樹", "url2": "https://www.kaigokensaku.mhlw.go.jp/17/index.php?action_kouhyou_detail_004_kani=true&JigyosyoCd=1770300901-00&ServiceCd=110&Type=search" }, "geometry": { "type": "Point", "coordinates": [ 136.4478216, 36.3876966 ] } },
{ "type": "Feature", "properties": { "内容": "JAきらら指定訪問介護事業所【訪問介護】小松市長谷町５０番地５", "url2": "https://www.kaigokensaku.mhlw.go.jp/17/index.php?action_kouhyou_detail_004_kani=true&JigyosyoCd=1770300018-00&ServiceCd=110&Type=search" }, "geometry": { "type": "Point", "coordinates": [ 136.485775099999955, 36.3568784 ] } },
{ "type": "Feature", "properties": { "内容": "松寿園ホームヘルパーほほえみ【訪問介護】小松市向本折町ホ31番地", "url2": "https://www.kaigokensaku.mhlw.go.jp/17/index.php?action_kouhyou_detail_004_kani=true&JigyosyoCd=1770300083-00&ServiceCd=110&Type=search" }, "geometry": { "type": "Point", "coordinates": [ 136.43974419999995, 36.3968306 ] } },
{ "type": "Feature", "properties": { "内容": "ヘルパーステーション　エンジェル【訪問介護】石川県小松市八幡辛353番地サービ付き高齢者向け住宅　エンジェルハウス内", "url2": "https://www.kaigokensaku.mhlw.go.jp/17/index.php?action_kouhyou_detail_004_kani=true&JigyosyoCd=1770300794-00&ServiceCd=110&Type=search" }, "geometry": { "type": "Point", "coordinates": [ 136.487577642327864, 36.396648716934891 ] } },
{ "type": "Feature", "properties": { "内容": "ニチイケアセンター符津【訪問介護】石川県小松市符津町う65番地", "url2": "https://www.kaigokensaku.mhlw.go.jp/17/index.php?action_kouhyou_detail_004_kani=true&JigyosyoCd=1770300992-00&ServiceCd=110&Type=search" }, "geometry": { "type": "Point", "coordinates": [ 136.4275917, 36.3561314 ] } },
{ "type": "Feature", "properties": { "内容": "ヘルパーステーション　き楽な里【訪問介護】串茶屋町上野87-1", "url2": "https://www.kaigokensaku.mhlw.go.jp/17/index.php?action_kouhyou_detail_004_kani=true&JigyosyoCd=1770300828-00&ServiceCd=110&Type=search" }, "geometry": { "type": "Point", "coordinates": [ 136.428382599999964, 36.3752995 ] } },
{ "type": "Feature", "properties": { "内容": "ヘルパーステーション　たるる【訪問介護】北浅井町舟津26番地サービス付き高齢者向け住宅　たるる北浅井", "url2": "https://www.kaigokensaku.mhlw.go.jp/17/index.php?action_kouhyou_detail_004_kani=true&JigyosyoCd=1770300893-00&ServiceCd=110&Type=search" }, "geometry": { "type": "Point", "coordinates": [ 136.455881800000043, 36.3894998 ] } },
{ "type": "Feature", "properties": { "内容": "アリシスヘルパーステーション【訪問介護】小松市上小松町丙41-1", "url2": "https://www.kaigokensaku.mhlw.go.jp/17/index.php?action_kouhyou_detail_004_kani=true&JigyosyoCd=1760390821-00&ServiceCd=110&Type=search" }, "geometry": { "type": "Point", "coordinates": [ 136.46467240000004, 36.4080918 ] } },
{ "type": "Feature", "properties": { "内容": "訪問介護ステーション　シティライフ【訪問介護】石川県小松市沖町480番地", "url2": "https://www.kaigokensaku.mhlw.go.jp/17/index.php?action_kouhyou_detail_004_kani=true&JigyosyoCd=1770300760-00&ServiceCd=110&Type=search" }, "geometry": { "type": "Point", "coordinates": [ 136.4645381, 36.3990815 ] } },
{ "type": "Feature", "properties": { "内容": "訪問介護サービスセンターあかかみ【訪問介護】石川県輪島市門前町赤神１０の１番地", "url2": "https://www.kaigokensaku.mhlw.go.jp/17/index.php?action_kouhyou_detail_004_kani=true&JigyosyoCd=1770400115-00&ServiceCd=110&Type=search" }, "geometry": { "type": "Point", "coordinates": [ 136.708625466934194, 37.246195100000016 ] } },
{ "type": "Feature", "properties": { "内容": "あての木園訪問介護センター【訪問介護】石川県輪島市三井町小泉上野２番地", "url2": "https://www.kaigokensaku.mhlw.go.jp/17/index.php?action_kouhyou_detail_004_kani=true&JigyosyoCd=1770400016-00&ServiceCd=110&Type=search" }, "geometry": { "type": "Point", "coordinates": [ 136.896431799999959, 37.2970977 ] } },
{ "type": "Feature", "properties": { "内容": "ヘルパーステーションさくら【訪問介護】輪島市堀町１字１３－２", "url2": "https://www.kaigokensaku.mhlw.go.jp/17/index.php?action_kouhyou_detail_004_kani=true&JigyosyoCd=1710410380-00&ServiceCd=110&Type=search" }, "geometry": { "type": "Point", "coordinates": [ 136.89511, 37.3893317 ] } },
{ "type": "Feature", "properties": { "内容": "珠洲市社会福祉協議会　訪問介護サービスセンター【訪問介護】石川県珠洲市飯田町５部９番地健康増進センター内", "url2": "https://www.kaigokensaku.mhlw.go.jp/17/index.php?action_kouhyou_detail_004_kani=true&JigyosyoCd=1770500021-00&ServiceCd=110&Type=search" }, "geometry": { "type": "Point", "coordinates": [ 137.265975448548943, 37.444914120963567 ] } },
{ "type": "Feature", "properties": { "内容": "加賀のぞみ園ホームヘルパーステーション【訪問介護】南郷町3乙4番地", "url2": "https://www.kaigokensaku.mhlw.go.jp/17/index.php?action_kouhyou_detail_004_kani=true&JigyosyoCd=1750680041-00&ServiceCd=110&Type=search" }, "geometry": { "type": "Point", "coordinates": [ 136.326304199999981, 36.292387 ] } },
{ "type": "Feature", "properties": { "内容": "ヘルパー和【訪問介護】片山津町ム３０番", "url2": "https://www.kaigokensaku.mhlw.go.jp/17/index.php?action_kouhyou_detail_004_kani=true&JigyosyoCd=1770600128-00&ServiceCd=110&Type=search" }, "geometry": { "type": "Point", "coordinates": [ 136.372761699999955, 36.3435314 ] } },
{ "type": "Feature", "properties": { "内容": "さわらび訪問介護事業所【訪問介護】石川県加賀市山中温泉塚谷町ロ24番地1", "url2": "https://www.kaigokensaku.mhlw.go.jp/17/index.php?action_kouhyou_detail_004_kani=true&JigyosyoCd=1760690717-00&ServiceCd=110&Type=search" }, "geometry": { "type": "Point", "coordinates": [ 136.36982880000005, 36.2590923 ] } },
{ "type": "Feature", "properties": { "内容": "株式会社　加賀福祉サービス　ヘルパーステーションえがお【訪問介護】石川県加賀市作見町ホ56番地1", "url2": "https://www.kaigokensaku.mhlw.go.jp/17/index.php?action_kouhyou_detail_004_kani=true&JigyosyoCd=1770600011-00&ServiceCd=110&Type=search" }, "geometry": { "type": "Point", "coordinates": [ 136.35798079999995, 36.3159156 ] } },
{ "type": "Feature", "properties": { "内容": "野の花【訪問介護】加賀市南郷町ト111番地3", "url2": "https://www.kaigokensaku.mhlw.go.jp/17/index.php?action_kouhyou_detail_004_kani=true&JigyosyoCd=1770600326-00&ServiceCd=110&Type=search" }, "geometry": { "type": "Point", "coordinates": [ 136.329508900000064, 36.3023192 ] } },
{ "type": "Feature", "properties": { "内容": "かがやきヘルパーステーション【訪問介護】石川県加賀市山代温泉35の14番地の3", "url2": "https://www.kaigokensaku.mhlw.go.jp/17/index.php?action_kouhyou_detail_004_kani=true&JigyosyoCd=1770600516-00&ServiceCd=110&Type=search" }, "geometry": { "type": "Point", "coordinates": [ 136.358686799999987, 36.2996426 ] } },
{ "type": "Feature", "properties": { "内容": "いまケア太陽【訪問介護】石川県加賀市作見町り７７箔山堂小菅波薬局2階", "url2": "https://www.kaigokensaku.mhlw.go.jp/17/index.php?action_kouhyou_detail_004_kani=true&JigyosyoCd=1770600631-00&ServiceCd=110&Type=search" }, "geometry": { "type": "Point", "coordinates": [ 136.3502661, 36.316729899999984 ] } },
{ "type": "Feature", "properties": { "内容": "ききょうが丘ヘルパーステーション【訪問介護】石川県加賀市幸町２丁目６６番地", "url2": "https://www.kaigokensaku.mhlw.go.jp/17/index.php?action_kouhyou_detail_004_kani=true&JigyosyoCd=1770600680-00&ServiceCd=110&Type=search" }, "geometry": { "type": "Point", "coordinates": [ 136.318815840214569, 36.300320501450834 ] } },
{ "type": "Feature", "properties": { "内容": "丘の上訪問介護事業所【訪問介護】加賀市冨塚町中尾126-2", "url2": "https://www.kaigokensaku.mhlw.go.jp/17/index.php?action_kouhyou_detail_004_kani=true&JigyosyoCd=1770600599-00&ServiceCd=110&Type=search" }, "geometry": { "type": "Point", "coordinates": [ 136.361818699999958, 36.3357132 ] } },
{ "type": "Feature", "properties": { "内容": "ヘルパーステーションゆりのき【訪問介護】石川県加賀市松が丘３丁目１６－１０", "url2": "https://www.kaigokensaku.mhlw.go.jp/17/index.php?action_kouhyou_detail_004_kani=true&JigyosyoCd=1770600722-00&ServiceCd=110&Type=search" }, "geometry": { "type": "Point", "coordinates": [ 136.335818699999976, 36.324607600000014 ] } },
{ "type": "Feature", "properties": { "内容": "訪問介護事業所　朗　加賀【訪問介護】石川県加賀市山代温泉桔梗丘３－２４－３", "url2": "https://www.kaigokensaku.mhlw.go.jp/17/index.php?action_kouhyou_detail_004_kani=true&JigyosyoCd=1770600672-00&ServiceCd=110&Type=search" }, "geometry": { "type": "Point", "coordinates": [ 136.357049, 36.28573 ] } },
{ "type": "Feature", "properties": { "内容": "訪問介護ステーションなのはな【訪問介護】石川県加賀市大聖寺岡町ホ１６番地１", "url2": "https://www.kaigokensaku.mhlw.go.jp/17/index.php?action_kouhyou_detail_004_kani=true&JigyosyoCd=1770600730-00&ServiceCd=110&Type=search" }, "geometry": { "type": "Point", "coordinates": [ 136.3173114, 36.3141502 ] } },
{ "type": "Feature", "properties": { "内容": "介護センターほのぼの【訪問介護】石川県羽咋市石野町ト40", "url2": "https://www.kaigokensaku.mhlw.go.jp/17/index.php?action_kouhyou_detail_004_kani=true&JigyosyoCd=1760790475-00&ServiceCd=110&Type=search" }, "geometry": { "type": "Point", "coordinates": [ 136.794830200000035, 36.8944494 ] } },
{ "type": "Feature", "properties": { "内容": "羽咋市在宅総合サービスステーション【訪問介護】石川県羽咋市鶴多町亀田17番地羽咋すこやかセンター２階", "url2": "https://www.kaigokensaku.mhlw.go.jp/17/index.php?action_kouhyou_detail_004_kani=true&JigyosyoCd=1760790566-00&ServiceCd=110&Type=search" }, "geometry": { "type": "Point", "coordinates": [ 136.791364199999947, 36.8980509 ] } },
{ "type": "Feature", "properties": { "内容": "眉丈園ホームヘルプサービスセンター【訪問介護】羽咋市南中央町キ154番地13地域ケアセンター唐戸山", "url2": "https://www.kaigokensaku.mhlw.go.jp/17/index.php?action_kouhyou_detail_004_kani=true&JigyosyoCd=1770700233-00&ServiceCd=110&Type=search" }, "geometry": { "type": "Point", "coordinates": [ 136.7788825, 36.8906714 ] } },
{ "type": "Feature", "properties": { "内容": "ＳＯＭＰＯケア　羽咋　訪問介護【訪問介護】石川県羽咋市南中央町キ154-14　和田ビル１階", "url2": "https://www.kaigokensaku.mhlw.go.jp/17/index.php?action_kouhyou_detail_004_kani=true&JigyosyoCd=1770700373-00&ServiceCd=110&Type=search" }, "geometry": { "type": "Point", "coordinates": [ 136.778586658999671, 36.892094609984767 ] } },
{ "type": "Feature", "properties": { "内容": "訪問介護事業所悠和ウエルネス東川原【訪問介護】石川県羽咋市東川原町砂田１１番地１住宅型有料老人ホーム　能登和楽の里東川原", "url2": "https://www.kaigokensaku.mhlw.go.jp/17/index.php?action_kouhyou_detail_004_kani=true&JigyosyoCd=1770700399-00&ServiceCd=110&Type=search" }, "geometry": { "type": "Point", "coordinates": [ 136.7849912, 36.894252 ] } },
{ "type": "Feature", "properties": { "内容": "訪問介護事業所悠和ウエルネス【訪問介護】石川県羽咋市寺家町セ２番１住宅型有料老人ホーム　能登和楽の里", "url2": "https://www.kaigokensaku.mhlw.go.jp/17/index.php?action_kouhyou_detail_004_kani=true&JigyosyoCd=1770700332-00&ServiceCd=110&Type=search" }, "geometry": { "type": "Point", "coordinates": [ 136.76353789999996, 36.9299213 ] } },
{ "type": "Feature", "properties": { "内容": "訪問介護ステーション蒼【訪問介護】石川県かほく市大崎5-10-2", "url2": "https://www.kaigokensaku.mhlw.go.jp/17/index.php?action_kouhyou_detail_004_kani=true&JigyosyoCd=1762191425-00&ServiceCd=110&Type=search" }, "geometry": { "type": "Point", "coordinates": [ 136.682060299999989, 36.7043406 ] } },
{ "type": "Feature", "properties": { "内容": "社会福祉法人かほく市社会福祉協議会中央訪問介護事業所【訪問介護】石川県かほく市遠塚ロ52番地10かほく市七塚健康福祉センター内", "url2": "https://www.kaigokensaku.mhlw.go.jp/17/index.php?action_kouhyou_detail_004_kani=true&JigyosyoCd=1772100143-00&ServiceCd=110&Type=search" }, "geometry": { "type": "Point", "coordinates": [ 136.700727, 36.7347602 ] } },
{ "type": "Feature", "properties": { "内容": "ひゃくまん星高松訪問介護事業所【訪問介護】高松甲16番地10", "url2": "https://www.kaigokensaku.mhlw.go.jp/17/index.php?action_kouhyou_detail_004_kani=true&JigyosyoCd=1772100309-00&ServiceCd=110&Type=search" }, "geometry": { "type": "Point", "coordinates": [ 136.7112457, 36.761343600000032 ] } },
{ "type": "Feature", "properties": { "内容": "なぎさケアサービス【訪問介護】石川県かほく市白尾タ１９番地１", "url2": "https://www.kaigokensaku.mhlw.go.jp/17/index.php?action_kouhyou_detail_004_kani=true&JigyosyoCd=1772100184-00&ServiceCd=110&Type=search" }, "geometry": { "type": "Point", "coordinates": [ 136.695053300000041, 36.7161209 ] } },
{ "type": "Feature", "properties": { "内容": "訪問介護事業所　ケア白山【訪問介護】白山市　北安田西　二丁目８３番地", "url2": "https://www.kaigokensaku.mhlw.go.jp/17/index.php?action_kouhyou_detail_004_kani=true&JigyosyoCd=1772200117-00&ServiceCd=110&Type=search" }, "geometry": { "type": "Point", "coordinates": [ 136.546356294950868, 36.521529191030325 ] } },
{ "type": "Feature", "properties": { "内容": "ニチイケアセンター鶴来【訪問介護】石川県白山市熱野町イ28番地11", "url2": "https://www.kaigokensaku.mhlw.go.jp/17/index.php?action_kouhyou_detail_004_kani=true&JigyosyoCd=1772200554-00&ServiceCd=110&Type=search" }, "geometry": { "type": "Point", "coordinates": [ 136.4984346, 36.4846106 ] } },
{ "type": "Feature", "properties": { "内容": "もものはな訪問介護白山【訪問介護】石川県白山市横町96-1", "url2": "https://www.kaigokensaku.mhlw.go.jp/17/index.php?action_kouhyou_detail_004_kani=true&JigyosyoCd=1772201172-00&ServiceCd=110&Type=search" }, "geometry": { "type": "Point", "coordinates": [ 136.5624707, 36.5243987 ] } },
{ "type": "Feature", "properties": { "内容": "白山市社協ホームヘルプセンター【訪問介護】石川県白山市倉光八丁目１６番地１福祉ふれあいセンター", "url2": "https://www.kaigokensaku.mhlw.go.jp/17/index.php?action_kouhyou_detail_004_kani=true&JigyosyoCd=1772200273-00&ServiceCd=110&Type=search" }, "geometry": { "type": "Point", "coordinates": [ 136.572887626983658, 36.515063287235762 ] } },
{ "type": "Feature", "properties": { "内容": "ニチイケアセンター松任【訪問介護】白山市石同新町２７５－１", "url2": "https://www.kaigokensaku.mhlw.go.jp/17/index.php?action_kouhyou_detail_004_kani=true&JigyosyoCd=1772200059-00&ServiceCd=110&Type=search" }, "geometry": { "type": "Point", "coordinates": [ 136.5698466, 36.5196264 ] } },
{ "type": "Feature", "properties": { "内容": "訪問介護カルナ【訪問介護】石川県白山市三幸町15番地アヴェニールミユキ202", "url2": "https://www.kaigokensaku.mhlw.go.jp/17/index.php?action_kouhyou_detail_004_kani=true&JigyosyoCd=1772201115-00&ServiceCd=110&Type=search" }, "geometry": { "type": "Point", "coordinates": [ 136.578158, 36.5147195 ] } },
{ "type": "Feature", "properties": { "内容": "キーパー辰巳町【訪問介護】石川県白山市辰巳町26番地有料老人ホームてらす辰巳町", "url2": "https://www.kaigokensaku.mhlw.go.jp/17/index.php?action_kouhyou_detail_004_kani=true&JigyosyoCd=1772201040-00&ServiceCd=110&Type=search" }, "geometry": { "type": "Point", "coordinates": [ 136.5682641, 36.522304 ] } },
{ "type": "Feature", "properties": { "内容": "キーパー鶴来【訪問介護】石川県白山市鶴来水戸町3丁目130番地てらす鶴来", "url2": "https://www.kaigokensaku.mhlw.go.jp/17/index.php?action_kouhyou_detail_004_kani=true&JigyosyoCd=1772201057-00&ServiceCd=110&Type=search" }, "geometry": { "type": "Point", "coordinates": [ 136.6241555, 36.4446105 ] } },
{ "type": "Feature", "properties": { "内容": "ヘルパーステーションしおん【訪問介護】白山市明島町西１１５－１", "url2": "https://www.kaigokensaku.mhlw.go.jp/17/index.php?action_kouhyou_detail_004_kani=true&JigyosyoCd=1772200588-00&ServiceCd=110&Type=search" }, "geometry": { "type": "Point", "coordinates": [ 136.603369499999985, 36.4686471 ] } },
{ "type": "Feature", "properties": { "内容": "香林苑訪問介護センター【訪問介護】石川県白山市大竹町ロ１７番地１", "url2": "https://www.kaigokensaku.mhlw.go.jp/17/index.php?action_kouhyou_detail_004_kani=true&JigyosyoCd=1772200422-00&ServiceCd=110&Type=search" }, "geometry": { "type": "Point", "coordinates": [ 136.592990200000031, 36.4679608 ] } },
{ "type": "Feature", "properties": { "内容": "PDハウス白山ヘルパーステーション【訪問介護】石川県白山市成町712-3PDハウス白山ヘルパーステーション", "url2": "https://www.kaigokensaku.mhlw.go.jp/17/index.php?action_kouhyou_detail_004_kani=true&JigyosyoCd=1772200943-00&ServiceCd=110&Type=search" }, "geometry": { "type": "Point", "coordinates": [ 136.556329617136811, 36.524638638244177 ] } },
{ "type": "Feature", "properties": { "内容": "大門園訪問介護サービスセンター【訪問介護】石川県白山市佐良123番地", "url2": "https://www.kaigokensaku.mhlw.go.jp/17/index.php?action_kouhyou_detail_004_kani=true&JigyosyoCd=1782200032-00&ServiceCd=110&Type=search" }, "geometry": { "type": "Point", "coordinates": [ 136.6534371, 36.3328944 ] } },
{ "type": "Feature", "properties": { "内容": "訪問介護ステーション　たんぽぽ【訪問介護】能美市火釜町リ１番８", "url2": "https://www.kaigokensaku.mhlw.go.jp/17/index.php?action_kouhyou_detail_004_kani=true&JigyosyoCd=1762391009-00&ServiceCd=110&Type=search" }, "geometry": { "type": "Point", "coordinates": [ 136.560416, 36.449313 ] } },
{ "type": "Feature", "properties": { "内容": "ぐらんりーふ訪問介護ステーション【訪問介護】石川県能美市吉原釜屋町ロ６０番１", "url2": "https://www.kaigokensaku.mhlw.go.jp/17/index.php?action_kouhyou_detail_004_kani=true&JigyosyoCd=1762391397-00&ServiceCd=110&Type=search" }, "geometry": { "type": "Point", "coordinates": [ 136.467980527953898, 36.468732947694704 ] } },
{ "type": "Feature", "properties": { "内容": "ビジットケアひすい【訪問介護】石川県能美市緑が丘11丁目111番２", "url2": "https://www.kaigokensaku.mhlw.go.jp/17/index.php?action_kouhyou_detail_004_kani=true&JigyosyoCd=1752380236-00&ServiceCd=110&Type=search" }, "geometry": { "type": "Point", "coordinates": [ 136.534779209624958, 36.441850632864394 ] } },
{ "type": "Feature", "properties": { "内容": "ヘルパーステーション九谷【訪問介護】石川県能美市寺井町わ20番地サービス付き高齢者向け住宅杜の郷九谷内", "url2": "https://www.kaigokensaku.mhlw.go.jp/17/index.php?action_kouhyou_detail_004_kani=true&JigyosyoCd=1762391199-00&ServiceCd=110&Type=search" }, "geometry": { "type": "Point", "coordinates": [ 136.50025069052117, 36.439619387984969 ] } },
{ "type": "Feature", "properties": { "内容": "訪問介護事業所　ボニュール根上苑【訪問介護】石川県能美市下ノ江町イ205ボニュール根上苑", "url2": "https://www.kaigokensaku.mhlw.go.jp/17/index.php?action_kouhyou_detail_004_kani=true&JigyosyoCd=1772300040-00&ServiceCd=110&Type=search" }, "geometry": { "type": "Point", "coordinates": [ 136.4532427, 36.4370269 ] } },
{ "type": "Feature", "properties": { "内容": "エール訪問介護事業所【訪問介護】石川県能美市湯谷町ト165", "url2": "https://www.kaigokensaku.mhlw.go.jp/17/index.php?action_kouhyou_detail_004_kani=true&JigyosyoCd=1772300511-00&ServiceCd=110&Type=search" }, "geometry": { "type": "Point", "coordinates": [ 136.518828500000012, 36.4345884 ] } },
{ "type": "Feature", "properties": { "内容": "ニチイケアセンター能美【訪問介護】石川県能美市寺井町ぬ82番地", "url2": "https://www.kaigokensaku.mhlw.go.jp/17/index.php?action_kouhyou_detail_004_kani=true&JigyosyoCd=1772300073-00&ServiceCd=110&Type=search" }, "geometry": { "type": "Point", "coordinates": [ 136.499927299999968, 36.4402393 ] } },
{ "type": "Feature", "properties": { "内容": "ケアステーション一華【訪問介護】石川県能美市寺井町た46番地", "url2": "https://www.kaigokensaku.mhlw.go.jp/17/index.php?action_kouhyou_detail_004_kani=true&JigyosyoCd=1772300529-00&ServiceCd=110&Type=search" }, "geometry": { "type": "Point", "coordinates": [ 136.495747099999988, 36.4369093 ] } },
{ "type": "Feature", "properties": { "内容": "学研ココファン辰口ヘルパーセンター【訪問介護】石川県能美市三ツ屋町35番地1ココファン辰口", "url2": "https://www.kaigokensaku.mhlw.go.jp/17/index.php?action_kouhyou_detail_004_kani=true&JigyosyoCd=1772300453-00&ServiceCd=110&Type=search" }, "geometry": { "type": "Point", "coordinates": [ 136.546775600000046, 36.453201 ] } },
{ "type": "Feature", "properties": { "内容": "ヘルパーステーション押野【訪問介護】石川県野々市市押野6丁目155", "url2": "https://www.kaigokensaku.mhlw.go.jp/17/index.php?action_kouhyou_detail_004_kani=true&JigyosyoCd=1711311017-00&ServiceCd=110&Type=search" }, "geometry": { "type": "Point", "coordinates": [ 136.6182311, 36.5451003 ] } },
{ "type": "Feature", "properties": { "内容": "とくひさ訪問介護【訪問介護】石川県野々市市蓮花寺町47街区11-1", "url2": "https://www.kaigokensaku.mhlw.go.jp/17/index.php?action_kouhyou_detail_004_kani=true&JigyosyoCd=1761391497-00&ServiceCd=110&Type=search" }, "geometry": { "type": "Point", "coordinates": [ 136.594704068261706, 36.528334345789801 ] } },
{ "type": "Feature", "properties": { "内容": "きらら【訪問介護】石川県野々市市若松町１番１７号グレースエイト１０３号", "url2": "https://www.kaigokensaku.mhlw.go.jp/17/index.php?action_kouhyou_detail_004_kani=true&JigyosyoCd=1771300645-00&ServiceCd=110&Type=search" }, "geometry": { "type": "Point", "coordinates": [ 136.6137019, 36.5382558 ] } },
{ "type": "Feature", "properties": { "内容": "ヘルパーステーションれたす村【訪問介護】扇が丘２８番４号", "url2": "https://www.kaigokensaku.mhlw.go.jp/17/index.php?action_kouhyou_detail_004_kani=true&JigyosyoCd=1771300504-00&ServiceCd=110&Type=search" }, "geometry": { "type": "Point", "coordinates": [ 136.62804170000004, 36.524704 ] } },
{ "type": "Feature", "properties": { "内容": "訪問介護事業所へいわーど【訪問介護】石川県野々市市矢作1丁目120SunnyDays106号室", "url2": "https://www.kaigokensaku.mhlw.go.jp/17/index.php?action_kouhyou_detail_004_kani=true&JigyosyoCd=1771300926-00&ServiceCd=110&Type=search" }, "geometry": { "type": "Point", "coordinates": [ 136.61422730000001, 36.5207489 ] } },
{ "type": "Feature", "properties": { "内容": "ヘルパーステーションそよ風【訪問介護】野々市市白山町1-39", "url2": "https://www.kaigokensaku.mhlw.go.jp/17/index.php?action_kouhyou_detail_004_kani=true&JigyosyoCd=1771300561-00&ServiceCd=110&Type=search" }, "geometry": { "type": "Point", "coordinates": [ 136.613866729664522, 36.528443397353229 ] } },
{ "type": "Feature", "properties": { "内容": "野々市市社会福祉協議会　訪問介護事業所【訪問介護】野々市市矢作三丁目１番地２老人福祉センター", "url2": "https://www.kaigokensaku.mhlw.go.jp/17/index.php?action_kouhyou_detail_004_kani=true&JigyosyoCd=1771300074-00&ServiceCd=110&Type=search" }, "geometry": { "type": "Point", "coordinates": [ 136.611534799999959, 36.523404 ] } },
{ "type": "Feature", "properties": { "内容": "学研ココファン野々市【訪問介護】石川県野々市市西部中央土地区画整理地41街区2", "url2": "https://www.kaigokensaku.mhlw.go.jp/17/index.php?action_kouhyou_detail_004_kani=true&JigyosyoCd=1771300934-00&ServiceCd=110&Type=search" }, "geometry": { "type": "Point", "coordinates": [ 136.600647, 36.526923 ] } },
{ "type": "Feature", "properties": { "内容": "訪問介護事業所かいてき野々市【訪問介護】石川県野々市市三日市１丁目８０番地１", "url2": "https://www.kaigokensaku.mhlw.go.jp/17/index.php?action_kouhyou_detail_004_kani=true&JigyosyoCd=1771300884-00&ServiceCd=110&Type=search" }, "geometry": { "type": "Point", "coordinates": [ 136.5956385, 36.5365849 ] } },
{ "type": "Feature", "properties": { "内容": "訪問介護事業所かめはうす【訪問介護】石川県野々市市三日市１丁目８０番地１", "url2": "https://www.kaigokensaku.mhlw.go.jp/17/index.php?action_kouhyou_detail_004_kani=true&JigyosyoCd=1771300736-00&ServiceCd=110&Type=search" }, "geometry": { "type": "Point", "coordinates": [ 136.596234477246071, 36.536012839586746 ] } },
{ "type": "Feature", "properties": { "内容": "ヘルパ-ステ-ション愛さんさん【訪問介護】石川県野々市市野代１丁目６１番地愛SUNSUN", "url2": "https://www.kaigokensaku.mhlw.go.jp/17/index.php?action_kouhyou_detail_004_kani=true&JigyosyoCd=1771300942-00&ServiceCd=110&Type=search" }, "geometry": { "type": "Point", "coordinates": [ 136.6029948, 36.5388057 ] } },
{ "type": "Feature", "properties": { "内容": "ヘルパーステーション　レインボー【訪問介護】石川県野々市市高橋町2番12号ヘルパーステーション　レインボー", "url2": "https://www.kaigokensaku.mhlw.go.jp/17/index.php?action_kouhyou_detail_004_kani=true&JigyosyoCd=1771300835-00&ServiceCd=110&Type=search" }, "geometry": { "type": "Point", "coordinates": [ 136.622017199999959, 36.5323835 ] } },
{ "type": "Feature", "properties": { "内容": "訪問介護ステーションFLOS-familia-【訪問介護】石川県野々市市藤平田1-290住宅型有料老人ホームFLOS-familia-", "url2": "https://www.kaigokensaku.mhlw.go.jp/17/index.php?action_kouhyou_detail_004_kani=true&JigyosyoCd=1771300975-00&ServiceCd=110&Type=search" }, "geometry": { "type": "Point", "coordinates": [ 136.6051526, 36.5191104 ] } },
{ "type": "Feature", "properties": { "内容": "訪問介護ステーション　白寿【訪問介護】野々市市御経塚３－７９", "url2": "https://www.kaigokensaku.mhlw.go.jp/17/index.php?action_kouhyou_detail_004_kani=true&JigyosyoCd=1771300603-00&ServiceCd=110&Type=search" }, "geometry": { "type": "Point", "coordinates": [ 136.595557900000017, 36.5517034 ] } },
{ "type": "Feature", "properties": { "内容": "訪問介護事業所ニルヴァーナ【訪問介護】野々市市住吉町26-46", "url2": "https://www.kaigokensaku.mhlw.go.jp/17/index.php?action_kouhyou_detail_004_kani=true&JigyosyoCd=1771300686-00&ServiceCd=110&Type=search" }, "geometry": { "type": "Point", "coordinates": [ 136.617252064418011, 36.523720774475954 ] } },
{ "type": "Feature", "properties": { "内容": "ヘルパーステーション　アースケア御経塚【訪問介護】石川県野々市市御経塚1丁目510番地有料老人ホーム　ケアシス野々市", "url2": "https://www.kaigokensaku.mhlw.go.jp/17/index.php?action_kouhyou_detail_004_kani=true&JigyosyoCd=1771300827-00&ServiceCd=110&Type=search" }, "geometry": { "type": "Point", "coordinates": [ 136.595472100000052, 36.5441209 ] } },
{ "type": "Feature", "properties": { "内容": "もものはな訪問介護【訪問介護】石川県野々市市矢作3-10", "url2": "https://www.kaigokensaku.mhlw.go.jp/17/index.php?action_kouhyou_detail_004_kani=true&JigyosyoCd=1771300918-00&ServiceCd=110&Type=search" }, "geometry": { "type": "Point", "coordinates": [ 136.6121593, 36.5230148 ] } },
{ "type": "Feature", "properties": { "内容": "サンケア　押野【訪問介護】押野5-39サンケア　押野", "url2": "https://www.kaigokensaku.mhlw.go.jp/17/index.php?action_kouhyou_detail_004_kani=true&JigyosyoCd=1771300629-00&ServiceCd=110&Type=search" }, "geometry": { "type": "Point", "coordinates": [ 136.621078642327916, 36.545240632082269 ] } },
{ "type": "Feature", "properties": { "内容": "訪問介護てらす【訪問介護】石川県野々市市郷一丁目131番地有料老人ホームひなの家彩～いろどり～", "url2": "https://www.kaigokensaku.mhlw.go.jp/17/index.php?action_kouhyou_detail_004_kani=true&JigyosyoCd=1771300850-00&ServiceCd=110&Type=search" }, "geometry": { "type": "Point", "coordinates": [ 136.587626, 36.5349266 ] } },
{ "type": "Feature", "properties": { "内容": "なぎさケアサービス津幡【訪問介護】河北郡津幡町字横浜ろ-1ｸﾚｾｰﾙ203", "url2": "https://www.kaigokensaku.mhlw.go.jp/17/index.php?action_kouhyou_detail_004_kani=true&JigyosyoCd=1771400577-00&ServiceCd=110&Type=search" }, "geometry": { "type": "Point", "coordinates": [ 136.732671468145867, 36.668335817191611 ] } },
{ "type": "Feature", "properties": { "内容": "ヘルパーステーション津幡【訪問介護】石川県河北郡津幡町字能瀬イ１番地１あがたの里", "url2": "https://www.kaigokensaku.mhlw.go.jp/17/index.php?action_kouhyou_detail_004_kani=true&JigyosyoCd=1771400148-00&ServiceCd=110&Type=search" }, "geometry": { "type": "Point", "coordinates": [ 136.7261972, 36.6894385 ] } },
{ "type": "Feature", "properties": { "内容": "みずほガーデン訪問介護事業所【訪問介護】石川県河北郡津幡町字潟端344番地1", "url2": "https://www.kaigokensaku.mhlw.go.jp/17/index.php?action_kouhyou_detail_004_kani=true&JigyosyoCd=1771400866-00&ServiceCd=110&Type=search" }, "geometry": { "type": "Point", "coordinates": [ 136.7091409, 36.6576374 ] } },
{ "type": "Feature", "properties": { "内容": "ニチイケアセンター津幡【訪問介護】石川県河北郡津幡町加賀爪ホ７４", "url2": "https://www.kaigokensaku.mhlw.go.jp/17/index.php?action_kouhyou_detail_004_kani=true&JigyosyoCd=1771400791-00&ServiceCd=110&Type=search" }, "geometry": { "type": "Point", "coordinates": [ 136.733262599999989, 36.6696096 ] } },
{ "type": "Feature", "properties": { "内容": "ＪＡ石川かほく　ほのぼのヘルプ【訪問介護】石川県河北郡津幡町川尻タ48番地", "url2": "https://www.kaigokensaku.mhlw.go.jp/17/index.php?action_kouhyou_detail_004_kani=true&JigyosyoCd=1771400064-00&ServiceCd=110&Type=search" }, "geometry": { "type": "Point", "coordinates": [ 136.719811899999968, 36.6730732 ] } },
{ "type": "Feature", "properties": { "内容": "訪問介護事業所つばたの季【訪問介護】石川県河北郡津幡町太田ほ40-1", "url2": "https://www.kaigokensaku.mhlw.go.jp/17/index.php?action_kouhyou_detail_004_kani=true&JigyosyoCd=1771400767-00&ServiceCd=110&Type=search" }, "geometry": { "type": "Point", "coordinates": [ 136.724006899999949, 36.6512175 ] } },
{ "type": "Feature", "properties": { "内容": "訪問介護事業所みどり【訪問介護】石川県河北郡内灘町緑台１丁目５番地", "url2": "https://www.kaigokensaku.mhlw.go.jp/17/index.php?action_kouhyou_detail_004_kani=true&JigyosyoCd=1711410793-00&ServiceCd=110&Type=search" }, "geometry": { "type": "Point", "coordinates": [ 136.631740400000012, 36.6355537 ] } },
{ "type": "Feature", "properties": { "内容": "ケアセンター　華【訪問介護】河北郡内灘町千鳥台2丁目143番地", "url2": "https://www.kaigokensaku.mhlw.go.jp/17/index.php?action_kouhyou_detail_004_kani=true&JigyosyoCd=1771400239-00&ServiceCd=110&Type=search" }, "geometry": { "type": "Point", "coordinates": [ 136.631370800000013, 36.6413808 ] } },
{ "type": "Feature", "properties": { "内容": "ヘルパーステーションぽぷら【訪問介護】石川県河北郡内灘町向粟埼3丁目43番地", "url2": "https://www.kaigokensaku.mhlw.go.jp/17/index.php?action_kouhyou_detail_004_kani=true&JigyosyoCd=1771400445-00&ServiceCd=110&Type=search" }, "geometry": { "type": "Point", "coordinates": [ 136.6450863, 36.6534936 ] } },
{ "type": "Feature", "properties": { "内容": "内灘町社会福祉協議会訪問介護事業所【訪問介護】石川県河北郡内灘町字大清台１４０番地内灘町文化会館", "url2": "https://www.kaigokensaku.mhlw.go.jp/17/index.php?action_kouhyou_detail_004_kani=true&JigyosyoCd=1771400114-00&ServiceCd=110&Type=search" }, "geometry": { "type": "Point", "coordinates": [ 136.64372614550777, 36.650896599274887 ] } },
{ "type": "Feature", "properties": { "内容": "ほうもんじぎょうしょえいこう【訪問介護】石川県河北郡内灘町字大根布7丁目80番地1合同会社えいこう", "url2": "https://www.kaigokensaku.mhlw.go.jp/17/index.php?action_kouhyou_detail_004_kani=true&JigyosyoCd=1771400783-00&ServiceCd=110&Type=search" }, "geometry": { "type": "Point", "coordinates": [ 136.6454325, 36.6501397 ] } },
{ "type": "Feature", "properties": { "内容": "訪問介護ステーションFLOS-Lien-【訪問介護】石川県河北郡内灘町鶴ヶ丘２丁目５９７住宅型有料老人ホームFLOS-Lien-", "url2": "https://www.kaigokensaku.mhlw.go.jp/17/index.php?action_kouhyou_detail_004_kani=true&JigyosyoCd=1771400874-00&ServiceCd=110&Type=search" }, "geometry": { "type": "Point", "coordinates": [ 136.6429609, 36.6419348 ] } },
{ "type": "Feature", "properties": { "内容": "JA志賀訪問介護センター【訪問介護】石川県羽咋郡志賀町高浜町クの５６番地1", "url2": "https://www.kaigokensaku.mhlw.go.jp/17/index.php?action_kouhyou_detail_004_kani=true&JigyosyoCd=1771500012-00&ServiceCd=110&Type=search" }, "geometry": { "type": "Point", "coordinates": [ 136.771552400000019, 37.0040147 ] } },
{ "type": "Feature", "properties": { "内容": "志賀町社会福祉協議会訪問介護サービスステーション【訪問介護】石川県羽咋郡志賀高浜町カの１番地１志賀町保健福祉センター内", "url2": "https://www.kaigokensaku.mhlw.go.jp/17/index.php?action_kouhyou_detail_004_kani=true&JigyosyoCd=1771500244-00&ServiceCd=110&Type=search" }, "geometry": { "type": "Point", "coordinates": [ 136.774896969477567, 37.010607918872005 ] } },
{ "type": "Feature", "properties": { "内容": "中能登町社協　ヘルパーステーション【訪問介護】石川県鹿島郡中能登町能登部上チ部３０番地デイサービス「ひまわり」内", "url2": "https://www.kaigokensaku.mhlw.go.jp/17/index.php?action_kouhyou_detail_004_kani=true&JigyosyoCd=1771600226-00&ServiceCd=110&Type=search" }, "geometry": { "type": "Point", "coordinates": [ 136.875715566791229, 36.966078813033917 ] } },
{ "type": "Feature", "properties": { "内容": "聖頌園ヘルパーステーション【訪問介護】鳳珠郡穴水町字岩車6,27の2番地", "url2": "https://www.kaigokensaku.mhlw.go.jp/17/index.php?action_kouhyou_detail_004_kani=true&JigyosyoCd=1771700125-00&ServiceCd=110&Type=search" }, "geometry": { "type": "Point", "coordinates": [ 136.960687199999938, 37.2112538 ] } },
{ "type": "Feature", "properties": { "内容": "清水の里　ヘルパーステーション　穴水【訪問介護】石川県鳳珠郡穴水町字宇加川イ１４２", "url2": "https://www.kaigokensaku.mhlw.go.jp/17/index.php?action_kouhyou_detail_004_kani=true&JigyosyoCd=1771700364-00&ServiceCd=110&Type=search" }, "geometry": { "type": "Point", "coordinates": [ 137.065841200000023, 37.2247802 ] } },
{ "type": "Feature", "properties": { "内容": "（株）　まごころ　ヘルパーステーション　ささゆりの丘【訪問介護】石川県鳳珠郡穴水町字此木1の120番地", "url2": "https://www.kaigokensaku.mhlw.go.jp/17/index.php?action_kouhyou_detail_004_kani=true&JigyosyoCd=1771700398-00&ServiceCd=110&Type=search" }, "geometry": { "type": "Point", "coordinates": [ 136.900098723556539, 37.243141468755901 ] } },
{ "type": "Feature", "properties": { "内容": "能輝人【訪問介護】石川県鳳珠郡能登町字藤波21字7番地1", "url2": "https://www.kaigokensaku.mhlw.go.jp/17/index.php?action_kouhyou_detail_004_kani=true&JigyosyoCd=1771700414-00&ServiceCd=110&Type=search" }, "geometry": { "type": "Point", "coordinates": [ 137.137272050262482, 37.297678177665247 ] } },
{ "type": "Feature", "properties": { "内容": "能登町社会福祉協議会ヘルパーステーション【訪問介護】鳳珠郡能登町字崎山1丁目1番地崎山山村開発センター２F", "url2": "https://www.kaigokensaku.mhlw.go.jp/17/index.php?action_kouhyou_detail_004_kani=true&JigyosyoCd=1771700299-00&ServiceCd=110&Type=search" }, "geometry": { "type": "Point", "coordinates": [ 137.148652500000026, 37.3028742 ] } },
{ "type": "Feature", "properties": { "内容": "多花楽会訪問介護事業所【訪問介護】鳳珠郡能登町字柳田信部1006番地", "url2": "https://www.kaigokensaku.mhlw.go.jp/17/index.php?action_kouhyou_detail_004_kani=true&JigyosyoCd=1771700091-00&ServiceCd=110&Type=search" }, "geometry": { "type": "Point", "coordinates": [ 137.085557600523344, 37.369417929407675 ] } },
{ "type": "Feature", "properties": { "内容": "第二長寿園訪問介護サービスセンター【訪問介護】石川県鳳珠郡能登町字布浦ノ字10番地3", "url2": "https://www.kaigokensaku.mhlw.go.jp/17/index.php?action_kouhyou_detail_004_kani=true&JigyosyoCd=1771700265-00&ServiceCd=110&Type=search" }, "geometry": { "type": "Point", "coordinates": [ 137.253135971549995, 37.345382710000486 ] } }
]
}
