{
"type": "FeatureCollection",
"name": "geo_17_幼保連携型認定こども園",
"crs": { "type": "name", "properties": { "name": "urn:ogc:def:crs:EPSG::6668" } },
"features": [
{ "type": "Feature", "properties": { "P29_001": "17201", "P29_002": "A217220100019", "P29_003": "16013", "P29_004": "県立保育専門学園附属泉こども園", "P29_005": "石川県金沢市泉1-3-63", "P29_006": "2", "P29_007": "0", "P29_008": "00", "P29_009": null }, "geometry": { "type": "Point", "coordinates": [ 136.643010781243902, 36.552065667554587 ] } },
{ "type": "Feature", "properties": { "P29_001": "17203", "P29_002": "A217220300240", "P29_003": "16013", "P29_004": "松東こども園", "P29_005": "石川県小松市江指町乙58", "P29_006": "3", "P29_007": "0", "P29_008": "00", "P29_009": null }, "geometry": { "type": "Point", "coordinates": [ 136.490177340591686, 36.359676840072609 ] } },
{ "type": "Feature", "properties": { "P29_001": "17210", "P29_002": "A217221000018", "P29_003": "16013", "P29_004": "白山市立松任こども園", "P29_005": "石川県白山市茶屋2-41", "P29_006": "3", "P29_007": "0", "P29_008": "00", "P29_009": null }, "geometry": { "type": "Point", "coordinates": [ 136.561862633393929, 36.519223081267199 ] } },
{ "type": "Feature", "properties": { "P29_001": "17201", "P29_002": "A217320100017", "P29_003": "16013", "P29_004": "みやこのもりこども園", "P29_005": "石川県金沢市材木町13-40", "P29_006": "4", "P29_007": "0", "P29_008": "00", "P29_009": null }, "geometry": { "type": "Point", "coordinates": [ 136.669038303133789, 36.567240982215317 ] } },
{ "type": "Feature", "properties": { "P29_001": "17201", "P29_002": "A217320100026", "P29_003": "16013", "P29_004": "さいび園", "P29_005": "石川県金沢市長土塀1-2-9", "P29_006": "4", "P29_007": "0", "P29_008": "00", "P29_009": null }, "geometry": { "type": "Point", "coordinates": [ 136.648829220500772, 36.568205487873001 ] } },
{ "type": "Feature", "properties": { "P29_001": "17201", "P29_002": "A217320100035", "P29_003": "16013", "P29_004": "認定こども園むつみえんふれんどはうす", "P29_005": "石川県金沢市石引2-4-23", "P29_006": "4", "P29_007": "0", "P29_008": "00", "P29_009": null }, "geometry": { "type": "Point", "coordinates": [ 136.668542154134883, 36.554998718338808 ] } },
{ "type": "Feature", "properties": { "P29_001": "17201", "P29_002": "A217320100044", "P29_003": "16013", "P29_004": "キッズアカデミー太陽丘こども園", "P29_005": "石川県金沢市太陽が丘3-247-1", "P29_006": "4", "P29_007": "0", "P29_008": "00", "P29_009": null }, "geometry": { "type": "Point", "coordinates": [ 136.709714995962372, 36.532131999560185 ] } },
{ "type": "Feature", "properties": { "P29_001": "17201", "P29_002": "A217320100053", "P29_003": "16013", "P29_004": "泉の台幼稚舎", "P29_005": "石川県金沢市泉野町4-4-3", "P29_006": "4", "P29_007": "0", "P29_008": "00", "P29_009": null }, "geometry": { "type": "Point", "coordinates": [ 136.652611753078588, 36.54487091473888 ] } },
{ "type": "Feature", "properties": { "P29_001": "17201", "P29_002": "A217320100062", "P29_003": "16013", "P29_004": "龍雲寺学園・バウデア学舎", "P29_005": "石川県金沢市寺町5-12-40", "P29_006": "4", "P29_007": "0", "P29_008": "00", "P29_009": null }, "geometry": { "type": "Point", "coordinates": [ 136.649922000317332, 36.553431004176446 ] } },
{ "type": "Feature", "properties": { "P29_001": "17201", "P29_002": "A217320100071", "P29_003": "16013", "P29_004": "幼保連携型認定こども園すずらん保育園", "P29_005": "石川県金沢市西金沢新町266-2", "P29_006": "4", "P29_007": "0", "P29_008": "00", "P29_009": null }, "geometry": { "type": "Point", "coordinates": [ 136.614870563546049, 36.555203841238303 ] } },
{ "type": "Feature", "properties": { "P29_001": "17201", "P29_002": "A217320100080", "P29_003": "16013", "P29_004": "ふたつか認定こども園", "P29_005": "石川県金沢市北塚町西100-2", "P29_006": "4", "P29_007": "0", "P29_008": "00", "P29_009": null }, "geometry": { "type": "Point", "coordinates": [ 136.597104331959201, 36.573276545858974 ] } },
{ "type": "Feature", "properties": { "P29_001": "17201", "P29_002": "A217320100099", "P29_003": "16013", "P29_004": "キッズスクールオオウラ", "P29_005": "石川県金沢市大浦町ヌ75-1", "P29_006": "4", "P29_007": "0", "P29_008": "00", "P29_009": null }, "geometry": { "type": "Point", "coordinates": [ 136.652169618615574, 36.623668989989547 ] } },
{ "type": "Feature", "properties": { "P29_001": "17201", "P29_002": "A217320100106", "P29_003": "16013", "P29_004": "東金沢こども園", "P29_005": "石川県金沢市三池町145", "P29_006": "4", "P29_007": "0", "P29_008": "00", "P29_009": null }, "geometry": { "type": "Point", "coordinates": [ 136.67404781171814, 36.592722140519946 ] } },
{ "type": "Feature", "properties": { "P29_001": "17201", "P29_002": "A217320100115", "P29_003": "16013", "P29_004": "額小鳩こども園", "P29_005": "石川県金沢市三十苅町乙156", "P29_006": "4", "P29_007": "0", "P29_008": "00", "P29_009": null }, "geometry": { "type": "Point", "coordinates": [ 136.617885855447753, 36.508624760807237 ] } },
{ "type": "Feature", "properties": { "P29_001": "17201", "P29_002": "A217320100124", "P29_003": "16013", "P29_004": "金沢泉丘こども園", "P29_005": "石川県金沢市富樫2-5-35", "P29_006": "4", "P29_007": "0", "P29_008": "00", "P29_009": null }, "geometry": { "type": "Point", "coordinates": [ 136.646256826002229, 36.536611752490089 ] } },
{ "type": "Feature", "properties": { "P29_001": "17201", "P29_002": "A217320100133", "P29_003": "16013", "P29_004": "額小鳩第二こども園", "P29_005": "石川県金沢市三十苅町乙154", "P29_006": "4", "P29_007": "0", "P29_008": "00", "P29_009": null }, "geometry": { "type": "Point", "coordinates": [ 136.618260597183422, 36.508798092140673 ] } },
{ "type": "Feature", "properties": { "P29_001": "17201", "P29_002": "A217320100142", "P29_003": "16013", "P29_004": "かもめこども園", "P29_005": "石川県金沢市粟崎町タ1-1", "P29_006": "4", "P29_007": "0", "P29_008": "00", "P29_009": null }, "geometry": { "type": "Point", "coordinates": [ 136.622154379878367, 36.618705438122724 ] } },
{ "type": "Feature", "properties": { "P29_001": "17201", "P29_002": "A217320100151", "P29_003": "16013", "P29_004": "広岡こども園", "P29_005": "石川県金沢市広岡2-8-26", "P29_006": "4", "P29_007": "0", "P29_008": "00", "P29_009": null }, "geometry": { "type": "Point", "coordinates": [ 136.643885009812692, 36.578279210018472 ] } },
{ "type": "Feature", "properties": { "P29_001": "17201", "P29_002": "A217320100160", "P29_003": "16013", "P29_004": "大徳学園", "P29_005": "石川県金沢市畝田中1-97", "P29_006": "4", "P29_007": "0", "P29_008": "00", "P29_009": null }, "geometry": { "type": "Point", "coordinates": [ 136.61238517045885, 36.592504777054117 ] } },
{ "type": "Feature", "properties": { "P29_001": "17201", "P29_002": "A217320100179", "P29_003": "16013", "P29_004": "千坂こども園", "P29_005": "石川県金沢市疋田町ハ302", "P29_006": "4", "P29_007": "0", "P29_008": "00", "P29_009": null }, "geometry": { "type": "Point", "coordinates": [ 136.676564996190706, 36.603452003044715 ] } },
{ "type": "Feature", "properties": { "P29_001": "17201", "P29_002": "A217320100188", "P29_003": "16013", "P29_004": "見真こども園", "P29_005": "石川県金沢市弥勒町カ112", "P29_006": "4", "P29_007": "0", "P29_008": "00", "P29_009": null }, "geometry": { "type": "Point", "coordinates": [ 136.687769997437613, 36.614460002372986 ] } },
{ "type": "Feature", "properties": { "P29_001": "17201", "P29_002": "A217320100197", "P29_003": "16013", "P29_004": "ひがしやまこども園", "P29_005": "石川県金沢市東山3-29-22", "P29_006": "4", "P29_007": "0", "P29_008": "00", "P29_009": null }, "geometry": { "type": "Point", "coordinates": [ 136.663564999293953, 36.576619997197426 ] } },
{ "type": "Feature", "properties": { "P29_001": "17201", "P29_002": "A217320100204", "P29_003": "16013", "P29_004": "光こども園", "P29_005": "石川県金沢市神宮寺1-11-15", "P29_006": "4", "P29_007": "0", "P29_008": "00", "P29_009": null }, "geometry": { "type": "Point", "coordinates": [ 136.668322358748895, 36.582145702817549 ] } },
{ "type": "Feature", "properties": { "P29_001": "17201", "P29_002": "A217320100213", "P29_003": "16013", "P29_004": "かみやちこども園", "P29_005": "石川県金沢市神谷内町ヘ29", "P29_006": "4", "P29_007": "0", "P29_008": "00", "P29_009": null }, "geometry": { "type": "Point", "coordinates": [ 136.683698789897136, 36.598569131416433 ] } },
{ "type": "Feature", "properties": { "P29_001": "17201", "P29_002": "A217320100222", "P29_003": "16013", "P29_004": "田上こども園", "P29_005": "石川県金沢市田上本町4-151", "P29_006": "4", "P29_007": "0", "P29_008": "00", "P29_009": null }, "geometry": { "type": "Point", "coordinates": [ 136.693542851959393, 36.539916212248407 ] } },
{ "type": "Feature", "properties": { "P29_001": "17201", "P29_002": "A217320100231", "P29_003": "16013", "P29_004": "聖霊こども園", "P29_005": "石川県金沢市長町1-5-30", "P29_006": "4", "P29_007": "0", "P29_008": "00", "P29_009": null }, "geometry": { "type": "Point", "coordinates": [ 136.650849993915216, 36.565674859191986 ] } },
{ "type": "Feature", "properties": { "P29_001": "17201", "P29_002": "A217320100240", "P29_003": "16013", "P29_004": "長土塀こども園", "P29_005": "石川県金沢市長町3-11-17", "P29_006": "4", "P29_007": "0", "P29_008": "00", "P29_009": null }, "geometry": { "type": "Point", "coordinates": [ 136.646838995937998, 36.567195997859351 ] } },
{ "type": "Feature", "properties": { "P29_001": "17201", "P29_002": "A217320100259", "P29_003": "16013", "P29_004": "小立野善隣館こども園", "P29_005": "石川県金沢市小立野5-1-5", "P29_006": "4", "P29_007": "0", "P29_008": "00", "P29_009": null }, "geometry": { "type": "Point", "coordinates": [ 136.675633997853367, 36.553620997082533 ] } },
{ "type": "Feature", "properties": { "P29_001": "17201", "P29_002": "A217320100268", "P29_003": "16013", "P29_004": "永井善隣館こども園", "P29_005": "石川県金沢市菊川2-8-13", "P29_006": "4", "P29_007": "0", "P29_008": "00", "P29_009": null }, "geometry": { "type": "Point", "coordinates": [ 136.66135163877243, 36.551621904986689 ] } },
{ "type": "Feature", "properties": { "P29_001": "17201", "P29_002": "A217320100277", "P29_003": "16013", "P29_004": "ミドリ光と風こども園", "P29_005": "石川県金沢市南塚町233", "P29_006": "4", "P29_007": "0", "P29_008": "00", "P29_009": null }, "geometry": { "type": "Point", "coordinates": [ 136.593025449592602, 36.568122401237545 ] } },
{ "type": "Feature", "properties": { "P29_001": "17201", "P29_002": "A217320100286", "P29_003": "16013", "P29_004": "ミドリの杜こども園", "P29_005": "石川県金沢市みどり3-23-2", "P29_006": "4", "P29_007": "0", "P29_008": "00", "P29_009": null }, "geometry": { "type": "Point", "coordinates": [ 136.584101946294282, 36.566872874210667 ] } },
{ "type": "Feature", "properties": { "P29_001": "17201", "P29_002": "A217320100295", "P29_003": "16013", "P29_004": "小金こども園", "P29_005": "石川県金沢市小坂町ケ120-4", "P29_006": "4", "P29_007": "0", "P29_008": "00", "P29_009": null }, "geometry": { "type": "Point", "coordinates": [ 136.679523584345816, 36.590982049457899 ] } },
{ "type": "Feature", "properties": { "P29_001": "17201", "P29_002": "A217320100302", "P29_003": "16013", "P29_004": "わかばこども園", "P29_005": "石川県金沢市西大桑町7-5", "P29_006": "4", "P29_007": "0", "P29_008": "00", "P29_009": null }, "geometry": { "type": "Point", "coordinates": [ 136.670472425225853, 36.54030433046178 ] } },
{ "type": "Feature", "properties": { "P29_001": "17201", "P29_002": "A217320100311", "P29_003": "16013", "P29_004": "金沢星稜大学附属星稜幼稚園", "P29_005": "石川県金沢市御所町寅27", "P29_006": "4", "P29_007": "0", "P29_008": "00", "P29_009": null }, "geometry": { "type": "Point", "coordinates": [ 136.683181040811178, 36.582140587122254 ] } },
{ "type": "Feature", "properties": { "P29_001": "17201", "P29_002": "A217320100320", "P29_003": "16013", "P29_004": "カルメン幼稚園", "P29_005": "石川県金沢市三馬3-324", "P29_006": "4", "P29_007": "0", "P29_008": "00", "P29_009": null }, "geometry": { "type": "Point", "coordinates": [ 136.630713000661615, 36.528160003411244 ] } },
{ "type": "Feature", "properties": { "P29_001": "17201", "P29_002": "A217320100339", "P29_003": "16013", "P29_004": "兼六こども園", "P29_005": "石川県金沢市桜町8-17", "P29_006": "4", "P29_007": "0", "P29_008": "00", "P29_009": null }, "geometry": { "type": "Point", "coordinates": [ 136.674964005882742, 36.563679998218753 ] } },
{ "type": "Feature", "properties": { "P29_001": "17201", "P29_002": "A217320100348", "P29_003": "16013", "P29_004": "かさまいこども園", "P29_005": "石川県金沢市笠舞2-27-20", "P29_006": "4", "P29_007": "0", "P29_008": "00", "P29_009": null }, "geometry": { "type": "Point", "coordinates": [ 136.669995149134053, 36.550001256955085 ] } },
{ "type": "Feature", "properties": { "P29_001": "17201", "P29_002": "A217320100357", "P29_003": "16013", "P29_004": "しらゆり保育園", "P29_005": "石川県金沢市西金沢3-508", "P29_006": "4", "P29_007": "0", "P29_008": "00", "P29_009": null }, "geometry": { "type": "Point", "coordinates": [ 136.614523393813812, 36.551751678318666 ] } },
{ "type": "Feature", "properties": { "P29_001": "17201", "P29_002": "A217320100366", "P29_003": "16013", "P29_004": "末こども園", "P29_005": "石川県金沢市末町21-22", "P29_006": "4", "P29_007": "0", "P29_008": "00", "P29_009": null }, "geometry": { "type": "Point", "coordinates": [ 136.692977480389516, 36.514482707440223 ] } },
{ "type": "Feature", "properties": { "P29_001": "17201", "P29_002": "A217320100375", "P29_003": "16013", "P29_004": "すえひろこども園", "P29_005": "石川県金沢市三口新町3-19-10", "P29_006": "4", "P29_007": "0", "P29_008": "00", "P29_009": null }, "geometry": { "type": "Point", "coordinates": [ 136.68083365061554, 36.543628927359656 ] } },
{ "type": "Feature", "properties": { "P29_001": "17201", "P29_002": "A217320100384", "P29_003": "16013", "P29_004": "桜木幼稚園", "P29_005": "石川県金沢市寺町2-12-12", "P29_006": "4", "P29_007": "0", "P29_008": "00", "P29_009": null }, "geometry": { "type": "Point", "coordinates": [ 136.654263918094443, 36.549256493555404 ] } },
{ "type": "Feature", "properties": { "P29_001": "17201", "P29_002": "A217320100393", "P29_003": "16013", "P29_004": "金沢幼稚園", "P29_005": "石川県金沢市安江町15-52", "P29_006": "4", "P29_007": "0", "P29_008": "00", "P29_009": null }, "geometry": { "type": "Point", "coordinates": [ 136.655528746137662, 36.575438524893222 ] } },
{ "type": "Feature", "properties": { "P29_001": "17201", "P29_002": "A217320100400", "P29_003": "16013", "P29_004": "石川県済生会こども園アイリス", "P29_005": "石川県金沢市本町1-2-16", "P29_006": "4", "P29_007": "0", "P29_008": "00", "P29_009": null }, "geometry": { "type": "Point", "coordinates": [ 136.651890993852817, 36.574097002882198 ] } },
{ "type": "Feature", "properties": { "P29_001": "17201", "P29_002": "A217320100419", "P29_003": "16013", "P29_004": "旭町保育園", "P29_005": "石川県金沢市旭町2-13-1", "P29_006": "4", "P29_007": "0", "P29_008": "00", "P29_009": null }, "geometry": { "type": "Point", "coordinates": [ 136.683478687127973, 36.55347825660656 ] } },
{ "type": "Feature", "properties": { "P29_001": "17201", "P29_002": "A217320100428", "P29_003": "16013", "P29_004": "平和こども園", "P29_005": "石川県金沢市平和町2-6-6", "P29_006": "4", "P29_007": "0", "P29_008": "00", "P29_009": null }, "geometry": { "type": "Point", "coordinates": [ 136.6645648020735, 36.542058052653069 ] } },
{ "type": "Feature", "properties": { "P29_001": "17201", "P29_002": "A217320100437", "P29_003": "16013", "P29_004": "めぐみこども園", "P29_005": "石川県金沢市平和町2-4-5", "P29_006": "4", "P29_007": "0", "P29_008": "00", "P29_009": null }, "geometry": { "type": "Point", "coordinates": [ 136.66506457097671, 36.542949756092312 ] } },
{ "type": "Feature", "properties": { "P29_001": "17201", "P29_002": "A217320100446", "P29_003": "16013", "P29_004": "ひばりキッズガーデン", "P29_005": "石川県金沢市額新町2-124", "P29_006": "4", "P29_007": "0", "P29_008": "00", "P29_009": null }, "geometry": { "type": "Point", "coordinates": [ 136.622402997010965, 36.517682002122669 ] } },
{ "type": "Feature", "properties": { "P29_001": "17201", "P29_002": "A217320100455", "P29_003": "16013", "P29_004": "幼保連携型認定こども園めばえ保育園", "P29_005": "石川県金沢市八日市3-229", "P29_006": "4", "P29_007": "0", "P29_008": "00", "P29_009": null }, "geometry": { "type": "Point", "coordinates": [ 136.603284995588041, 36.547926002602289 ] } },
{ "type": "Feature", "properties": { "P29_001": "17201", "P29_002": "A217320100464", "P29_003": "16013", "P29_004": "正美保育園", "P29_005": "石川県金沢市二口町イ30", "P29_006": "4", "P29_007": "0", "P29_008": "00", "P29_009": null }, "geometry": { "type": "Point", "coordinates": [ 136.636100005525634, 36.575038998391328 ] } },
{ "type": "Feature", "properties": { "P29_001": "17201", "P29_002": "A217320100473", "P29_003": "16013", "P29_004": "あけぼのこども園", "P29_005": "石川県金沢市戸水1-12", "P29_006": "4", "P29_007": "0", "P29_008": "00", "P29_009": null }, "geometry": { "type": "Point", "coordinates": [ 136.623306312866902, 36.60550916586044 ] } },
{ "type": "Feature", "properties": { "P29_001": "17201", "P29_002": "A217320100482", "P29_003": "16013", "P29_004": "さいねんこども園", "P29_005": "石川県金沢市西念3-7-21", "P29_006": "4", "P29_007": "0", "P29_008": "00", "P29_009": null }, "geometry": { "type": "Point", "coordinates": [ 136.637238003178396, 36.587778995570197 ] } },
{ "type": "Feature", "properties": { "P29_001": "17201", "P29_002": "A217320100491", "P29_003": "16013", "P29_004": "ニコニコ保育園", "P29_005": "石川県金沢市松村2-20", "P29_006": "4", "P29_007": "0", "P29_008": "00", "P29_009": null }, "geometry": { "type": "Point", "coordinates": [ 136.614683703621694, 36.584846050546567 ] } },
{ "type": "Feature", "properties": { "P29_001": "17201", "P29_002": "A217320100507", "P29_003": "16013", "P29_004": "犀川保育園", "P29_005": "石川県金沢市末町16-30", "P29_006": "4", "P29_007": "0", "P29_008": "00", "P29_009": null }, "geometry": { "type": "Point", "coordinates": [ 136.685879591105447, 36.519728515689572 ] } },
{ "type": "Feature", "properties": { "P29_001": "17201", "P29_002": "A217320100516", "P29_003": "16013", "P29_004": "ひがしあさかわこども園", "P29_005": "石川県金沢市袋板屋町西29", "P29_006": "4", "P29_007": "0", "P29_008": "00", "P29_009": null }, "geometry": { "type": "Point", "coordinates": [ 136.707970235051647, 36.517275716253437 ] } },
{ "type": "Feature", "properties": { "P29_001": "17201", "P29_002": "A217320100525", "P29_003": "16013", "P29_004": "長町幼稚園", "P29_005": "石川県金沢市片町2-10-23", "P29_006": "4", "P29_007": "0", "P29_008": "00", "P29_009": null }, "geometry": { "type": "Point", "coordinates": [ 136.650937279646996, 36.562586489561269 ] } },
{ "type": "Feature", "properties": { "P29_001": "17201", "P29_002": "A217320100534", "P29_003": "16013", "P29_004": "第一善隣館保育所", "P29_005": "石川県金沢市野町3-1-15", "P29_006": "4", "P29_007": "0", "P29_008": "00", "P29_009": null }, "geometry": { "type": "Point", "coordinates": [ 136.647400502191488, 36.553138164985107 ] } },
{ "type": "Feature", "properties": { "P29_001": "17201", "P29_002": "A217320100543", "P29_003": "16013", "P29_004": "伏見台保育園Ｎｅｏ", "P29_005": "石川県金沢市窪4-511", "P29_006": "4", "P29_007": "0", "P29_008": "00", "P29_009": null }, "geometry": { "type": "Point", "coordinates": [ 136.640874022558336, 36.526241475028421 ] } },
{ "type": "Feature", "properties": { "P29_001": "17201", "P29_002": "A217320100552", "P29_003": "16013", "P29_004": "伏見幼稚園", "P29_005": "石川県金沢市円光寺3-11-30", "P29_006": "4", "P29_007": "0", "P29_008": "00", "P29_009": null }, "geometry": { "type": "Point", "coordinates": [ 136.644006353758186, 36.53242828451954 ] } },
{ "type": "Feature", "properties": { "P29_001": "17201", "P29_002": "A217320100561", "P29_003": "16013", "P29_004": "みはる幼稚園", "P29_005": "石川県金沢市割出町435", "P29_006": "4", "P29_007": "0", "P29_008": "00", "P29_009": null }, "geometry": { "type": "Point", "coordinates": [ 136.639950317122356, 36.599772867814544 ] } },
{ "type": "Feature", "properties": { "P29_001": "17201", "P29_002": "A217320100570", "P29_003": "16013", "P29_004": "馬場幼稚園", "P29_005": "石川県金沢市小橋町4-12", "P29_006": "4", "P29_007": "0", "P29_008": "00", "P29_009": null }, "geometry": { "type": "Point", "coordinates": [ 136.664118003714464, 36.57761999663196 ] } },
{ "type": "Feature", "properties": { "P29_001": "17201", "P29_002": "A217320100589", "P29_003": "16013", "P29_004": "まどかこども園", "P29_005": "石川県金沢市南森本町ロ78-1", "P29_006": "4", "P29_007": "0", "P29_008": "00", "P29_009": null }, "geometry": { "type": "Point", "coordinates": [ 136.688809452152867, 36.623710760667429 ] } },
{ "type": "Feature", "properties": { "P29_001": "17201", "P29_002": "A217320100598", "P29_003": "16013", "P29_004": "青竜幼稚園", "P29_005": "石川県金沢市額新町1-27", "P29_006": "4", "P29_007": "0", "P29_008": "00", "P29_009": null }, "geometry": { "type": "Point", "coordinates": [ 136.6205771254306, 36.51855413017104 ] } },
{ "type": "Feature", "properties": { "P29_001": "17201", "P29_002": "A217320105995", "P29_003": "16013", "P29_004": "富樫中央こども園", "P29_005": "石川県金沢市山科1-7-5", "P29_006": "4", "P29_007": "0", "P29_008": "00", "P29_009": null }, "geometry": { "type": "Point", "coordinates": [ 136.647881769483803, 36.528728756443968 ] } },
{ "type": "Feature", "properties": { "P29_001": "17202", "P29_002": "A217320200016", "P29_003": "16013", "P29_004": "認定こども園七尾幼稚園", "P29_005": "石川県七尾市馬出町75-19", "P29_006": "4", "P29_007": "0", "P29_008": "00", "P29_009": null }, "geometry": { "type": "Point", "coordinates": [ 136.96092600323712, 37.045758997173635 ] } },
{ "type": "Feature", "properties": { "P29_001": "17202", "P29_002": "A217320200025", "P29_003": "16013", "P29_004": "認定こども園聖母幼稚園", "P29_005": "石川県七尾市南藤橋町子部58", "P29_006": "4", "P29_007": "0", "P29_008": "00", "P29_009": null }, "geometry": { "type": "Point", "coordinates": [ 136.96165345278186, 37.04223260387932 ] } },
{ "type": "Feature", "properties": { "P29_001": "17202", "P29_002": "A217320200034", "P29_003": "16013", "P29_004": "幼保連携型認定こども園ひまわり", "P29_005": "石川県七尾市千野町は7-1", "P29_006": "4", "P29_007": "0", "P29_008": "00", "P29_009": null }, "geometry": { "type": "Point", "coordinates": [ 136.956416422908404, 37.017137027586372 ] } },
{ "type": "Feature", "properties": { "P29_001": "17202", "P29_002": "A217320200043", "P29_003": "16013", "P29_004": "幼保連携型認定こども園東みなとこども園", "P29_005": "石川県七尾市万行町77-36-2", "P29_006": "4", "P29_007": "0", "P29_008": "00", "P29_009": null }, "geometry": { "type": "Point", "coordinates": [ 136.992299039580985, 37.041217494783666 ] } },
{ "type": "Feature", "properties": { "P29_001": "17202", "P29_002": "A217320200052", "P29_003": "16013", "P29_004": "幼保連携型認定こども園七尾みなとこども園", "P29_005": "石川県七尾市矢田町1-8", "P29_006": "4", "P29_007": "0", "P29_008": "00", "P29_009": null }, "geometry": { "type": "Point", "coordinates": [ 136.980147374654848, 37.044927342793194 ] } },
{ "type": "Feature", "properties": { "P29_001": "17202", "P29_002": "A217320200061", "P29_003": "16013", "P29_004": "小丸山認定こども園", "P29_005": "石川県七尾市小島町イ58-1", "P29_006": "4", "P29_007": "0", "P29_008": "00", "P29_009": null }, "geometry": { "type": "Point", "coordinates": [ 136.957529806039133, 37.045060458440766 ] } },
{ "type": "Feature", "properties": { "P29_001": "17202", "P29_002": "A217320200070", "P29_003": "16013", "P29_004": "幼保連携型認定こども園本宮のもり幼保園", "P29_005": "石川県七尾市本府中町リ部23-1", "P29_006": "4", "P29_007": "0", "P29_008": "00", "P29_009": null }, "geometry": { "type": "Point", "coordinates": [ 136.963791999630416, 37.037333996951219 ] } },
{ "type": "Feature", "properties": { "P29_001": "17202", "P29_002": "A217320200089", "P29_003": "16013", "P29_004": "ななおあいじこども園", "P29_005": "石川県七尾市天神川原町ロ部32-1", "P29_006": "4", "P29_007": "0", "P29_008": "00", "P29_009": null }, "geometry": { "type": "Point", "coordinates": [ 136.972787559537011, 37.031545333806562 ] } },
{ "type": "Feature", "properties": { "P29_001": "17202", "P29_002": "A217320200098", "P29_003": "16013", "P29_004": "浜岡幼保園", "P29_005": "石川県七尾市石崎町ヨ部37", "P29_006": "4", "P29_007": "0", "P29_008": "00", "P29_009": null }, "geometry": { "type": "Point", "coordinates": [ 136.925439127828724, 37.077269754404853 ] } },
{ "type": "Feature", "properties": { "P29_001": "17202", "P29_002": "A217320200105", "P29_003": "16013", "P29_004": "幼保連携型認定こども園袖ケ江みなとこども園", "P29_005": "石川県七尾市郡町弐部113-1", "P29_006": "4", "P29_007": "0", "P29_008": "00", "P29_009": null }, "geometry": { "type": "Point", "coordinates": [ 136.972920456660717, 37.046317013110482 ] } },
{ "type": "Feature", "properties": { "P29_001": "17202", "P29_002": "A217320200114", "P29_003": "16013", "P29_004": "幼保連携型田鶴浜こども園", "P29_005": "石川県七尾市高田町マ部80", "P29_006": "4", "P29_007": "0", "P29_008": "00", "P29_009": null }, "geometry": { "type": "Point", "coordinates": [ 136.892316015620708, 37.058190092200142 ] } },
{ "type": "Feature", "properties": { "P29_001": "17202", "P29_002": "A217320200123", "P29_003": "16013", "P29_004": "幼保連携型和倉こども園", "P29_005": "石川県七尾市和倉町3部24", "P29_006": "4", "P29_007": "0", "P29_008": "00", "P29_009": null }, "geometry": { "type": "Point", "coordinates": [ 136.91762111101616, 37.086127466977921 ] } },
{ "type": "Feature", "properties": { "P29_001": "17202", "P29_002": "A217320200132", "P29_003": "16013", "P29_004": "のとじま幼保園", "P29_005": "石川県七尾市能登島町佐波町15部5", "P29_006": "4", "P29_007": "0", "P29_008": "00", "P29_009": null }, "geometry": { "type": "Point", "coordinates": [ 136.998782235537618, 37.120449231526685 ] } },
{ "type": "Feature", "properties": { "P29_001": "17202", "P29_002": "A217320200141", "P29_003": "16013", "P29_004": "あさひこども園", "P29_005": "石川県七尾市飯川町101部71-7", "P29_006": "4", "P29_007": "0", "P29_008": "00", "P29_009": null }, "geometry": { "type": "Point", "coordinates": [ 136.933926808498029, 37.009296465151699 ] } },
{ "type": "Feature", "properties": { "P29_001": "17202", "P29_002": "A217320200150", "P29_003": "16013", "P29_004": "西湊こども園", "P29_005": "石川県七尾市小島町ヌ部49-3", "P29_006": "4", "P29_007": "0", "P29_008": "00", "P29_009": null }, "geometry": { "type": "Point", "coordinates": [ 136.955080528792081, 37.05318685786677 ] } },
{ "type": "Feature", "properties": { "P29_001": "17202", "P29_002": "A217320200169", "P29_003": "16013", "P29_004": "やまとこども園", "P29_005": "石川県七尾市矢田町3-43-1", "P29_006": "4", "P29_007": "0", "P29_008": "00", "P29_009": null }, "geometry": { "type": "Point", "coordinates": [ 136.976667393883844, 37.040776899475205 ] } },
{ "type": "Feature", "properties": { "P29_001": "17203", "P29_002": "A217320300015", "P29_003": "16013", "P29_004": "幼保連携型認定こども園今江こども園", "P29_005": "石川県小松市今江町6-136", "P29_006": "4", "P29_007": "0", "P29_008": "00", "P29_009": null }, "geometry": { "type": "Point", "coordinates": [ 136.436774006055117, 36.380863685358413 ] } },
{ "type": "Feature", "properties": { "P29_001": "17203", "P29_002": "A217320300024", "P29_003": "16013", "P29_004": "幼保連携型認定こども園木場こども園", "P29_005": "石川県小松市木場町ハ46", "P29_006": "4", "P29_007": "0", "P29_008": "00", "P29_009": null }, "geometry": { "type": "Point", "coordinates": [ 136.448477792637647, 36.358207920819417 ] } },
{ "type": "Feature", "properties": { "P29_001": "17203", "P29_002": "A217320300033", "P29_003": "16013", "P29_004": "幼保連携型認定こども園のしろこども園", "P29_005": "石川県小松市北浅井町1-25", "P29_006": "4", "P29_007": "0", "P29_008": "00", "P29_009": null }, "geometry": { "type": "Point", "coordinates": [ 136.463395952676194, 36.388700961224785 ] } },
{ "type": "Feature", "properties": { "P29_001": "17203", "P29_002": "A217320300042", "P29_003": "16013", "P29_004": "幼保連携型認定こども園よしたけこども園", "P29_005": "石川県小松市吉竹町ぬ47", "P29_006": "4", "P29_007": "0", "P29_008": "00", "P29_009": null }, "geometry": { "type": "Point", "coordinates": [ 136.480867124588571, 36.387177816490478 ] } },
{ "type": "Feature", "properties": { "P29_001": "17203", "P29_002": "A217320300051", "P29_003": "16013", "P29_004": "幼保連携型認定こども園すえさみこども園", "P29_005": "石川県小松市日末町二111-3", "P29_006": "4", "P29_007": "0", "P29_008": "00", "P29_009": null }, "geometry": { "type": "Point", "coordinates": [ 136.40101659924656, 36.38089494690248 ] } },
{ "type": "Feature", "properties": { "P29_001": "17203", "P29_002": "A217320300060", "P29_003": "16013", "P29_004": "幼保連携型認定こども園矢田野こども園", "P29_005": "石川県小松市下粟津町サ1", "P29_006": "4", "P29_007": "0", "P29_008": "00", "P29_009": null }, "geometry": { "type": "Point", "coordinates": [ 136.428355945215429, 36.340249673465387 ] } },
{ "type": "Feature", "properties": { "P29_001": "17203", "P29_002": "A217320300079", "P29_003": "16013", "P29_004": "幼保連携型認定こども園ひかりっこ", "P29_005": "石川県小松市川辺町1-61", "P29_006": "4", "P29_007": "0", "P29_008": "00", "P29_009": null }, "geometry": { "type": "Point", "coordinates": [ 136.472140845428044, 36.413935411220365 ] } },
{ "type": "Feature", "properties": { "P29_001": "17203", "P29_002": "A217320300088", "P29_003": "16013", "P29_004": "幼保連携型認定こども園こばと第２こども園", "P29_005": "石川県小松市上小松町乙45", "P29_006": "4", "P29_007": "0", "P29_008": "00", "P29_009": null }, "geometry": { "type": "Point", "coordinates": [ 136.462990437602485, 36.411255487373417 ] } },
{ "type": "Feature", "properties": { "P29_001": "17203", "P29_002": "A217320300097", "P29_003": "16013", "P29_004": "幼保連携型認定こども園舟見ヶ丘保幼園", "P29_005": "石川県小松市河田町甲52-1", "P29_006": "4", "P29_007": "0", "P29_008": "00", "P29_009": null }, "geometry": { "type": "Point", "coordinates": [ 136.50764648205589, 36.410907407076891 ] } },
{ "type": "Feature", "properties": { "P29_001": "17203", "P29_002": "A217320300104", "P29_003": "16013", "P29_004": "幼保連携型認定こども園せんだいこども園", "P29_005": "石川県小松市千代町甲8-1", "P29_006": "4", "P29_007": "0", "P29_008": "00", "P29_009": null }, "geometry": { "type": "Point", "coordinates": [ 136.492158913515226, 36.410830441344693 ] } },
{ "type": "Feature", "properties": { "P29_001": "17203", "P29_002": "A217320300113", "P29_003": "16013", "P29_004": "幼保連携型認定こども園月津こども園", "P29_005": "石川県小松市月津町め57", "P29_006": "4", "P29_007": "0", "P29_008": "00", "P29_009": null }, "geometry": { "type": "Point", "coordinates": [ 136.404950704247881, 36.354367224826802 ] } },
{ "type": "Feature", "properties": { "P29_001": "17203", "P29_002": "A217320300122", "P29_003": "16013", "P29_004": "幼保連携型認定こども園大和こども園", "P29_005": "石川県小松市大和町102", "P29_006": "4", "P29_007": "0", "P29_008": "00", "P29_009": null }, "geometry": { "type": "Point", "coordinates": [ 136.450307951249357, 36.396918101195489 ] } },
{ "type": "Feature", "properties": { "P29_001": "17203", "P29_002": "A217320300131", "P29_003": "16013", "P29_004": "幼保連携型認定こども園松陽こども園", "P29_005": "石川県小松市大領中町1-171", "P29_006": "4", "P29_007": "0", "P29_008": "00", "P29_009": null }, "geometry": { "type": "Point", "coordinates": [ 136.446377006090557, 36.39003500157736 ] } },
{ "type": "Feature", "properties": { "P29_001": "17203", "P29_002": "A217320300140", "P29_003": "16013", "P29_004": "認定こども園河田保育園", "P29_005": "石川県小松市河田町子101", "P29_006": "4", "P29_007": "0", "P29_008": "00", "P29_009": null }, "geometry": { "type": "Point", "coordinates": [ 136.510979968392888, 36.416217310714131 ] } },
{ "type": "Feature", "properties": { "P29_001": "17203", "P29_002": "A217320300159", "P29_003": "16013", "P29_004": "幼保連携型認定こども園あおば保育園", "P29_005": "石川県小松市沖町484", "P29_006": "4", "P29_007": "0", "P29_008": "00", "P29_009": null }, "geometry": { "type": "Point", "coordinates": [ 136.464080990538122, 36.396774942598405 ] } },
{ "type": "Feature", "properties": { "P29_001": "17203", "P29_002": "A217320300168", "P29_003": "16013", "P29_004": "あたか認定こども園", "P29_005": "石川県小松市安宅町ヨ132", "P29_006": "4", "P29_007": "0", "P29_008": "00", "P29_009": null }, "geometry": { "type": "Point", "coordinates": [ 136.424685827132322, 36.420042830170722 ] } },
{ "type": "Feature", "properties": { "P29_001": "17203", "P29_002": "A217320300177", "P29_003": "16013", "P29_004": "幼保連携型認定こども園粟津温泉こども園", "P29_005": "石川県小松市井口町チ49-1", "P29_006": "4", "P29_007": "0", "P29_008": "00", "P29_009": null }, "geometry": { "type": "Point", "coordinates": [ 136.449043251663795, 36.334736285337925 ] } },
{ "type": "Feature", "properties": { "P29_001": "17203", "P29_002": "A217320300186", "P29_003": "16013", "P29_004": "粟津こども園", "P29_005": "石川県小松市符津町ワ18", "P29_006": "4", "P29_007": "0", "P29_008": "00", "P29_009": null }, "geometry": { "type": "Point", "coordinates": [ 136.430878352346269, 36.356932382888687 ] } },
{ "type": "Feature", "properties": { "P29_001": "17203", "P29_002": "A217320300195", "P29_003": "16013", "P29_004": "幼保連携型認定こども園あらやこども園", "P29_005": "石川県小松市荒屋町丁20-1", "P29_006": "4", "P29_007": "0", "P29_008": "00", "P29_009": null }, "geometry": { "type": "Point", "coordinates": [ 136.475095447662738, 36.432756024378769 ] } },
{ "type": "Feature", "properties": { "P29_001": "17203", "P29_002": "A217320300202", "P29_003": "16013", "P29_004": "わかばにしかるみこども園", "P29_005": "石川県小松市西軽海町1-43", "P29_006": "4", "P29_007": "0", "P29_008": "00", "P29_009": null }, "geometry": { "type": "Point", "coordinates": [ 136.501901494928092, 36.397852347624756 ] } },
{ "type": "Feature", "properties": { "P29_001": "17203", "P29_002": "A217320300211", "P29_003": "16013", "P29_004": "幼保連携型認定こども園蓮代寺こども園", "P29_005": "石川県小松市蓮代寺町ハ丙100", "P29_006": "4", "P29_007": "0", "P29_008": "00", "P29_009": null }, "geometry": { "type": "Point", "coordinates": [ 136.470728995190001, 36.375396997163698 ] } },
{ "type": "Feature", "properties": { "P29_001": "17203", "P29_002": "A217320300220", "P29_003": "16013", "P29_004": "幼保連携型認定こども園中海こども園", "P29_005": "石川県小松市軽海町ノ16-4", "P29_006": "4", "P29_007": "0", "P29_008": "00", "P29_009": null }, "geometry": { "type": "Point", "coordinates": [ 136.51435522108801, 36.39641469720938 ] } },
{ "type": "Feature", "properties": { "P29_001": "17203", "P29_002": "A217320300239", "P29_003": "16013", "P29_004": "幼保連携型認定こども園ちこう", "P29_005": "石川県小松市細工町30", "P29_006": "4", "P29_007": "0", "P29_008": "00", "P29_009": null }, "geometry": { "type": "Point", "coordinates": [ 136.451707796915542, 36.406708572777859 ] } },
{ "type": "Feature", "properties": { "P29_001": "17203", "P29_002": "A217320300257", "P29_003": "16013", "P29_004": "幼保連携型認定こども園犬丸こども園", "P29_005": "石川県小松市蛭川町甲476-1", "P29_006": "4", "P29_007": "0", "P29_008": "00", "P29_009": null }, "geometry": { "type": "Point", "coordinates": [ 136.459664931619614, 36.42841024008689 ] } },
{ "type": "Feature", "properties": { "P29_001": "17204", "P29_002": "A217320400014", "P29_003": "16013", "P29_004": "和光幼稚園・あいこう園", "P29_005": "石川県輪島市河井町23部16-1", "P29_006": "4", "P29_007": "0", "P29_008": "00", "P29_009": null }, "geometry": { "type": "Point", "coordinates": [ 136.901655517770678, 37.392443092481756 ] } },
{ "type": "Feature", "properties": { "P29_001": "17204", "P29_002": "A217320400023", "P29_003": "16013", "P29_004": "認定こども園海の星幼稚園", "P29_005": "石川県輪島市河井町13部29-4", "P29_006": "4", "P29_007": "0", "P29_008": "00", "P29_009": null }, "geometry": { "type": "Point", "coordinates": [ 136.909693885268808, 37.390205038573143 ] } },
{ "type": "Feature", "properties": { "P29_001": "17206", "P29_002": "A217320600012", "P29_003": "16013", "P29_004": "キッズランドいなみえん", "P29_005": "石川県加賀市片山津温泉井6", "P29_006": "4", "P29_007": "0", "P29_008": "00", "P29_009": null }, "geometry": { "type": "Point", "coordinates": [ 136.367790109390342, 36.34171678640206 ] } },
{ "type": "Feature", "properties": { "P29_001": "17206", "P29_002": "A217320600021", "P29_003": "16013", "P29_004": "幼保連携型認定こども園清心こども園", "P29_005": "石川県加賀市打越町ホ24-1", "P29_006": "4", "P29_007": "0", "P29_008": "00", "P29_009": null }, "geometry": { "type": "Point", "coordinates": [ 136.401489543720857, 36.329229794955047 ] } },
{ "type": "Feature", "properties": { "P29_001": "17206", "P29_002": "A217320600030", "P29_003": "16013", "P29_004": "わかたけこども園", "P29_005": "石川県加賀市別所町漆器団地10-7", "P29_006": "4", "P29_007": "0", "P29_008": "00", "P29_009": null }, "geometry": { "type": "Point", "coordinates": [ 136.359022999274032, 36.276549996008093 ] } },
{ "type": "Feature", "properties": { "P29_001": "17206", "P29_002": "A217320600049", "P29_003": "16013", "P29_004": "松が丘こども園", "P29_005": "石川県加賀市山田町ヱ1-22", "P29_006": "4", "P29_007": "0", "P29_008": "00", "P29_009": null }, "geometry": { "type": "Point", "coordinates": [ 136.342961032724276, 36.32615274086136 ] } },
{ "type": "Feature", "properties": { "P29_001": "17206", "P29_002": "A217320600058", "P29_003": "16013", "P29_004": "幼保連携型認定こども園たちばなこども園", "P29_005": "石川県加賀市熊坂町ハ31", "P29_006": "4", "P29_007": "0", "P29_008": "00", "P29_009": null }, "geometry": { "type": "Point", "coordinates": [ 136.310268229436218, 36.301005910003695 ] } },
{ "type": "Feature", "properties": { "P29_001": "17207", "P29_002": "A217320700011", "P29_003": "16013", "P29_004": "羽咋幼稚園", "P29_005": "石川県羽咋市川原町エ161", "P29_006": "4", "P29_007": "0", "P29_008": "00", "P29_009": null }, "geometry": { "type": "Point", "coordinates": [ 136.781051022680373, 36.897730383853876 ] } },
{ "type": "Feature", "properties": { "P29_001": "17207", "P29_002": "A217320700020", "P29_003": "16013", "P29_004": "羽咋白百合幼稚園", "P29_005": "石川県羽咋市松ケ下町松ケ下28-1", "P29_006": "4", "P29_007": "0", "P29_008": "00", "P29_009": null }, "geometry": { "type": "Point", "coordinates": [ 136.784574399118213, 36.89225781800895 ] } },
{ "type": "Feature", "properties": { "P29_001": "17207", "P29_002": "A217320700217", "P29_003": "16013", "P29_004": "千里浜保育園", "P29_005": "石川県羽咋市千里浜町ロ39-1", "P29_006": "4", "P29_007": "0", "P29_008": "00", "P29_009": null }, "geometry": { "type": "Point", "coordinates": [ 136.772897741385236, 36.894417544995257 ] } },
{ "type": "Feature", "properties": { "P29_001": "17209", "P29_002": "A217320900019", "P29_003": "16013", "P29_004": "木津幼稚園", "P29_005": "石川県かほく市木津ニ132-甲地", "P29_006": "4", "P29_007": "0", "P29_008": "00", "P29_009": null }, "geometry": { "type": "Point", "coordinates": [ 136.705811904898013, 36.747853814836127 ] } },
{ "type": "Feature", "properties": { "P29_001": "17209", "P29_002": "A217320900028", "P29_003": "16013", "P29_004": "公私連携幼保連携型認定こども園学園台こども園", "P29_005": "石川県かほく市学園台5-18", "P29_006": "4", "P29_007": "0", "P29_008": "00", "P29_009": null }, "geometry": { "type": "Point", "coordinates": [ 136.729856913511185, 36.780542227730393 ] } },
{ "type": "Feature", "properties": { "P29_001": "17209", "P29_002": "A217320900037", "P29_003": "16013", "P29_004": "認定こども園うのけ幼稚園", "P29_005": "石川県かほく市宇野気ニ15", "P29_006": "4", "P29_007": "0", "P29_008": "00", "P29_009": null }, "geometry": { "type": "Point", "coordinates": [ 136.705014040928404, 36.718134377361537 ] } },
{ "type": "Feature", "properties": { "P29_001": "17209", "P29_002": "A217320900046", "P29_003": "16013", "P29_004": "にじの丘こども園", "P29_005": "石川県かほく市秋浜イ42-1", "P29_006": "4", "P29_007": "0", "P29_008": "00", "P29_009": null }, "geometry": { "type": "Point", "coordinates": [ 136.701174588894077, 36.729582055089153 ] } },
{ "type": "Feature", "properties": { "P29_001": "17210", "P29_002": "A217321000016", "P29_003": "16013", "P29_004": "いしかわこども園", "P29_005": "石川県白山市源兵島町288", "P29_006": "4", "P29_007": "0", "P29_008": "00", "P29_009": null }, "geometry": { "type": "Point", "coordinates": [ 136.528993449433273, 36.484112887142487 ] } },
{ "type": "Feature", "properties": { "P29_001": "17210", "P29_002": "A217321000025", "P29_003": "16013", "P29_004": "幼保連携型認定こども園林中こども園", "P29_005": "石川県白山市剣崎町881-3", "P29_006": "4", "P29_007": "0", "P29_008": "00", "P29_009": null }, "geometry": { "type": "Point", "coordinates": [ 136.568177179133755, 36.499779829962506 ] } },
{ "type": "Feature", "properties": { "P29_001": "17210", "P29_002": "A217321000034", "P29_003": "16013", "P29_004": "あさひこども園", "P29_005": "石川県白山市旭丘2-33", "P29_006": "4", "P29_007": "0", "P29_008": "00", "P29_009": null }, "geometry": { "type": "Point", "coordinates": [ 136.568133095457966, 36.550697423824744 ] } },
{ "type": "Feature", "properties": { "P29_001": "17210", "P29_002": "A217321000043", "P29_003": "16013", "P29_004": "蝶屋こども園", "P29_005": "石川県白山市井関町116-2", "P29_006": "4", "P29_007": "0", "P29_008": "00", "P29_009": null }, "geometry": { "type": "Point", "coordinates": [ 136.500978954885738, 36.492014481519412 ] } },
{ "type": "Feature", "properties": { "P29_001": "17210", "P29_002": "A217321000052", "P29_003": "16013", "P29_004": "あかねこども園", "P29_005": "石川県白山市村井町2622-1", "P29_006": "4", "P29_007": "0", "P29_008": "00", "P29_009": null }, "geometry": { "type": "Point", "coordinates": [ 136.558952062122188, 36.512325791032552 ] } },
{ "type": "Feature", "properties": { "P29_001": "17210", "P29_002": "A217321000061", "P29_003": "16013", "P29_004": "幼保連携型認定こども園はくさんひかり園", "P29_005": "石川県白山市五歩市町60", "P29_006": "4", "P29_007": "0", "P29_008": "00", "P29_009": null }, "geometry": { "type": "Point", "coordinates": [ 136.573640273217791, 36.532015897690371 ] } },
{ "type": "Feature", "properties": { "P29_001": "17210", "P29_002": "A217321000070", "P29_003": "16013", "P29_004": "幼保連携型認定こども園みかわこども園", "P29_005": "石川県白山市美川和波町北68", "P29_006": "4", "P29_007": "0", "P29_008": "00", "P29_009": null }, "geometry": { "type": "Point", "coordinates": [ 136.484887848216289, 36.491399203468525 ] } },
{ "type": "Feature", "properties": { "P29_001": "17210", "P29_002": "A217321000089", "P29_003": "16013", "P29_004": "あゆみこども園", "P29_005": "石川県白山市笠間町1125", "P29_006": "4", "P29_007": "0", "P29_008": "00", "P29_009": null }, "geometry": { "type": "Point", "coordinates": [ 136.529058996431615, 36.506986997604137 ] } },
{ "type": "Feature", "properties": { "P29_001": "17210", "P29_002": "A217321000098", "P29_003": "16013", "P29_004": "幼保連携型認定こども園かわちこども園", "P29_005": "石川県白山市河内町福岡88", "P29_006": "4", "P29_007": "0", "P29_008": "00", "P29_009": null }, "geometry": { "type": "Point", "coordinates": [ 136.621360575921642, 36.398594071863812 ] } },
{ "type": "Feature", "properties": { "P29_001": "17210", "P29_002": "A217321000105", "P29_003": "16013", "P29_004": "あいのきこども園", "P29_005": "石川県白山市相木町797", "P29_006": "4", "P29_007": "0", "P29_008": "00", "P29_009": null }, "geometry": { "type": "Point", "coordinates": [ 136.565323549439881, 36.533455688660972 ] } },
{ "type": "Feature", "properties": { "P29_001": "17210", "P29_002": "A217321000114", "P29_003": "16013", "P29_004": "認定こども園恵愛", "P29_005": "石川県白山市村井町2", "P29_006": "4", "P29_007": "0", "P29_008": "00", "P29_009": null }, "geometry": { "type": "Point", "coordinates": [ 136.558533724486551, 36.519729495511754 ] } },
{ "type": "Feature", "properties": { "P29_001": "17210", "P29_002": "A217321000123", "P29_003": "16013", "P29_004": "ぶじょうこども園", "P29_005": "石川県白山市北安田町396-1", "P29_006": "4", "P29_007": "0", "P29_008": "00", "P29_009": null }, "geometry": { "type": "Point", "coordinates": [ 136.5528092055836, 36.52917281745318 ] } },
{ "type": "Feature", "properties": { "P29_001": "17210", "P29_002": "A217321000132", "P29_003": "16013", "P29_004": "山島こども園", "P29_005": "石川県白山市安吉町116-1", "P29_006": "4", "P29_007": "0", "P29_008": "00", "P29_009": null }, "geometry": { "type": "Point", "coordinates": [ 136.565832560680008, 36.48367883714841 ] } },
{ "type": "Feature", "properties": { "P29_001": "17210", "P29_002": "A217321000141", "P29_003": "16013", "P29_004": "西柏こども園", "P29_005": "石川県白山市西柏町8-1", "P29_006": "4", "P29_007": "0", "P29_008": "00", "P29_009": null }, "geometry": { "type": "Point", "coordinates": [ 136.532375463935182, 36.503932578400054 ] } },
{ "type": "Feature", "properties": { "P29_001": "17210", "P29_002": "A217321000150", "P29_003": "16013", "P29_004": "ふじこども園", "P29_005": "石川県白山市森島町い16-1", "P29_006": "4", "P29_007": "0", "P29_008": "00", "P29_009": null }, "geometry": { "type": "Point", "coordinates": [ 136.598421638237198, 36.471577729160039 ] } },
{ "type": "Feature", "properties": { "P29_001": "17210", "P29_002": "A217321000169", "P29_003": "16013", "P29_004": "あいわこども園", "P29_005": "石川県白山市知気寺町ぬ129-6", "P29_006": "4", "P29_007": "0", "P29_008": "00", "P29_009": null }, "geometry": { "type": "Point", "coordinates": [ 136.604720692136254, 36.488922801143936 ] } },
{ "type": "Feature", "properties": { "P29_001": "17210", "P29_002": "A217321000178", "P29_003": "16013", "P29_004": "つるぎこども園", "P29_005": "石川県白山市鶴来本町3-ル18-2", "P29_006": "4", "P29_007": "0", "P29_008": "00", "P29_009": null }, "geometry": { "type": "Point", "coordinates": [ 136.626712203020816, 36.451152859163436 ] } },
{ "type": "Feature", "properties": { "P29_001": "17210", "P29_002": "A217321000187", "P29_003": "16013", "P29_004": "郷こども園", "P29_005": "石川県白山市田中町182", "P29_006": "4", "P29_007": "0", "P29_008": "00", "P29_009": null }, "geometry": { "type": "Point", "coordinates": [ 136.588541995169265, 36.530675001466292 ] } },
{ "type": "Feature", "properties": { "P29_001": "17210", "P29_002": "A217321000196", "P29_003": "16013", "P29_004": "こども園わかば", "P29_005": "石川県白山市長竹町299-1", "P29_006": "4", "P29_007": "0", "P29_008": "00", "P29_009": null }, "geometry": { "type": "Point", "coordinates": [ 136.58519499900035, 36.52003600258648 ] } },
{ "type": "Feature", "properties": { "P29_001": "17211", "P29_002": "A217321100015", "P29_003": "16013", "P29_004": "福島こども園", "P29_005": "石川県能美市福島町へ61", "P29_006": "4", "P29_007": "0", "P29_008": "00", "P29_009": null }, "geometry": { "type": "Point", "coordinates": [ 136.4689049074384, 36.457836001469261 ] } },
{ "type": "Feature", "properties": { "P29_001": "17212", "P29_002": "A217321200014", "P29_003": "16013", "P29_004": "幼保連携型認定こども園和光", "P29_005": "石川県野々市市扇が丘15-5", "P29_006": "4", "P29_007": "0", "P29_008": "00", "P29_009": null }, "geometry": { "type": "Point", "coordinates": [ 136.622576355104741, 36.527891033353313 ] } },
{ "type": "Feature", "properties": { "P29_001": "17212", "P29_002": "A217321200023", "P29_003": "16013", "P29_004": "認定こども園ほのみこども園", "P29_005": "石川県野々市市新庄3-145", "P29_006": "4", "P29_007": "0", "P29_008": "00", "P29_009": null }, "geometry": { "type": "Point", "coordinates": [ 136.610743047718245, 36.505406527799408 ] } },
{ "type": "Feature", "properties": { "P29_001": "17212", "P29_002": "A217321200032", "P29_003": "16013", "P29_004": "アリスこども園", "P29_005": "石川県野々市市二日市町5-332", "P29_006": "4", "P29_007": "0", "P29_008": "00", "P29_009": null }, "geometry": { "type": "Point", "coordinates": [ 136.593739529951762, 36.537315937669952 ] } },
{ "type": "Feature", "properties": { "P29_001": "17212", "P29_002": "A217321200041", "P29_003": "16013", "P29_004": "幼保連携型認定こども園エンジェル保育園", "P29_005": "石川県野々市市本町6-22-1", "P29_006": "4", "P29_007": "0", "P29_008": "00", "P29_009": null }, "geometry": { "type": "Point", "coordinates": [ 136.607541160035424, 36.533419811864057 ] } },
{ "type": "Feature", "properties": { "P29_001": "17212", "P29_002": "A217321200050", "P29_003": "16013", "P29_004": "幼保連携型認定こども園あわだこども園", "P29_005": "石川県野々市市粟田5-330", "P29_006": "4", "P29_007": "0", "P29_008": "00", "P29_009": null }, "geometry": { "type": "Point", "coordinates": [ 136.610005858077955, 36.513072618081878 ] } },
{ "type": "Feature", "properties": { "P29_001": "17212", "P29_002": "A217321200069", "P29_003": "16013", "P29_004": "幼保連携型認定こども園美郷保育園", "P29_005": "石川県野々市市郷1-102", "P29_006": "4", "P29_007": "0", "P29_008": "00", "P29_009": null }, "geometry": { "type": "Point", "coordinates": [ 136.588109133518515, 36.534076830679197 ] } },
{ "type": "Feature", "properties": { "P29_001": "17212", "P29_002": "A217321200078", "P29_003": "16013", "P29_004": "ほりうちこども園", "P29_005": "石川県野々市市堀内4-160", "P29_006": "4", "P29_007": "0", "P29_008": "00", "P29_009": null }, "geometry": { "type": "Point", "coordinates": [ 136.603036147033407, 36.530461635189667 ] } },
{ "type": "Feature", "properties": { "P29_001": "17212", "P29_002": "A217321200087", "P29_003": "16013", "P29_004": "つばきこども園", "P29_005": "石川県野々市市太平寺1-302", "P29_006": "4", "P29_007": "0", "P29_008": "00", "P29_009": null }, "geometry": { "type": "Point", "coordinates": [ 136.606687857304735, 36.527386633244816 ] } },
{ "type": "Feature", "properties": { "P29_001": "17212", "P29_002": "A217321200096", "P29_003": "16013", "P29_004": "幼保連携型認定こども園はくさん保育園", "P29_005": "石川県野々市市白山町4-2", "P29_006": "4", "P29_007": "0", "P29_008": "00", "P29_009": null }, "geometry": { "type": "Point", "coordinates": [ 136.613889083644352, 36.526283674737392 ] } },
{ "type": "Feature", "properties": { "P29_001": "17212", "P29_002": "A217321200103", "P29_003": "16013", "P29_004": "ヴィテンＳＭＣこども園", "P29_005": "石川県野々市市横宮町67-9", "P29_006": "4", "P29_007": "0", "P29_008": "00", "P29_009": null }, "geometry": { "type": "Point", "coordinates": [ 136.616555755200295, 36.535064483028862 ] } },
{ "type": "Feature", "properties": { "P29_001": "17212", "P29_002": "A217321200112", "P29_003": "16013", "P29_004": "なごみこども園", "P29_005": "石川県野々市市押野1-352", "P29_006": "4", "P29_007": "0", "P29_008": "00", "P29_009": null }, "geometry": { "type": "Point", "coordinates": [ 136.617732655242634, 36.543824581692839 ] } },
{ "type": "Feature", "properties": { "P29_001": "17212", "P29_002": "A217321201139", "P29_003": "16013", "P29_004": "認定こども園青竜第二幼稚園", "P29_005": "石川県野々市市上林3-167", "P29_006": "4", "P29_007": "0", "P29_008": "00", "P29_009": null }, "geometry": { "type": "Point", "coordinates": [ 136.602792319509746, 36.501279490936483 ] } },
{ "type": "Feature", "properties": { "P29_001": "17361", "P29_002": "A217336100013", "P29_003": "16013", "P29_004": "幼保連携型認定こども園住吉こども園", "P29_005": "石川県河北郡津幡町庄口142", "P29_006": "4", "P29_007": "0", "P29_008": "00", "P29_009": null }, "geometry": { "type": "Point", "coordinates": [ 136.727386632826494, 36.673902810222387 ] } },
{ "type": "Feature", "properties": { "P29_001": "17361", "P29_002": "A217336100022", "P29_003": "16013", "P29_004": "幼保連携型認定こども園ちいろばこども園", "P29_005": "石川県河北郡津幡町南中条3-62", "P29_006": "4", "P29_007": "0", "P29_008": "00", "P29_009": null }, "geometry": { "type": "Point", "coordinates": [ 136.719972109889767, 36.658582896023155 ] } },
{ "type": "Feature", "properties": { "P29_001": "17361", "P29_002": "A217336100031", "P29_003": "16013", "P29_004": "認定こども園実生こども園", "P29_005": "石川県河北郡津幡町津幡ロ5-1", "P29_006": "4", "P29_007": "0", "P29_008": "00", "P29_009": null }, "geometry": { "type": "Point", "coordinates": [ 136.735401986580058, 36.670810962611533 ] } },
{ "type": "Feature", "properties": { "P29_001": "17361", "P29_002": "A217336100040", "P29_003": "16013", "P29_004": "認定こども園さくらこども園", "P29_005": "石川県河北郡津幡町潟端709", "P29_006": "4", "P29_007": "0", "P29_008": "00", "P29_009": null }, "geometry": { "type": "Point", "coordinates": [ 136.712936409026355, 36.648912446243514 ] } },
{ "type": "Feature", "properties": { "P29_001": "17361", "P29_002": "A217336100059", "P29_003": "16013", "P29_004": "しいのきこども園", "P29_005": "石川県河北郡津幡町字太田は157", "P29_006": "4", "P29_007": "0", "P29_008": "00", "P29_009": null }, "geometry": { "type": "Point", "coordinates": [ 136.71992769337453, 36.655810244821815 ] } },
{ "type": "Feature", "properties": { "P29_001": "17365", "P29_002": "A217336500019", "P29_003": "16013", "P29_004": "千鳥台幼稚舎", "P29_005": "石川県河北郡内灘町字千鳥台4-143", "P29_006": "4", "P29_007": "0", "P29_008": "00", "P29_009": null }, "geometry": { "type": "Point", "coordinates": [ 136.626010913981077, 36.639247007578838 ] } },
{ "type": "Feature", "properties": { "P29_001": "17365", "P29_002": "A217336500028", "P29_003": "16013", "P29_004": "向陽台保育園", "P29_005": "石川県河北郡内灘町字向陽台1-145-1", "P29_006": "4", "P29_007": "0", "P29_008": "00", "P29_009": null }, "geometry": { "type": "Point", "coordinates": [ 136.634003577005132, 36.637879977468828 ] } },
{ "type": "Feature", "properties": { "P29_001": "17365", "P29_002": "A217336500037", "P29_003": "16013", "P29_004": "白帆台保育園", "P29_005": "石川県河北郡内灘町白帆台2-130", "P29_006": "4", "P29_007": "0", "P29_008": "00", "P29_009": null }, "geometry": { "type": "Point", "coordinates": [ 136.657637551974062, 36.672688737425474 ] } },
{ "type": "Feature", "properties": { "P29_001": "17365", "P29_002": "A217336500046", "P29_003": "16013", "P29_004": "誠美幼稚園", "P29_005": "石川県河北郡内灘町字鶴ケ丘1-52", "P29_006": "4", "P29_007": "0", "P29_008": "00", "P29_009": null }, "geometry": { "type": "Point", "coordinates": [ 136.639794993986527, 36.638877999173289 ] } },
{ "type": "Feature", "properties": { "P29_001": "17365", "P29_002": "A217336500055", "P29_003": "16013", "P29_004": "内灘はまなすこども園", "P29_005": "石川県河北郡内灘町字ハマナス2-18", "P29_006": "4", "P29_007": "0", "P29_008": "00", "P29_009": null }, "geometry": { "type": "Point", "coordinates": [ 136.64334457691038, 36.655063442204451 ] } },
{ "type": "Feature", "properties": { "P29_001": "17365", "P29_002": "A217336500564", "P29_003": "16013", "P29_004": "大根布保育園", "P29_005": "石川県河北郡内灘町字大根布7-7", "P29_006": "4", "P29_007": "0", "P29_008": "00", "P29_009": null }, "geometry": { "type": "Point", "coordinates": [ 136.647344804257813, 36.650627431504425 ] } },
{ "type": "Feature", "properties": { "P29_001": "17384", "P29_002": "A217338400016", "P29_003": "16013", "P29_004": "すばる幼稚園", "P29_005": "石川県羽咋郡志賀町末吉旧水1", "P29_006": "4", "P29_007": "0", "P29_008": "00", "P29_009": null }, "geometry": { "type": "Point", "coordinates": [ 136.782078429190165, 37.003301260136517 ] } },
{ "type": "Feature", "properties": { "P29_001": "17407", "P29_002": "A217340700019", "P29_003": "16013", "P29_004": "とりやのの子ども園", "P29_005": "石川県鹿島郡中能登町春木11部38", "P29_006": "4", "P29_007": "0", "P29_008": "00", "P29_009": null }, "geometry": { "type": "Point", "coordinates": [ 136.901650101650631, 36.994875401798382 ] } },
{ "type": "Feature", "properties": { "P29_001": "17461", "P29_002": "A217346100012", "P29_003": "16013", "P29_004": "平和こども園", "P29_005": "石川県鳳珠郡穴水町字川島タの2", "P29_006": "4", "P29_007": "0", "P29_008": "00", "P29_009": null }, "geometry": { "type": "Point", "coordinates": [ 136.908674865619929, 37.234345303662288 ] } },
{ "type": "Feature", "properties": { "P29_001": "17463", "P29_002": "A217346300010", "P29_003": "16013", "P29_004": "幼保連携型認定こども園小木こども園", "P29_005": "石川県鳳珠郡能登町字小木4字59", "P29_006": "4", "P29_007": "0", "P29_008": "00", "P29_009": null }, "geometry": { "type": "Point", "coordinates": [ 137.223622548263904, 37.298475220503434 ] } },
{ "type": "Feature", "properties": { "P29_001": "17463", "P29_002": "A217346300029", "P29_003": "16013", "P29_004": "幼保連携型認定こども園松波こども園", "P29_005": "石川県鳳珠郡能登町字松波8字2-1", "P29_006": "4", "P29_007": "0", "P29_008": "00", "P29_009": null }, "geometry": { "type": "Point", "coordinates": [ 137.240491873609869, 37.355667672187629 ] } }
]
}
