{
"type": "FeatureCollection",
"name": "geo_17_介護医療院",
"crs": { "type": "name", "properties": { "name": "urn:ogc:def:crs:OGC:1.3:CRS84" } },
"features": [
{ "type": "Feature", "properties": { "内容": "小池病院介護医療院【介護医療院】石川県金沢市大手町８番２０号", "url2": "https://www.kaigokensaku.mhlw.go.jp/17/index.php?action_kouhyou_detail_004_kani=true&JigyosyoCd=17B0100039-00&ServiceCd=550&Type=search" }, "geometry": { "type": "Point", "coordinates": [ 136.664194899999984, 36.5676722 ] } },
{ "type": "Feature", "properties": { "内容": "林病院介護医療院【介護医療院】石川県金沢市本町1丁目2番27号", "url2": "https://www.kaigokensaku.mhlw.go.jp/17/index.php?action_kouhyou_detail_004_kani=true&JigyosyoCd=17B0100054-00&ServiceCd=550&Type=search" }, "geometry": { "type": "Point", "coordinates": [ 136.6517777, 36.5745092 ] } },
{ "type": "Feature", "properties": { "内容": "医療法人社団　和宏会　敬愛病院　介護医療院【介護医療院】石川県金沢市兼六元町14番21号", "url2": "https://www.kaigokensaku.mhlw.go.jp/17/index.php?action_kouhyou_detail_004_kani=true&JigyosyoCd=17B0100013-00&ServiceCd=550&Type=search" }, "geometry": { "type": "Point", "coordinates": [ 136.667378, 36.5652819 ] } },
{ "type": "Feature", "properties": { "内容": "医療法人社団和宏会大手町病院　介護医療院【介護医療院】大手町5番32号", "url2": "https://www.kaigokensaku.mhlw.go.jp/17/index.php?action_kouhyou_detail_004_kani=true&JigyosyoCd=17B0100021-00&ServiceCd=550&Type=search" }, "geometry": { "type": "Point", "coordinates": [ 136.662948, 36.5686361 ] } },
{ "type": "Feature", "properties": { "内容": "医療法人社団浅ノ川　千木病院介護医療院【介護医療院】金沢市千木町へ33番地1", "url2": "https://www.kaigokensaku.mhlw.go.jp/17/index.php?action_kouhyou_detail_004_kani=true&JigyosyoCd=17B0100047-00&ServiceCd=550&Type=search" }, "geometry": { "type": "Point", "coordinates": [ 136.672927906745912, 36.611309426412816 ] } },
{ "type": "Feature", "properties": { "内容": "北村病院介護医療院【介護医療院】石川県七尾市御祓町ホ部２６番地の５", "url2": "https://www.kaigokensaku.mhlw.go.jp/17/index.php?action_kouhyou_detail_004_kani=true&JigyosyoCd=17B0210937-00&ServiceCd=550&Type=search" }, "geometry": { "type": "Point", "coordinates": [ 136.963487, 37.043916 ] } },
{ "type": "Feature", "properties": { "内容": "浜野介護医療院【介護医療院】石川県七尾市津向町野中20番1", "url2": "https://www.kaigokensaku.mhlw.go.jp/17/index.php?action_kouhyou_detail_004_kani=true&JigyosyoCd=17B0210945-00&ServiceCd=550&Type=search" }, "geometry": { "type": "Point", "coordinates": [ 136.9546776, 37.0632446 ] } },
{ "type": "Feature", "properties": { "内容": "市立輪島病院介護医療院【介護医療院】石川県輪島市山岸町は１番１地", "url2": "https://www.kaigokensaku.mhlw.go.jp/17/index.php?action_kouhyou_detail_004_kani=true&JigyosyoCd=17B0400017-00&ServiceCd=550&Type=search" }, "geometry": { "type": "Point", "coordinates": [ 136.9057727, 37.3841908 ] } },
{ "type": "Feature", "properties": { "内容": "介護医療院　まごころ【介護医療院】石川県加賀市大聖寺永町イ17番地久藤総合病院5階", "url2": "https://www.kaigokensaku.mhlw.go.jp/17/index.php?action_kouhyou_detail_004_kani=true&JigyosyoCd=17B0600012-00&ServiceCd=550&Type=search" }, "geometry": { "type": "Point", "coordinates": [ 136.320067699999981, 36.3078389 ] } },
{ "type": "Feature", "properties": { "内容": "加賀温泉ケアセンター【介護医療院】石川県加賀市直下町ヲ91番地", "url2": "https://www.kaigokensaku.mhlw.go.jp/17/index.php?action_kouhyou_detail_004_kani=true&JigyosyoCd=17B0600020-00&ServiceCd=550&Type=search" }, "geometry": { "type": "Point", "coordinates": [ 136.3275591, 36.2770376 ] } },
{ "type": "Feature", "properties": { "内容": "二ツ屋病院　介護医療院【介護医療院】石川県かほく市二ツ屋ソ７２", "url2": "https://www.kaigokensaku.mhlw.go.jp/17/index.php?action_kouhyou_detail_004_kani=true&JigyosyoCd=17B2100011-00&ServiceCd=550&Type=search" }, "geometry": { "type": "Point", "coordinates": [ 136.738513900000044, 36.7846775 ] } },
{ "type": "Feature", "properties": { "内容": "芳珠記念病院　介護医療院　陽だまり【介護医療院】石川県能美市緑が丘11丁目71番地", "url2": "https://www.kaigokensaku.mhlw.go.jp/17/index.php?action_kouhyou_detail_004_kani=true&JigyosyoCd=17B2300017-00&ServiceCd=550&Type=search" }, "geometry": { "type": "Point", "coordinates": [ 136.535887099999968, 36.4419115 ] } },
{ "type": "Feature", "properties": { "内容": "町立介護医療院夕なぎ【介護医療院】石川県羽咋郡志賀町富来地頭町7-110-1", "url2": "https://www.kaigokensaku.mhlw.go.jp/17/index.php?action_kouhyou_detail_004_kani=true&JigyosyoCd=17B1500013-00&ServiceCd=550&Type=search" }, "geometry": { "type": "Point", "coordinates": [ 136.729345547746306, 37.137241612117229 ] } },
{ "type": "Feature", "properties": { "内容": "介護医療院　悠悠【介護医療院】羽咋郡志賀町富来領家町ハの30番地", "url2": "https://www.kaigokensaku.mhlw.go.jp/17/index.php?action_kouhyou_detail_004_kani=true&JigyosyoCd=17B1500021-00&ServiceCd=550&Type=search" }, "geometry": { "type": "Point", "coordinates": [ 136.7299329, 37.143879 ] } },
{ "type": "Feature", "properties": { "内容": "介護医療院　恵寿鳩ヶ丘【介護医療院】石川県鳳珠郡穴水町字麦ヶ浦15、39番8", "url2": "https://www.kaigokensaku.mhlw.go.jp/17/index.php?action_kouhyou_detail_004_kani=true&JigyosyoCd=17B1700019-00&ServiceCd=550&Type=search" }, "geometry": { "type": "Point", "coordinates": [ 136.921108299999986, 37.2730729 ] } },
{ "type": "Feature", "properties": { "内容": "柳田温泉病院介護医療院【介護医療院】石川県鳳珠郡能登町字宇出津タ字97番地公立宇出津総合病院　5階", "url2": "https://www.kaigokensaku.mhlw.go.jp/17/index.php?action_kouhyou_detail_004_kani=true&JigyosyoCd=17B1700027-00&ServiceCd=550&Type=search" }, "geometry": { "type": "Point", "coordinates": [ 137.111148500000013, 37.350149200000018 ] } }
]
}
