{
"type": "FeatureCollection",
"name": "geo_17_地域密着型介護老人福祉施設入所者生活介護",
"crs": { "type": "name", "properties": { "name": "urn:ogc:def:crs:OGC:1.3:CRS84" } },
"features": [
{ "type": "Feature", "properties": { "内容": "特別養護老人ホーム　彦三きらく園【地域密着型介護老人福祉施設入所者生活介護】金沢市彦三町1丁目8番8号", "url": "https://www.kaigokensaku.mhlw.go.jp/17/index.php?action_kouhyou_detail_004_kani=true&JigyosyoCd=1770100772-00&ServiceCd=540&Type=search", "url2": "http://www.kirakuen.net/" }, "geometry": { "type": "Point", "coordinates": [ 136.656779395600921, 36.574354894904992 ] } },
{ "type": "Feature", "properties": { "内容": "けんろく苑【地域密着型介護老人福祉施設入所者生活介護】金沢市田上本町２丁目１５９番地", "url": "https://www.kaigokensaku.mhlw.go.jp/17/index.php?action_kouhyou_detail_004_kani=true&JigyosyoCd=1790100356-00&ServiceCd=540&Type=search", "url2": "http://www.kenroku-f.jp" }, "geometry": { "type": "Point", "coordinates": [ 136.699663789440962, 36.536438021955213 ] } },
{ "type": "Feature", "properties": { "内容": "地域密着型介護老人福祉施設　ボニュール泉が丘苑【地域密着型介護老人福祉施設入所者生活介護】石川県金沢市泉が丘1丁目3-86", "url": "https://www.kaigokensaku.mhlw.go.jp/17/index.php?action_kouhyou_detail_004_kani=true&JigyosyoCd=1790100463-00&ServiceCd=540&Type=search", "url2": "https://kihoukai.jp/" }, "geometry": { "type": "Point", "coordinates": [ 136.647318545368989, 36.545850908424043 ] } },
{ "type": "Feature", "properties": { "内容": "特別養護老人ホーム朱鷺の苑西インター【地域密着型介護老人福祉施設入所者生活介護】森戸2丁目20番地", "url": "https://www.kaigokensaku.mhlw.go.jp/17/index.php?action_kouhyou_detail_004_kani=true&JigyosyoCd=1790100166-00&ServiceCd=540&Type=search", "url2": "www.tokinoen.com" }, "geometry": { "type": "Point", "coordinates": [ 136.598437900000022, 36.5588414 ] } },
{ "type": "Feature", "properties": { "内容": "地域密着型特別養護老人ホーム　真園【地域密着型介護老人福祉施設入所者生活介護】西念３丁目８番２０号", "url": "https://www.kaigokensaku.mhlw.go.jp/17/index.php?action_kouhyou_detail_004_kani=true&JigyosyoCd=1790100943-00&ServiceCd=540&Type=search", "url2": "https://makotoen.jp/" }, "geometry": { "type": "Point", "coordinates": [ 136.63807499028249, 36.587751825122247 ] } },
{ "type": "Feature", "properties": { "内容": "地域密着型特別養護老人ホームみんまのさと【地域密着型介護老人福祉施設入所者生活介護】石川県金沢市三馬１丁目207番地", "url": "https://www.kaigokensaku.mhlw.go.jp/17/index.php?action_kouhyou_detail_004_kani=true&JigyosyoCd=1790100711-00&ServiceCd=540&Type=search", "url2": "http://www.minmanosato.com" }, "geometry": { "type": "Point", "coordinates": [ 136.63143339112392, 36.525884727197798 ] } },
{ "type": "Feature", "properties": { "内容": "サンケア上荒屋【地域密着型介護老人福祉施設入所者生活介護】石川県金沢市上荒屋1丁目305番地サンケア上荒屋", "url": "https://www.kaigokensaku.mhlw.go.jp/17/index.php?action_kouhyou_detail_004_kani=true&JigyosyoCd=1790101263-00&ServiceCd=540&Type=search", "url2": "http://www.suncare-life.com" }, "geometry": { "type": "Point", "coordinates": [ 136.592885700000011, 36.548511 ] } },
{ "type": "Feature", "properties": { "内容": "特別養護老人ホーム瓢箪町きらく園【地域密着型介護老人福祉施設入所者生活介護】石川県彦三町2丁目9-9", "url": "https://www.kaigokensaku.mhlw.go.jp/17/index.php?action_kouhyou_detail_004_kani=true&JigyosyoCd=1790101131-00&ServiceCd=540&Type=search", "url2": "hikoso@kirakuen.net" }, "geometry": { "type": "Point", "coordinates": [ 136.6566865, 36.5758534 ] } },
{ "type": "Feature", "properties": { "内容": "小規模特別養護老人ホームこころ　のだの里【地域密着型介護老人福祉施設入所者生活介護】石川県金沢市野田２丁目２６１番地", "url": "https://www.kaigokensaku.mhlw.go.jp/17/index.php?action_kouhyou_detail_004_kani=true&JigyosyoCd=1790100257-00&ServiceCd=540&Type=search", "url2": "http://www.nodanosato.com/" }, "geometry": { "type": "Point", "coordinates": [ 136.669643899999983, 36.5340454 ] } },
{ "type": "Feature", "properties": { "内容": "小規模特別養護老人ホーム福増苑【地域密着型介護老人福祉施設入所者生活介護】福増町南1221番地", "url": "https://www.kaigokensaku.mhlw.go.jp/17/index.php?action_kouhyou_detail_004_kani=true&JigyosyoCd=1790100505-00&ServiceCd=540&Type=search", "url2": "htpps://www.sengakukai.com/" }, "geometry": { "type": "Point", "coordinates": [ 136.58143429248193, 36.562683954321635 ] } },
{ "type": "Feature", "properties": { "内容": "わらく木曳野【地域密着型介護老人福祉施設入所者生活介護】金沢市木曳野3丁目286番地", "url": "https://www.kaigokensaku.mhlw.go.jp/17/index.php?action_kouhyou_detail_004_kani=true&JigyosyoCd=1790100182-00&ServiceCd=540&Type=search", "url2": "http://touaikai.or.jp" }, "geometry": { "type": "Point", "coordinates": [ 136.6065989, 36.603532800000018 ] } },
{ "type": "Feature", "properties": { "内容": "第2やすはら苑【地域密着型介護老人福祉施設入所者生活介護】石川県金沢市下安原町東1457番地1第2やすはら苑", "url": "https://www.kaigokensaku.mhlw.go.jp/17/index.php?action_kouhyou_detail_004_kani=true&JigyosyoCd=1790100778-00&ServiceCd=540&Type=search", "url2": "http://www.incl.ne.jp/yasuhara" }, "geometry": { "type": "Point", "coordinates": [ 136.581736299999989, 36.5730365 ] } },
{ "type": "Feature", "properties": { "内容": "けんろく苑　笠舞【地域密着型介護老人福祉施設入所者生活介護】石川県金沢市笠舞2丁目12番11号", "url": "https://www.kaigokensaku.mhlw.go.jp/17/index.php?action_kouhyou_detail_004_kani=true&JigyosyoCd=1790100786-00&ServiceCd=540&Type=search", "url2": "http://www.kenroku-f.jp" }, "geometry": { "type": "Point", "coordinates": [ 136.670465228836065, 36.55263260674166 ] } },
{ "type": "Feature", "properties": { "内容": "礎【地域密着型介護老人福祉施設入所者生活介護】石川県金沢市錦町2の27番地1", "url": "https://www.kaigokensaku.mhlw.go.jp/17/index.php?action_kouhyou_detail_004_kani=true&JigyosyoCd=1790100471-00&ServiceCd=540&Type=search", "url2": "https://1000jyu.jp/" }, "geometry": { "type": "Point", "coordinates": [ 136.685482274868718, 36.542306123287872 ] } },
{ "type": "Feature", "properties": { "内容": "サンケア鞍月【地域密着型介護老人福祉施設入所者生活介護】石川県金沢市直江西1-94", "url": "https://www.kaigokensaku.mhlw.go.jp/17/index.php?action_kouhyou_detail_004_kani=true&JigyosyoCd=1790100950-00&ServiceCd=540&Type=search", "url2": "http://www.suncare-life.com/" }, "geometry": { "type": "Point", "coordinates": [ 136.635283699999945, 36.6125973 ] } },
{ "type": "Feature", "properties": { "内容": "地域密着型特別養護老人ホームさくらセンター湊【地域密着型介護老人福祉施設入所者生活介護】石川県金沢市湊２丁目171番地", "url": "https://www.kaigokensaku.mhlw.go.jp/17/index.php?action_kouhyou_detail_004_kani=true&JigyosyoCd=1790100877-00&ServiceCd=540&Type=search", "url2": "http://sakura-center.org/" }, "geometry": { "type": "Point", "coordinates": [ 136.6520448, 36.635582100000015 ] } },
{ "type": "Feature", "properties": { "内容": "特別養護老人ホーム　ゆうけあ相河【地域密着型介護老人福祉施設入所者生活介護】西泉6丁目136番地", "url": "https://www.kaigokensaku.mhlw.go.jp/17/index.php?action_kouhyou_detail_004_kani=true&JigyosyoCd=1790100240-00&ServiceCd=540&Type=search", "url2": "http://you-care-aiko.jp" }, "geometry": { "type": "Point", "coordinates": [ 136.628329600000029, 36.5537339 ] } },
{ "type": "Feature", "properties": { "内容": "輝【地域密着型介護老人福祉施設入所者生活介護】金沢市南森本町ワ53番地1", "url": "https://www.kaigokensaku.mhlw.go.jp/17/index.php?action_kouhyou_detail_004_kani=true&JigyosyoCd=1790100174-00&ServiceCd=540&Type=search", "url2": "http://www.1000jyu.jp/" }, "geometry": { "type": "Point", "coordinates": [ 136.696635799999967, 36.6178073 ] } },
{ "type": "Feature", "properties": { "内容": "地域密着型特別養護老人ホーム　花小町もろえ【地域密着型介護老人福祉施設入所者生活介護】諸江町中丁154番地1", "url": "https://www.kaigokensaku.mhlw.go.jp/17/index.php?action_kouhyou_detail_004_kani=true&JigyosyoCd=1790100497-00&ServiceCd=540&Type=search", "url2": "http://www.hanamokuren.com" }, "geometry": { "type": "Point", "coordinates": [ 136.645194426736452, 36.59540004477337 ] } },
{ "type": "Feature", "properties": { "内容": "小規模特別養護老人ホーム第三千木園ひきだ【地域密着型介護老人福祉施設入所者生活介護】石川県金沢市疋田3丁目58番地", "url": "https://www.kaigokensaku.mhlw.go.jp/17/index.php?action_kouhyou_detail_004_kani=true&JigyosyoCd=1790100380-00&ServiceCd=540&Type=search", "url2": "http://www.sengi.jp/dai3sengien/" }, "geometry": { "type": "Point", "coordinates": [ 136.67308, 36.604033700000016 ] } },
{ "type": "Feature", "properties": { "内容": "特別養護老人ホーム　たつき苑【地域密着型介護老人福祉施設入所者生活介護】金沢市御所町2丁目302番特別養護老人ホーム　たつき苑", "url": "https://www.kaigokensaku.mhlw.go.jp/17/index.php?action_kouhyou_detail_004_kani=true&JigyosyoCd=1790100265-00&ServiceCd=540&Type=search", "url2": null }, "geometry": { "type": "Point", "coordinates": [ 136.700881500000037, 36.5791126 ] } },
{ "type": "Feature", "properties": { "内容": "まほろば四十万【地域密着型介護老人福祉施設入所者生活介護】石川県金沢市四十万３－２８８", "url": "https://www.kaigokensaku.mhlw.go.jp/17/index.php?action_kouhyou_detail_004_kani=true&JigyosyoCd=1790100307-00&ServiceCd=540&Type=search", "url2": "http://www,mahoroba-01.jp" }, "geometry": { "type": "Point", "coordinates": [ 136.6174926, 36.5045368 ] } },
{ "type": "Feature", "properties": { "内容": "特別養護老人ホーム金澤備中【地域密着型介護老人福祉施設入所者生活介護】材木町21-21", "url": "https://www.kaigokensaku.mhlw.go.jp/17/index.php?action_kouhyou_detail_004_kani=true&JigyosyoCd=1790101446-00&ServiceCd=540&Type=search", "url2": "https://www.kyuraku.info/kanazawa_bicchu.php" }, "geometry": { "type": "Point", "coordinates": [ 135.511347699999988, 34.6796668 ] } },
{ "type": "Feature", "properties": { "内容": "地域密着型特別養護老人ホームみゆきの郷【地域密着型介護老人福祉施設入所者生活介護】石川県小松市松崎町赤場１－１", "url": "https://www.kaigokensaku.mhlw.go.jp/17/index.php?action_kouhyou_detail_004_kani=true&JigyosyoCd=1790300121-00&ServiceCd=540&Type=search", "url2": "https://tensenkai.jp/miyukinosato/" }, "geometry": { "type": "Point", "coordinates": [ 136.414245599999958, 36.3718409 ] } },
{ "type": "Feature", "properties": { "内容": "特別養護老人ホーム　福祉の杜【地域密着型介護老人福祉施設入所者生活介護】石川県輪島市山岸町い２６番地２複合施設　福祉の杜　わじま", "url": "https://www.kaigokensaku.mhlw.go.jp/17/index.php?action_kouhyou_detail_004_kani=true&JigyosyoCd=1790400061-00&ServiceCd=540&Type=search", "url2": "https://kotobukifukushikai.com/fukushinomori/" }, "geometry": { "type": "Point", "coordinates": [ 136.907267600000068, 37.3830523 ] } },
{ "type": "Feature", "properties": { "内容": "特別養護老人ホーム　輪島荘【地域密着型介護老人福祉施設入所者生活介護】輪島市光浦町49字21番地", "url": "https://www.kaigokensaku.mhlw.go.jp/17/index.php?action_kouhyou_detail_004_kani=true&JigyosyoCd=1790400079-00&ServiceCd=540&Type=search", "url2": "http://www.wajimasou.com" }, "geometry": { "type": "Point", "coordinates": [ 136.893356700000027, 37.4000417 ] } },
{ "type": "Feature", "properties": { "内容": "地域密着型特別養護老人ホーム第２ゆきわりそう【地域密着型介護老人福祉施設入所者生活介護】輪島市門前町深田ろの６番地", "url": "https://www.kaigokensaku.mhlw.go.jp/17/index.php?action_kouhyou_detail_004_kani=true&JigyosyoCd=1790400087-00&ServiceCd=540&Type=search", "url2": "http://yukiwarisou.org" }, "geometry": { "type": "Point", "coordinates": [ 136.778958900000021, 37.2881837 ] } },
{ "type": "Feature", "properties": { "内容": "特別養護老人ホーム第三長寿園【地域密着型介護老人福祉施設入所者生活介護】石川県珠洲市宝立町鵜飼子字３６番地４", "url": "https://www.kaigokensaku.mhlw.go.jp/17/index.php?action_kouhyou_detail_004_kani=true&JigyosyoCd=1790500043-00&ServiceCd=540&Type=search", "url2": "https://choujukai-isk.jp/" }, "geometry": { "type": "Point", "coordinates": [ 137.239234707270867, 37.405070546088531 ] } },
{ "type": "Feature", "properties": { "内容": "小規模特別養護老人ホームちょくし【地域密着型介護老人福祉施設入所者生活介護】石川県加賀市勅使町ル75番地1", "url": "https://www.kaigokensaku.mhlw.go.jp/17/index.php?action_kouhyou_detail_004_kani=true&JigyosyoCd=1790600397-00&ServiceCd=540&Type=search", "url2": "https://chokyuhukushi.jp/" }, "geometry": { "type": "Point", "coordinates": [ 136.3896268, 36.3012773 ] } },
{ "type": "Feature", "properties": { "内容": "小規模特別養護老人ホームつかたに【地域密着型介護老人福祉施設入所者生活介護】石川県加賀市山中温泉塚谷町2丁目132番地1", "url": "https://www.kaigokensaku.mhlw.go.jp/17/index.php?action_kouhyou_detail_004_kani=true&JigyosyoCd=1790600389-00&ServiceCd=540&Type=search", "url2": "https://chokyuhukushi.jp/" }, "geometry": { "type": "Point", "coordinates": [ 136.3673416, 36.2569327 ] } },
{ "type": "Feature", "properties": { "内容": "特別養護老人ホームサンライフたきの里【地域密着型介護老人福祉施設入所者生活介護】石川県加賀市山中温泉滝町リ1番1", "url": "https://www.kaigokensaku.mhlw.go.jp/17/index.php?action_kouhyou_detail_004_kani=true&JigyosyoCd=1790600355-00&ServiceCd=540&Type=search", "url2": "https://chokyuhukushi.jp/" }, "geometry": { "type": "Point", "coordinates": [ 136.4008259, 36.2591834 ] } },
{ "type": "Feature", "properties": { "内容": "地域密着型指定介護老人福祉施設　特別養護老人ホーム　動橋慈妙院【地域密着型介護老人福祉施設入所者生活介護】動橋町カ4番地2", "url": "https://www.kaigokensaku.mhlw.go.jp/17/index.php?action_kouhyou_detail_004_kani=true&JigyosyoCd=1790600132-00&ServiceCd=540&Type=search", "url2": "http://www.tokuhoukai.jp" }, "geometry": { "type": "Point", "coordinates": [ 136.384946899999932, 36.3216319 ] } },
{ "type": "Feature", "properties": { "内容": "特別養護老人ホーム　山代温泉慈妙院【地域密着型介護老人福祉施設入所者生活介護】石川県加賀市山代温泉温泉通73番地", "url": "https://www.kaigokensaku.mhlw.go.jp/17/index.php?action_kouhyou_detail_004_kani=true&JigyosyoCd=1790600090-00&ServiceCd=540&Type=search", "url2": "http://www.tokuhoukai.jp" }, "geometry": { "type": "Point", "coordinates": [ 136.362617199999931, 36.2919714 ] } },
{ "type": "Feature", "properties": { "内容": "サテライト芙蓉【地域密着型介護老人福祉施設入所者生活介護】石川県かほく市学園台５丁目２９番地", "url": "https://www.kaigokensaku.mhlw.go.jp/17/index.php?action_kouhyou_detail_004_kani=true&JigyosyoCd=1792100040-00&ServiceCd=540&Type=search", "url2": "https://f-kotobukien.jp/" }, "geometry": { "type": "Point", "coordinates": [ 136.730425200000013, 36.7796381 ] } },
{ "type": "Feature", "properties": { "内容": "特別養護老人ホームサテライトあいおい【地域密着型介護老人福祉施設入所者生活介護】石川県かほく市宇気イ51番地1", "url": "https://www.kaigokensaku.mhlw.go.jp/17/index.php?action_kouhyou_detail_004_kani=true&JigyosyoCd=1792100057-00&ServiceCd=540&Type=search", "url2": "care-net.biz/17/aioikai/" }, "geometry": { "type": "Point", "coordinates": [ 136.714208800000051, 36.7329244 ] } },
{ "type": "Feature", "properties": { "内容": "白山ぬくもりホーム【地域密着型介護老人福祉施設入所者生活介護】石川県白山市八ツ矢町124番地1白山ぬくもりホーム", "url": "https://www.kaigokensaku.mhlw.go.jp/17/index.php?action_kouhyou_detail_004_kani=true&JigyosyoCd=1792200139-00&ServiceCd=540&Type=search", "url2": "http://www.kyuraku.info/index.php" }, "geometry": { "type": "Point", "coordinates": [ 136.570375399999989, 36.527665 ] } },
{ "type": "Feature", "properties": { "内容": "松美苑サテライト【地域密着型介護老人福祉施設入所者生活介護】石川県白山市剣崎町1484番地2", "url": "https://www.kaigokensaku.mhlw.go.jp/17/index.php?action_kouhyou_detail_004_kani=true&JigyosyoCd=1792200220-00&ServiceCd=540&Type=search", "url2": "http://www.fukujyukai.jp/" }, "geometry": { "type": "Point", "coordinates": [ 136.56427690000001, 36.4988263 ] } },
{ "type": "Feature", "properties": { "内容": "小規模特別養護老人ホーム　キラッと美川【地域密着型介護老人福祉施設入所者生活介護】白山市美川和波町ワ76-2", "url": "https://www.kaigokensaku.mhlw.go.jp/17/index.php?action_kouhyou_detail_004_kani=true&JigyosyoCd=1792200089-00&ServiceCd=540&Type=search", "url2": "http://www.tokuhoukai.jp/" }, "geometry": { "type": "Point", "coordinates": [ 136.4873708820312, 36.491863560334842 ] } },
{ "type": "Feature", "properties": { "内容": "地域密着型介護老人福祉施設　鶴来ふくまるハウス【地域密着型介護老人福祉施設入所者生活介護】石川県白山市鶴来本町4丁目リ33番地3", "url": "https://www.kaigokensaku.mhlw.go.jp/17/index.php?action_kouhyou_detail_004_kani=true&JigyosyoCd=1792200204-00&ServiceCd=540&Type=search", "url2": "http://www.fukujyukai.jp/" }, "geometry": { "type": "Point", "coordinates": [ 136.623896800000011, 36.4544134 ] } },
{ "type": "Feature", "properties": { "内容": "地域密着型特別養護老人ホーム　おかりや【地域密着型介護老人福祉施設入所者生活介護】石川県白山市倉光三丁目８番地", "url": "https://www.kaigokensaku.mhlw.go.jp/17/index.php?action_kouhyou_detail_004_kani=true&JigyosyoCd=1792200121-00&ServiceCd=540&Type=search", "url2": "https://www.mattohp.jp/" }, "geometry": { "type": "Point", "coordinates": [ 136.565777700000012, 36.5110414 ] } },
{ "type": "Feature", "properties": { "内容": "特別養護老人ホームアイリス【地域密着型介護老人福祉施設入所者生活介護】石川県羽咋郡志賀町給分ニ27番地1", "url": "https://www.kaigokensaku.mhlw.go.jp/17/index.php?action_kouhyou_detail_004_kani=true&JigyosyoCd=1791500125-00&ServiceCd=540&Type=search", "url2": "http://care-net.biz/17/reishinkai/" }, "geometry": { "type": "Point", "coordinates": [ 136.72593370000007, 37.151103900000017 ] } },
{ "type": "Feature", "properties": { "内容": "社会福祉法人渚会特別養護老人ホームちどり園（地域密着型）【地域密着型介護老人福祉施設入所者生活介護】石川県羽咋郡宝達志水町宿五号１０番地２", "url": "https://www.kaigokensaku.mhlw.go.jp/17/index.php?action_kouhyou_detail_004_kani=true&JigyosyoCd=1791500083-00&ServiceCd=540&Type=search", "url2": "www.nagisa-chidori.com" }, "geometry": { "type": "Point", "coordinates": [ 136.775510131877127, 36.844105614034717 ] } },
{ "type": "Feature", "properties": { "内容": "特別養護老人ホーム　第二宝達苑【地域密着型介護老人福祉施設入所者生活介護】石川県羽咋郡宝達志水町小川ハ２５０番地", "url": "https://www.kaigokensaku.mhlw.go.jp/17/index.php?action_kouhyou_detail_004_kani=true&JigyosyoCd=1791500042-00&ServiceCd=540&Type=search", "url2": "koukenkai.com" }, "geometry": { "type": "Point", "coordinates": [ 136.758690998672478, 36.821328821745951 ] } },
{ "type": "Feature", "properties": { "内容": "第二鹿寿苑【地域密着型介護老人福祉施設入所者生活介護】石川県鹿島郡中能登町西馬場エ部６４番地", "url": "https://www.kaigokensaku.mhlw.go.jp/17/index.php?action_kouhyou_detail_004_kani=true&JigyosyoCd=1791600040-00&ServiceCd=540&Type=search", "url2": "https://www.rokujyuen.com/" }, "geometry": { "type": "Point", "coordinates": [ 136.88708155345924, 36.971220971790295 ] } },
{ "type": "Feature", "properties": { "内容": "ユニットケア能登穴水聖頌園【地域密着型介護老人福祉施設入所者生活介護】石川県鳳珠郡穴水町字岩車6,27の2番地", "url": "https://www.kaigokensaku.mhlw.go.jp/17/index.php?action_kouhyou_detail_004_kani=true&JigyosyoCd=1791700113-00&ServiceCd=540&Type=search", "url2": "http://www.bokuyoufukushikai.com/" }, "geometry": { "type": "Point", "coordinates": [ 136.960303899999985, 37.211226 ] } },
{ "type": "Feature", "properties": { "内容": "地域密着型特別養護老人ホーム第二穴水聖頌園【地域密着型介護老人福祉施設入所者生活介護】石川健鳳珠郡穴水町字大町ほ17番1", "url": "https://www.kaigokensaku.mhlw.go.jp/17/index.php?action_kouhyou_detail_004_kani=true&JigyosyoCd=1791700162-00&ServiceCd=540&Type=search", "url2": "https://www.bokuyoufukushikai.com/" }, "geometry": { "type": "Point", "coordinates": [ 136.903441424050897, 37.231031902691171 ] } }
]
}
