{
"type": "FeatureCollection",
"name": "geo_17_福祉用具貸与",
"crs": { "type": "name", "properties": { "name": "urn:ogc:def:crs:OGC:1.3:CRS84" } },
"features": [
{ "type": "Feature", "properties": { "内容": "トミキライフケア福祉用具事業所【福祉用具貸与】石川県金沢市問屋町2丁目74番地", "url2": "https://www.kaigokensaku.mhlw.go.jp/17/index.php?action_kouhyou_detail_004_kani=true&JigyosyoCd=1770100103-00&ServiceCd=170&Type=search" }, "geometry": { "type": "Point", "coordinates": [ 136.642312899999979, 36.6056274 ] } },
{ "type": "Feature", "properties": { "内容": "こすもすかがやき福祉用具事業所【福祉用具貸与】諸江町下丁89番地3-2F", "url2": "https://www.kaigokensaku.mhlw.go.jp/17/index.php?action_kouhyou_detail_004_kani=true&JigyosyoCd=1770106670-00&ServiceCd=170&Type=search" }, "geometry": { "type": "Point", "coordinates": [ 136.6441939, 36.6040539 ] } },
{ "type": "Feature", "properties": { "内容": "(有)グリーン　ケア　メッセ【福祉用具貸与】元菊町20-1金沢春日ケアセンター1Ｆ", "url2": "https://www.kaigokensaku.mhlw.go.jp/17/index.php?action_kouhyou_detail_004_kani=true&JigyosyoCd=1770100970-00&ServiceCd=170&Type=search" }, "geometry": { "type": "Point", "coordinates": [ 136.642261100000042, 36.573679 ] } },
{ "type": "Feature", "properties": { "内容": "ホームケアショップさくら【福祉用具貸与】桜町24番30号", "url2": "https://www.kaigokensaku.mhlw.go.jp/17/index.php?action_kouhyou_detail_004_kani=true&JigyosyoCd=1770100335-00&ServiceCd=170&Type=search" }, "geometry": { "type": "Point", "coordinates": [ 136.675662200000033, 36.5614699 ] } },
{ "type": "Feature", "properties": { "内容": "あさがお株式会社【福祉用具貸与】武蔵町8番12号", "url2": "https://www.kaigokensaku.mhlw.go.jp/17/index.php?action_kouhyou_detail_004_kani=true&JigyosyoCd=1770104766-00&ServiceCd=170&Type=search" }, "geometry": { "type": "Point", "coordinates": [ 136.6527327, 36.572024 ] } },
{ "type": "Feature", "properties": { "内容": "介護ショップありまつ【福祉用具貸与】金沢市有松5丁目2番24号", "url2": "https://www.kaigokensaku.mhlw.go.jp/17/index.php?action_kouhyou_detail_004_kani=true&JigyosyoCd=1770104097-00&ServiceCd=170&Type=search" }, "geometry": { "type": "Point", "coordinates": [ 136.638995389549194, 36.538721442410285 ] } },
{ "type": "Feature", "properties": { "内容": "株式会社　ビースタイルケア　福祉用具事業部【福祉用具貸与】石川県金沢市南新保町ヌ204番地　2階", "url2": "https://www.kaigokensaku.mhlw.go.jp/17/index.php?action_kouhyou_detail_004_kani=true&JigyosyoCd=1770103891-00&ServiceCd=170&Type=search" }, "geometry": { "type": "Point", "coordinates": [ 136.629024409121001, 36.597579630375158 ] } },
{ "type": "Feature", "properties": { "内容": "フランスベッド株式会社　メディカル北陸営業所【福祉用具貸与】上安原南100番地", "url2": "https://www.kaigokensaku.mhlw.go.jp/17/index.php?action_kouhyou_detail_004_kani=true&JigyosyoCd=1770101937-00&ServiceCd=170&Type=search" }, "geometry": { "type": "Point", "coordinates": [ 136.592485799999963, 36.5571361 ] } },
{ "type": "Feature", "properties": { "内容": "株式会社ゴールデンコンパス【福祉用具貸与】石川県金沢市松村4丁目468番", "url2": "https://www.kaigokensaku.mhlw.go.jp/17/index.php?action_kouhyou_detail_004_kani=true&JigyosyoCd=1770105573-00&ServiceCd=170&Type=search" }, "geometry": { "type": "Point", "coordinates": [ 136.611622998948661, 36.584939232300442 ] } },
{ "type": "Feature", "properties": { "内容": "リード【福祉用具貸与】石川県金沢市笠舞3丁目2番30号", "url2": "https://www.kaigokensaku.mhlw.go.jp/17/index.php?action_kouhyou_detail_004_kani=true&JigyosyoCd=1740145188-00&ServiceCd=170&Type=search" }, "geometry": { "type": "Point", "coordinates": [ 136.664791, 36.5525404 ] } },
{ "type": "Feature", "properties": { "内容": "ふくし百選【福祉用具貸与】金沢市窪七丁目271番地藪野ビル　4階", "url2": "https://www.kaigokensaku.mhlw.go.jp/17/index.php?action_kouhyou_detail_004_kani=true&JigyosyoCd=1770103800-00&ServiceCd=170&Type=search" }, "geometry": { "type": "Point", "coordinates": [ 136.638014425586647, 36.530746838309696 ] } },
{ "type": "Feature", "properties": { "内容": "有限会社ケアドゥ【福祉用具貸与】松島2丁目61番地", "url2": "https://www.kaigokensaku.mhlw.go.jp/17/index.php?action_kouhyou_detail_004_kani=true&JigyosyoCd=1770101846-00&ServiceCd=170&Type=search" }, "geometry": { "type": "Point", "coordinates": [ 136.604181499999981, 36.5632298 ] } },
{ "type": "Feature", "properties": { "内容": "有限会社さわやか金沢【福祉用具貸与】金沢市割出町718-1", "url2": "https://www.kaigokensaku.mhlw.go.jp/17/index.php?action_kouhyou_detail_004_kani=true&JigyosyoCd=1770101069-00&ServiceCd=170&Type=search" }, "geometry": { "type": "Point", "coordinates": [ 136.636463400000025, 36.6007003 ] } },
{ "type": "Feature", "properties": { "内容": "シルバーサポート金沢店【福祉用具貸与】赤土町カ1番31", "url2": "https://www.kaigokensaku.mhlw.go.jp/17/index.php?action_kouhyou_detail_004_kani=true&JigyosyoCd=1770101481-00&ServiceCd=170&Type=search" }, "geometry": { "type": "Point", "coordinates": [ 136.583484534779359, 36.588496351721837 ] } },
{ "type": "Feature", "properties": { "内容": ".ライフライン福祉事業部【福祉用具貸与】金沢市駅西新町2丁目1806番地", "url2": "https://www.kaigokensaku.mhlw.go.jp/17/index.php?action_kouhyou_detail_004_kani=true&JigyosyoCd=1770102174-00&ServiceCd=170&Type=search" }, "geometry": { "type": "Point", "coordinates": [ 136.641191152531405, 36.596315796682795 ] } },
{ "type": "Feature", "properties": { "内容": "ダスキンヘルスレント金沢ステーション【福祉用具貸与】石川県金沢市割出町６－１", "url2": "https://www.kaigokensaku.mhlw.go.jp/17/index.php?action_kouhyou_detail_004_kani=true&JigyosyoCd=1770102067-00&ServiceCd=170&Type=search" }, "geometry": { "type": "Point", "coordinates": [ 136.644153807146267, 36.601382009254557 ] } },
{ "type": "Feature", "properties": { "内容": "オークス株式会社ライフケア事業部金沢【福祉用具貸与】石川県金沢市鳴和台120", "url2": "https://www.kaigokensaku.mhlw.go.jp/17/index.php?action_kouhyou_detail_004_kani=true&JigyosyoCd=1770106738-00&ServiceCd=170&Type=search" }, "geometry": { "type": "Point", "coordinates": [ 136.6789193, 36.579535 ] } },
{ "type": "Feature", "properties": { "内容": "株式会社ハシノメディカル金沢営業所【福祉用具貸与】石川県金沢市神宮寺3丁目18-28", "url2": "https://www.kaigokensaku.mhlw.go.jp/17/index.php?action_kouhyou_detail_004_kani=true&JigyosyoCd=1770103263-00&ServiceCd=170&Type=search" }, "geometry": { "type": "Point", "coordinates": [ 136.666078238236963, 36.585983754447199 ] } },
{ "type": "Feature", "properties": { "内容": "ライフワン　金沢【福祉用具貸与】金沢市神野1丁目35番地", "url2": "https://www.kaigokensaku.mhlw.go.jp/17/index.php?action_kouhyou_detail_004_kani=true&JigyosyoCd=1770101382-00&ServiceCd=170&Type=search" }, "geometry": { "type": "Point", "coordinates": [ 136.5989237, 36.5666127 ] } },
{ "type": "Feature", "properties": { "内容": "グット・ケア【福祉用具貸与】石川県金沢市神野町東33番地", "url2": "https://www.kaigokensaku.mhlw.go.jp/17/index.php?action_kouhyou_detail_004_kani=true&JigyosyoCd=1770105508-00&ServiceCd=170&Type=search" }, "geometry": { "type": "Point", "coordinates": [ 136.599695047850474, 36.562775716107794 ] } },
{ "type": "Feature", "properties": { "内容": "石川医療器株式会社【福祉用具貸与】石川県金沢市直江東1丁目6番地", "url2": "https://www.kaigokensaku.mhlw.go.jp/17/index.php?action_kouhyou_detail_004_kani=true&JigyosyoCd=1770100194-00&ServiceCd=170&Type=search" }, "geometry": { "type": "Point", "coordinates": [ 136.638207788160685, 36.613148324506568 ] } },
{ "type": "Feature", "properties": { "内容": "ケア・サンエス金沢【福祉用具貸与】金沢市　問屋町　３丁目　１０番地", "url2": "https://www.kaigokensaku.mhlw.go.jp/17/index.php?action_kouhyou_detail_004_kani=true&JigyosyoCd=1770101143-00&ServiceCd=170&Type=search" }, "geometry": { "type": "Point", "coordinates": [ 136.63675760000001, 36.609213 ] } },
{ "type": "Feature", "properties": { "内容": "株式会社ヤマシタ　金沢営業所【福祉用具貸与】石川県金沢市黒田２丁目１０番地", "url2": "https://www.kaigokensaku.mhlw.go.jp/17/index.php?action_kouhyou_detail_004_kani=true&JigyosyoCd=1770100046-00&ServiceCd=170&Type=search" }, "geometry": { "type": "Point", "coordinates": [ 136.614427699999965, 36.5601024 ] } },
{ "type": "Feature", "properties": { "内容": "アイテム金沢【福祉用具貸与】石川県金沢市米泉町2丁目76番地1", "url2": "https://www.kaigokensaku.mhlw.go.jp/17/index.php?action_kouhyou_detail_004_kani=true&JigyosyoCd=1770106118-00&ServiceCd=170&Type=search" }, "geometry": { "type": "Point", "coordinates": [ 136.624291500000027, 36.5444321 ] } },
{ "type": "Feature", "properties": { "内容": "セントラルメディカル株式会社【福祉用具貸与】西念3丁目1番5号", "url2": "https://www.kaigokensaku.mhlw.go.jp/17/index.php?action_kouhyou_detail_004_kani=true&JigyosyoCd=1770105532-00&ServiceCd=170&Type=search" }, "geometry": { "type": "Point", "coordinates": [ 136.637083299999972, 36.5861189 ] } },
{ "type": "Feature", "properties": { "内容": "株式会社メディペック【福祉用具貸与】金沢市西念3丁目1番5号", "url2": "https://www.kaigokensaku.mhlw.go.jp/17/index.php?action_kouhyou_detail_004_kani=true&JigyosyoCd=1770100061-00&ServiceCd=170&Type=search" }, "geometry": { "type": "Point", "coordinates": [ 136.637083299999972, 36.5861189 ] } },
{ "type": "Feature", "properties": { "内容": "福祉用具COCO【福祉用具貸与】石川県金沢市直江西１－２１GeoCave03", "url2": "https://www.kaigokensaku.mhlw.go.jp/17/index.php?action_kouhyou_detail_004_kani=true&JigyosyoCd=1770107447-00&ServiceCd=170&Type=search" }, "geometry": { "type": "Point", "coordinates": [ 136.6360056, 36.6110325 ] } },
{ "type": "Feature", "properties": { "内容": "福祉用具の窓口FLOS【福祉用具貸与】石川県金沢市疋田1丁目215番地2F", "url2": "https://www.kaigokensaku.mhlw.go.jp/17/index.php?action_kouhyou_detail_004_kani=true&JigyosyoCd=1770107272-00&ServiceCd=170&Type=search" }, "geometry": { "type": "Point", "coordinates": [ 136.673310531924216, 36.602894894143873 ] } },
{ "type": "Feature", "properties": { "内容": "株式会社Ｒｏｏｔｓ【福祉用具貸与】石川県金沢市打木町東１４１４番地", "url2": "https://www.kaigokensaku.mhlw.go.jp/17/index.php?action_kouhyou_detail_004_kani=true&JigyosyoCd=1770106878-00&ServiceCd=170&Type=search" }, "geometry": { "type": "Point", "coordinates": [ 136.566237199999989, 36.5658775 ] } },
{ "type": "Feature", "properties": { "内容": "こすもす福祉用具事業所【福祉用具貸与】諸江町下丁88番地1", "url2": "https://www.kaigokensaku.mhlw.go.jp/17/index.php?action_kouhyou_detail_004_kani=true&JigyosyoCd=1770107769-00&ServiceCd=170&Type=search" }, "geometry": { "type": "Point", "coordinates": [ 136.643754, 36.6041867 ] } },
{ "type": "Feature", "properties": { "内容": "PTK福祉用具サービスセンター【福祉用具貸与】石川県金沢市専光寺町レ4番地29シーガルl102", "url2": "https://www.kaigokensaku.mhlw.go.jp/17/index.php?action_kouhyou_detail_004_kani=true&JigyosyoCd=1770107728-00&ServiceCd=170&Type=search" }, "geometry": { "type": "Point", "coordinates": [ 136.58306540000001, 36.5869449 ] } },
{ "type": "Feature", "properties": { "内容": "シルバーサポートのと七尾店【福祉用具貸与】石川県七尾市本府中町チ部32番地の5", "url2": "https://www.kaigokensaku.mhlw.go.jp/17/index.php?action_kouhyou_detail_004_kani=true&JigyosyoCd=1770200481-00&ServiceCd=170&Type=search" }, "geometry": { "type": "Point", "coordinates": [ 136.968914461715741, 37.037363466923203 ] } },
{ "type": "Feature", "properties": { "内容": "福祉用具レンタルステーション　恵寿【福祉用具貸与】七尾市富岡町95番地", "url2": "https://www.kaigokensaku.mhlw.go.jp/17/index.php?action_kouhyou_detail_004_kani=true&JigyosyoCd=1710210319-00&ServiceCd=170&Type=search" }, "geometry": { "type": "Point", "coordinates": [ 136.961229099999969, 37.050551 ] } },
{ "type": "Feature", "properties": { "内容": "オークス株式会社ライフケア事業部七尾【福祉用具貸与】七尾市藤橋町酉部70番地", "url2": "https://www.kaigokensaku.mhlw.go.jp/17/index.php?action_kouhyou_detail_004_kani=true&JigyosyoCd=1770200085-00&ServiceCd=170&Type=search" }, "geometry": { "type": "Point", "coordinates": [ 136.9537137, 37.0417152 ] } },
{ "type": "Feature", "properties": { "内容": "JAきらら指定福祉用具貸与事業所【福祉用具貸与】小松市長谷町５０番地５", "url2": "https://www.kaigokensaku.mhlw.go.jp/17/index.php?action_kouhyou_detail_004_kani=true&JigyosyoCd=1770300018-00&ServiceCd=170&Type=search" }, "geometry": { "type": "Point", "coordinates": [ 136.485775099999955, 36.3568784 ] } },
{ "type": "Feature", "properties": { "内容": "松寿園福祉用具サービス事業所【福祉用具貸与】石川県小松市向本折町ホ３１番地", "url2": "https://www.kaigokensaku.mhlw.go.jp/17/index.php?action_kouhyou_detail_004_kani=true&JigyosyoCd=1770300083-00&ServiceCd=170&Type=search" }, "geometry": { "type": "Point", "coordinates": [ 136.439639299999953, 36.3968509 ] } },
{ "type": "Feature", "properties": { "内容": "長寿メディカル【福祉用具貸与】石川県小松市上小松町丙41番地1", "url2": "https://www.kaigokensaku.mhlw.go.jp/17/index.php?action_kouhyou_detail_004_kani=true&JigyosyoCd=1760390821-00&ServiceCd=170&Type=search" }, "geometry": { "type": "Point", "coordinates": [ 136.46467240000004, 36.4080918 ] } },
{ "type": "Feature", "properties": { "内容": "株式会社ケアプラス福祉用具事業所【福祉用具貸与】小松市今江町は６５番地２", "url2": "https://www.kaigokensaku.mhlw.go.jp/17/index.php?action_kouhyou_detail_004_kani=true&JigyosyoCd=1770300075-00&ServiceCd=170&Type=search" }, "geometry": { "type": "Point", "coordinates": [ 136.44921919280705, 36.379363924717502 ] } },
{ "type": "Feature", "properties": { "内容": "アイテム小松【福祉用具貸与】石川県小松市日の出町3丁目302番地", "url2": "https://www.kaigokensaku.mhlw.go.jp/17/index.php?action_kouhyou_detail_004_kani=true&JigyosyoCd=1770300943-00&ServiceCd=170&Type=search" }, "geometry": { "type": "Point", "coordinates": [ 136.453170600000021, 36.3997009 ] } },
{ "type": "Feature", "properties": { "内容": "ライフワン小松【福祉用具貸与】石川県小松市有明町　71番地", "url2": "https://www.kaigokensaku.mhlw.go.jp/17/index.php?action_kouhyou_detail_004_kani=true&JigyosyoCd=1770300273-00&ServiceCd=170&Type=search" }, "geometry": { "type": "Point", "coordinates": [ 136.458425799999986, 36.399454 ] } },
{ "type": "Feature", "properties": { "内容": "ケア・サンエス　小松【福祉用具貸与】小松市　大領町　な　７番地", "url2": "https://www.kaigokensaku.mhlw.go.jp/17/index.php?action_kouhyou_detail_004_kani=true&JigyosyoCd=1770300232-00&ServiceCd=170&Type=search" }, "geometry": { "type": "Point", "coordinates": [ 136.453948800000035, 36.3846698 ] } },
{ "type": "Feature", "properties": { "内容": "株式会社　森谷寝具店　ヘルスサポートけんねる　メディカルサービス事業部【福祉用具貸与】輪島市河井町３部１９９番地の１", "url2": "https://www.kaigokensaku.mhlw.go.jp/17/index.php?action_kouhyou_detail_004_kani=true&JigyosyoCd=1770400149-00&ServiceCd=170&Type=search" }, "geometry": { "type": "Point", "coordinates": [ 136.904635630766251, 37.392603098398681 ] } },
{ "type": "Feature", "properties": { "内容": "有限会社　ライフサポート【福祉用具貸与】輪島市山岸町い４７番２", "url2": "https://www.kaigokensaku.mhlw.go.jp/17/index.php?action_kouhyou_detail_004_kani=true&JigyosyoCd=1770400081-00&ServiceCd=170&Type=search" }, "geometry": { "type": "Point", "coordinates": [ 136.909211899999946, 37.3835302 ] } },
{ "type": "Feature", "properties": { "内容": "株式会社　プロモート【福祉用具貸与】石川県珠洲市上戸町北方い33番地1号", "url2": "https://www.kaigokensaku.mhlw.go.jp/17/index.php?action_kouhyou_detail_004_kani=true&JigyosyoCd=1770500062-00&ServiceCd=170&Type=search" }, "geometry": { "type": "Point", "coordinates": [ 137.25870610000004, 37.4348697 ] } },
{ "type": "Feature", "properties": { "内容": "株式会社タスカル【福祉用具貸与】石川県羽咋市千里浜町ル２－４フォレストヒルズＡ１０３", "url2": "https://www.kaigokensaku.mhlw.go.jp/17/index.php?action_kouhyou_detail_004_kani=true&JigyosyoCd=1770700357-00&ServiceCd=170&Type=search" }, "geometry": { "type": "Point", "coordinates": [ 136.770255499999962, 36.8860356 ] } },
{ "type": "Feature", "properties": { "内容": "有限会社　ダイリカ【福祉用具貸与】石川県羽咋市大川町北新237番地", "url2": "https://www.kaigokensaku.mhlw.go.jp/17/index.php?action_kouhyou_detail_004_kani=true&JigyosyoCd=1770700092-00&ServiceCd=170&Type=search" }, "geometry": { "type": "Point", "coordinates": [ 136.774735809786961, 36.904320316807066 ] } },
{ "type": "Feature", "properties": { "内容": "ライフワン　かほく【福祉用具貸与】石川県かほく市遠塚イ7番地７", "url2": "https://www.kaigokensaku.mhlw.go.jp/17/index.php?action_kouhyou_detail_004_kani=true&JigyosyoCd=1772100168-00&ServiceCd=170&Type=search" }, "geometry": { "type": "Point", "coordinates": [ 136.706340100000034, 36.7377404 ] } },
{ "type": "Feature", "properties": { "内容": "スマイルワン【福祉用具貸与】石川県白山市村井町322-6西川テナント1階", "url2": "https://www.kaigokensaku.mhlw.go.jp/17/index.php?action_kouhyou_detail_004_kani=true&JigyosyoCd=1772200992-00&ServiceCd=170&Type=search" }, "geometry": { "type": "Point", "coordinates": [ 136.558373, 36.5149986 ] } },
{ "type": "Feature", "properties": { "内容": "株式会社　ハンディーエイド【福祉用具貸与】石川県白山市北安田町5244番地", "url2": "https://www.kaigokensaku.mhlw.go.jp/17/index.php?action_kouhyou_detail_004_kani=true&JigyosyoCd=1772200158-00&ServiceCd=170&Type=search" }, "geometry": { "type": "Point", "coordinates": [ 136.550012, 36.5212506 ] } },
{ "type": "Feature", "properties": { "内容": "Ｌｉｆｅｃａｒｅいしかわ【福祉用具貸与】石川県能美市緑が丘１１丁目１９番地", "url2": "https://www.kaigokensaku.mhlw.go.jp/17/index.php?action_kouhyou_detail_004_kani=true&JigyosyoCd=1772300537-00&ServiceCd=170&Type=search" }, "geometry": { "type": "Point", "coordinates": [ 136.533595809786988, 36.441627624982416 ] } },
{ "type": "Feature", "properties": { "内容": "福祉用具事業所ニルヴァーナ【福祉用具貸与】石川県野々市市本町3丁目6番31号", "url2": "https://www.kaigokensaku.mhlw.go.jp/17/index.php?action_kouhyou_detail_004_kani=true&JigyosyoCd=1771300686-00&ServiceCd=170&Type=search" }, "geometry": { "type": "Point", "coordinates": [ 136.615539458860781, 36.533278201353362 ] } },
{ "type": "Feature", "properties": { "内容": "てまりケアサポート【福祉用具貸与】石川県野々市市郷１丁目１３１番地", "url2": "https://www.kaigokensaku.mhlw.go.jp/17/index.php?action_kouhyou_detail_004_kani=true&JigyosyoCd=1771300850-00&ServiceCd=170&Type=search" }, "geometry": { "type": "Point", "coordinates": [ 136.5876475, 36.5349165 ] } },
{ "type": "Feature", "properties": { "内容": "有限会社　せいほく【福祉用具貸与】石川県羽咋郡志賀町高浜町クー3番地６７", "url2": "https://www.kaigokensaku.mhlw.go.jp/17/index.php?action_kouhyou_detail_004_kani=true&JigyosyoCd=1771500202-00&ServiceCd=170&Type=search" }, "geometry": { "type": "Point", "coordinates": [ 136.7768158, 37.0028624 ] } },
{ "type": "Feature", "properties": { "内容": "株式会社ウインデル【福祉用具貸与】石川県羽咋郡宝達志水町北川尻ナ33", "url2": "https://www.kaigokensaku.mhlw.go.jp/17/index.php?action_kouhyou_detail_004_kani=true&JigyosyoCd=1771500384-00&ServiceCd=170&Type=search" }, "geometry": { "type": "Point", "coordinates": [ 136.7420057, 36.8026847 ] } }
]
}
