{
"type": "FeatureCollection",
"name": "geo_17_幼稚園",
"crs": { "type": "name", "properties": { "name": "urn:ogc:def:crs:EPSG::6668" } },
"features": [
{ "type": "Feature", "properties": { "P29_001": "17201", "P29_002": "A117110000014", "P29_003": "16011", "P29_004": "金沢大学人間社会学域学校教育学類附属幼稚園", "P29_005": "石川県金沢市平和町1-1-15", "P29_006": "1", "P29_007": "0", "P29_008": "00", "P29_009": null }, "geometry": { "type": "Point", "coordinates": [ 136.66638637170584, 36.537088148423734 ] } },
{ "type": "Feature", "properties": { "P29_001": "17201", "P29_002": "A117320100018", "P29_003": "16011", "P29_004": "藤蔭幼稚園", "P29_005": "石川県金沢市笠市町2-47", "P29_006": "4", "P29_007": "0", "P29_008": "00", "P29_009": null }, "geometry": { "type": "Point", "coordinates": [ 136.656016545959233, 36.57777797761247 ] } },
{ "type": "Feature", "properties": { "P29_001": "17201", "P29_002": "A117320100027", "P29_003": "16011", "P29_004": "かわい幼稚園", "P29_005": "石川県金沢市泉本町3-111", "P29_006": "4", "P29_007": "0", "P29_008": "00", "P29_009": null }, "geometry": { "type": "Point", "coordinates": [ 136.634355927313635, 36.550654972359752 ] } },
{ "type": "Feature", "properties": { "P29_001": "17201", "P29_002": "A117320100036", "P29_003": "16011", "P29_004": "金石幼稚園", "P29_005": "石川県金沢市金石本町ロ53", "P29_006": "4", "P29_007": "0", "P29_008": "00", "P29_009": null }, "geometry": { "type": "Point", "coordinates": [ 136.597397003925494, 36.596818997401314 ] } },
{ "type": "Feature", "properties": { "P29_001": "17201", "P29_002": "A117320100045", "P29_003": "16011", "P29_004": "金沢学園幼稚園", "P29_005": "石川県金沢市寺町2-1-4", "P29_006": "4", "P29_007": "0", "P29_008": "00", "P29_009": null }, "geometry": { "type": "Point", "coordinates": [ 136.654778002367806, 36.550465003382648 ] } },
{ "type": "Feature", "properties": { "P29_001": "17201", "P29_002": "A117320100054", "P29_003": "16011", "P29_004": "藤花幼稚園", "P29_005": "石川県金沢市上安原町169-1", "P29_006": "4", "P29_007": "0", "P29_008": "00", "P29_009": null }, "geometry": { "type": "Point", "coordinates": [ 136.585071126155555, 36.566548947011931 ] } },
{ "type": "Feature", "properties": { "P29_001": "17201", "P29_002": "A117320100063", "P29_003": "16011", "P29_004": "玄門寺幼稚園", "P29_005": "石川県金沢市東山2-14-33", "P29_006": "4", "P29_007": "0", "P29_008": "00", "P29_009": null }, "geometry": { "type": "Point", "coordinates": [ 136.667633096981291, 36.57523767873591 ] } },
{ "type": "Feature", "properties": { "P29_001": "17201", "P29_002": "A117320100072", "P29_003": "16011", "P29_004": "木の花幼稚園", "P29_005": "石川県金沢市長町3-1-15", "P29_006": "4", "P29_007": "0", "P29_008": "00", "P29_009": null }, "geometry": { "type": "Point", "coordinates": [ 136.647477067947761, 36.565762632194684 ] } },
{ "type": "Feature", "properties": { "P29_001": "17201", "P29_002": "A117320100081", "P29_003": "16011", "P29_004": "若草幼稚園", "P29_005": "石川県金沢市若草町13-41", "P29_006": "4", "P29_007": "0", "P29_008": "00", "P29_009": null }, "geometry": { "type": "Point", "coordinates": [ 136.659812583497143, 36.544539379220893 ] } },
{ "type": "Feature", "properties": { "P29_001": "17201", "P29_002": "A117320100107", "P29_003": "16011", "P29_004": "済美幼稚園", "P29_005": "石川県金沢市朝霧台2-67", "P29_006": "4", "P29_007": "0", "P29_008": "00", "P29_009": null }, "geometry": { "type": "Point", "coordinates": [ 136.697640995200913, 36.534750997653347 ] } },
{ "type": "Feature", "properties": { "P29_001": "17201", "P29_002": "A117320100125", "P29_003": "16011", "P29_004": "北陸学院第一幼稚園", "P29_005": "石川県金沢市三小牛町ハ1-1", "P29_006": "4", "P29_007": "0", "P29_008": "00", "P29_009": null }, "geometry": { "type": "Point", "coordinates": [ 136.673172758968661, 36.519609081157078 ] } },
{ "type": "Feature", "properties": { "P29_001": "17201", "P29_002": "A117320100134", "P29_003": "16011", "P29_004": "天徳幼稚園", "P29_005": "石川県金沢市小立野4-4-4", "P29_006": "4", "P29_007": "0", "P29_008": "00", "P29_009": null }, "geometry": { "type": "Point", "coordinates": [ 136.676850180379574, 36.551965912374314 ] } },
{ "type": "Feature", "properties": { "P29_001": "17201", "P29_002": "A117320100152", "P29_003": "16011", "P29_004": "白銀幼稚園", "P29_005": "石川県金沢市芳斉2-2-24", "P29_006": "4", "P29_007": "0", "P29_008": "00", "P29_009": null }, "geometry": { "type": "Point", "coordinates": [ 136.64922896659229, 36.571494089467258 ] } },
{ "type": "Feature", "properties": { "P29_001": "17201", "P29_002": "A117320100161", "P29_003": "16011", "P29_004": "清泉幼稚園", "P29_005": "石川県金沢市橋場町13-17", "P29_006": "4", "P29_007": "0", "P29_008": "00", "P29_009": null }, "geometry": { "type": "Point", "coordinates": [ 136.667697769927798, 36.569272933582006 ] } },
{ "type": "Feature", "properties": { "P29_001": "17201", "P29_002": "A117320100170", "P29_003": "16011", "P29_004": "川上幼稚園", "P29_005": "石川県金沢市幸町17-34", "P29_006": "4", "P29_007": "0", "P29_008": "00", "P29_009": null }, "geometry": { "type": "Point", "coordinates": [ 136.659198061553923, 36.553260328213987 ] } },
{ "type": "Feature", "properties": { "P29_001": "17201", "P29_002": "A117320100189", "P29_003": "16011", "P29_004": "愛香南部幼稚園", "P29_005": "石川県金沢市泉が丘1-16-8", "P29_006": "4", "P29_007": "0", "P29_008": "00", "P29_009": null }, "geometry": { "type": "Point", "coordinates": [ 136.646241335115491, 36.544583141648559 ] } },
{ "type": "Feature", "properties": { "P29_001": "17201", "P29_002": "A117320100198", "P29_003": "16011", "P29_004": "聖ヨゼフ幼稚園", "P29_005": "石川県金沢市広坂1-1-54", "P29_006": "4", "P29_007": "0", "P29_008": "00", "P29_009": null }, "geometry": { "type": "Point", "coordinates": [ 136.655300002863925, 36.561536998873962 ] } },
{ "type": "Feature", "properties": { "P29_001": "17201", "P29_002": "A117320100205", "P29_003": "16011", "P29_004": "金沢めぐみ幼稚園", "P29_005": "石川県金沢市笠舞2-6-28", "P29_006": "4", "P29_007": "0", "P29_008": "00", "P29_009": null }, "geometry": { "type": "Point", "coordinates": [ 136.668877694972821, 36.551574211873287 ] } },
{ "type": "Feature", "properties": { "P29_001": "17201", "P29_002": "A117320100214", "P29_003": "16011", "P29_004": "妙源寺幼稚園", "P29_005": "石川県金沢市光が丘2-119", "P29_006": "4", "P29_007": "0", "P29_008": "00", "P29_009": null }, "geometry": { "type": "Point", "coordinates": [ 136.628551005547337, 36.516731002563276 ] } },
{ "type": "Feature", "properties": { "P29_001": "17201", "P29_002": "A117320100223", "P29_003": "16011", "P29_004": "メロン幼稚園", "P29_005": "石川県金沢市福久町ル-1-1", "P29_006": "4", "P29_007": "0", "P29_008": "00", "P29_009": null }, "geometry": { "type": "Point", "coordinates": [ 136.676692997189548, 36.616744997056713 ] } },
{ "type": "Feature", "properties": { "P29_001": "17201", "P29_002": "A117320100232", "P29_003": "16011", "P29_004": "第二かわい幼稚園", "P29_005": "石川県金沢市入江1-203-1", "P29_006": "4", "P29_007": "0", "P29_008": "00", "P29_009": null }, "geometry": { "type": "Point", "coordinates": [ 136.63218248954621, 36.567221182754977 ] } },
{ "type": "Feature", "properties": { "P29_001": "17201", "P29_002": "A117320100241", "P29_003": "16011", "P29_004": "伏見かわい幼稚園", "P29_005": "石川県金沢市米泉町5-26", "P29_006": "4", "P29_007": "0", "P29_008": "00", "P29_009": null }, "geometry": { "type": "Point", "coordinates": [ 136.625770803437007, 36.549751073717651 ] } },
{ "type": "Feature", "properties": { "P29_001": "17201", "P29_002": "A117320100250", "P29_003": "16011", "P29_004": "みどりかわい幼稚園", "P29_005": "石川県金沢市上安原2-130-1", "P29_006": "4", "P29_007": "0", "P29_008": "00", "P29_009": null }, "geometry": { "type": "Point", "coordinates": [ 136.588666953571646, 36.567286216047961 ] } },
{ "type": "Feature", "properties": { "P29_001": "17201", "P29_002": "A117320100269", "P29_003": "16011", "P29_004": "明成幼稚園", "P29_005": "石川県金沢市寺中町ホ29-1", "P29_006": "4", "P29_007": "0", "P29_008": "00", "P29_009": null }, "geometry": { "type": "Point", "coordinates": [ 136.603342718593723, 36.597294316726916 ] } },
{ "type": "Feature", "properties": { "P29_001": "17201", "P29_002": "A117320100278", "P29_003": "16011", "P29_004": "金沢星稜大学附属星稜泉野幼稚園", "P29_005": "石川県金沢市泉野町6-17-30", "P29_006": "4", "P29_007": "0", "P29_008": "00", "P29_009": null }, "geometry": { "type": "Point", "coordinates": [ 136.648815005969936, 36.542013002014244 ] } },
{ "type": "Feature", "properties": { "P29_001": "17201", "P29_002": "A117320100287", "P29_003": "16011", "P29_004": "慶応幼稚園", "P29_005": "石川県金沢市金市町ロ15", "P29_006": "4", "P29_007": "0", "P29_008": "00", "P29_009": null }, "geometry": { "type": "Point", "coordinates": [ 136.68069428104593, 36.610464863836405 ] } },
{ "type": "Feature", "properties": { "P29_001": "17203", "P29_002": "A117320300016", "P29_003": "16011", "P29_004": "白楊幼稚園", "P29_005": "石川県小松市小馬出町131", "P29_006": "4", "P29_007": "0", "P29_008": "00", "P29_009": null }, "geometry": { "type": "Point", "coordinates": [ 136.44661502469836, 36.407996389822003 ] } },
{ "type": "Feature", "properties": { "P29_001": "17203", "P29_002": "A117320300025", "P29_003": "16011", "P29_004": "小松大谷幼稚園", "P29_005": "石川県小松市丸ノ内町1-54-3", "P29_006": "4", "P29_007": "0", "P29_008": "00", "P29_009": null }, "geometry": { "type": "Point", "coordinates": [ 136.445591781654514, 36.410013047828009 ] } },
{ "type": "Feature", "properties": { "P29_001": "17203", "P29_002": "A117320300034", "P29_003": "16011", "P29_004": "粟津学園北陸幼稚園", "P29_005": "石川県小松市湯ノ上町ハ24", "P29_006": "4", "P29_007": "0", "P29_008": "00", "P29_009": null }, "geometry": { "type": "Point", "coordinates": [ 136.441054195328576, 36.328789758513082 ] } },
{ "type": "Feature", "properties": { "P29_001": "17203", "P29_002": "A117320300043", "P29_003": "16011", "P29_004": "聖愛幼稚園", "P29_005": "石川県小松市本町3-13-1", "P29_006": "4", "P29_007": "0", "P29_008": "00", "P29_009": null }, "geometry": { "type": "Point", "coordinates": [ 136.445263950355582, 36.40286591694781 ] } },
{ "type": "Feature", "properties": { "P29_001": "17203", "P29_002": "A117320300052", "P29_003": "16011", "P29_004": "なかよし幼稚園", "P29_005": "石川県小松市大領町そ16-2", "P29_006": "4", "P29_007": "0", "P29_008": "00", "P29_009": null }, "geometry": { "type": "Point", "coordinates": [ 136.451676158803451, 36.385374274853064 ] } },
{ "type": "Feature", "properties": { "P29_001": "17203", "P29_002": "A117320300061", "P29_003": "16011", "P29_004": "幼稚園型認定こども園聖テレジア幼稚園", "P29_005": "石川県小松市浜田町ロ42-2", "P29_006": "4", "P29_007": "0", "P29_008": "00", "P29_009": null }, "geometry": { "type": "Point", "coordinates": [ 136.443642995974386, 36.406930998609901 ] } },
{ "type": "Feature", "properties": { "P29_001": "17203", "P29_002": "A117320300070", "P29_003": "16011", "P29_004": "白嶺幼稚園", "P29_005": "石川県小松市島町ニ-2", "P29_006": "4", "P29_007": "0", "P29_008": "00", "P29_009": null }, "geometry": { "type": "Point", "coordinates": [ 136.432510621185884, 36.348861949578428 ] } },
{ "type": "Feature", "properties": { "P29_001": "17205", "P29_002": "A117320500014", "P29_003": "16011", "P29_004": "鈴幼稚園", "P29_005": "石川県珠洲市飯田町9-155", "P29_006": "4", "P29_007": "0", "P29_008": "00", "P29_009": null }, "geometry": { "type": "Point", "coordinates": [ 137.263951552302814, 37.440455736853245 ] } },
{ "type": "Feature", "properties": { "P29_001": "17206", "P29_002": "A117320600013", "P29_003": "16011", "P29_004": "かが幼稚園", "P29_005": "石川県加賀市大聖寺岡町ホ34", "P29_006": "4", "P29_007": "0", "P29_008": "00", "P29_009": null }, "geometry": { "type": "Point", "coordinates": [ 136.317562944270179, 36.314994050824097 ] } },
{ "type": "Feature", "properties": { "P29_001": "17210", "P29_002": "A117321000017", "P29_003": "16011", "P29_004": "とくの幼稚園", "P29_005": "石川県白山市番匠町242", "P29_006": "4", "P29_007": "0", "P29_008": "00", "P29_009": null }, "geometry": { "type": "Point", "coordinates": [ 136.5822558227608, 36.531377666520484 ] } },
{ "type": "Feature", "properties": { "P29_001": "17210", "P29_002": "A117321000026", "P29_003": "16011", "P29_004": "ちよの幼稚園", "P29_005": "石川県白山市千代野東4-16", "P29_006": "4", "P29_007": "0", "P29_008": "00", "P29_009": null }, "geometry": { "type": "Point", "coordinates": [ 136.542263721132258, 36.523449320972887 ] } },
{ "type": "Feature", "properties": { "P29_001": "17210", "P29_002": "A117321000035", "P29_003": "16011", "P29_004": "金城大学附属西南幼稚園", "P29_005": "石川県白山市笠間町1201", "P29_006": "4", "P29_007": "0", "P29_008": "00", "P29_009": null }, "geometry": { "type": "Point", "coordinates": [ 136.528702031929384, 36.508526043446288 ] } },
{ "type": "Feature", "properties": { "P29_001": "17210", "P29_002": "A117321000044", "P29_003": "16011", "P29_004": "鶴来第一幼稚園", "P29_005": "石川県白山市鶴来日吉町ロ130", "P29_006": "4", "P29_007": "0", "P29_008": "00", "P29_009": null }, "geometry": { "type": "Point", "coordinates": [ 136.634227281594235, 36.444309587809812 ] } },
{ "type": "Feature", "properties": { "P29_001": "17210", "P29_002": "A117321000053", "P29_003": "16011", "P29_004": "鶴来第二幼稚園", "P29_005": "石川県白山市日向町7", "P29_006": "4", "P29_007": "0", "P29_008": "00", "P29_009": null }, "geometry": { "type": "Point", "coordinates": [ 136.595298305774634, 36.48388372375215 ] } },
{ "type": "Feature", "properties": { "P29_001": "17212", "P29_002": "A117321200015", "P29_003": "16011", "P29_004": "北陸学院扇が丘幼稚園", "P29_005": "石川県野々市市本町5-6-23", "P29_006": "4", "P29_007": "0", "P29_008": "00", "P29_009": null }, "geometry": { "type": "Point", "coordinates": [ 136.608682280550624, 36.530980213412015 ] } },
{ "type": "Feature", "properties": { "P29_001": "17361", "P29_002": "A117336100014", "P29_003": "16011", "P29_004": "津幡とくの幼稚園", "P29_005": "石川県河北郡津幡町字潟端715-1", "P29_006": "4", "P29_007": "0", "P29_008": "00", "P29_009": null }, "geometry": { "type": "Point", "coordinates": [ 136.712235994217878, 36.648291996504781 ] } },
{ "type": "Feature", "properties": { "P29_001": "17407", "P29_002": "A117340700010", "P29_003": "16011", "P29_004": "ひかり幼稚園", "P29_005": "石川県鹿島郡中能登町福田ク部9", "P29_006": "4", "P29_007": "0", "P29_008": "00", "P29_009": null }, "geometry": { "type": "Point", "coordinates": [ 136.868684002763075, 36.945781998639582 ] } }
]
}
