{
"type": "FeatureCollection",
"name": "geo_17_地域密着型通所介護",
"crs": { "type": "name", "properties": { "name": "urn:ogc:def:crs:OGC:1.3:CRS84" } },
"features": [
{ "type": "Feature", "properties": { "内容": "茶話本舗デイサービスいずみの亭【地域密着型通所介護】石川県金沢市泉野出町2丁目20-8", "url": "https://www.kaigokensaku.mhlw.go.jp/17/index.php?action_kouhyou_detail_004_kani=true&JigyosyoCd=1790100729-00&ServiceCd=780&Type=search", "url2": null }, "geometry": { "type": "Point", "coordinates": [ 136.653283800000054, 36.5371838 ] } },
{ "type": "Feature", "properties": { "内容": "デイサービスうらうら【地域密着型通所介護】石川県金沢市諸江町下丁２８９番地３", "url": "https://www.kaigokensaku.mhlw.go.jp/17/index.php?action_kouhyou_detail_004_kani=true&JigyosyoCd=1770103495-00&ServiceCd=780&Type=search", "url2": "day-uraura.com" }, "geometry": { "type": "Point", "coordinates": [ 136.647074182760662, 36.603537677155181 ] } },
{ "type": "Feature", "properties": { "内容": "想愛入江デイサービス【地域密着型通所介護】石川県金沢市入江３丁目153番地2", "url": "https://www.kaigokensaku.mhlw.go.jp/17/index.php?action_kouhyou_detail_004_kani=true&JigyosyoCd=1790101172-00&ServiceCd=780&Type=search", "url2": "http://www.suncare-life.com/" }, "geometry": { "type": "Point", "coordinates": [ 136.622976200000011, 36.5687586 ] } },
{ "type": "Feature", "properties": { "内容": "デイサービスセンター　Paradis　de　Vieillards【地域密着型通所介護】石川県金沢市泉が丘１丁目３－８５", "url": "https://www.kaigokensaku.mhlw.go.jp/17/index.php?action_kouhyou_detail_004_kani=true&JigyosyoCd=1770104907-00&ServiceCd=780&Type=search", "url2": "https://kihoukai.jp" }, "geometry": { "type": "Point", "coordinates": [ 136.647154930619081, 36.545975888735171 ] } },
{ "type": "Feature", "properties": { "内容": "デイサービスきたえるーむ金沢高尾台【地域密着型通所介護】石川県金沢市高尾台1丁目79", "url": "https://www.kaigokensaku.mhlw.go.jp/17/index.php?action_kouhyou_detail_004_kani=true&JigyosyoCd=1770105557-00&ServiceCd=780&Type=search", "url2": "http://kitaeroom.com/shop/post-75.shtml" }, "geometry": { "type": "Point", "coordinates": [ 136.636771400000043, 36.5240044 ] } },
{ "type": "Feature", "properties": { "内容": "樹楽旭なごみ園【地域密着型通所介護】石川県金沢市旭町１丁目８番地４３", "url": "https://www.kaigokensaku.mhlw.go.jp/17/index.php?action_kouhyou_detail_004_kani=true&JigyosyoCd=1790101354-00&ServiceCd=780&Type=search", "url2": null }, "geometry": { "type": "Point", "coordinates": [ 136.6859374, 36.5490072 ] } },
{ "type": "Feature", "properties": { "内容": "ひなげしの家【地域密着型通所介護】石川県金沢市法光寺町214番地", "url": "https://www.kaigokensaku.mhlw.go.jp/17/index.php?action_kouhyou_detail_004_kani=true&JigyosyoCd=1770104790-00&ServiceCd=780&Type=search", "url2": null }, "geometry": { "type": "Point", "coordinates": [ 136.682573700000034, 36.6021954 ] } },
{ "type": "Feature", "properties": { "内容": "ちょっこりネットみんちか【地域密着型通所介護】金沢市北安江4丁目26番2号", "url": "https://www.kaigokensaku.mhlw.go.jp/17/index.php?action_kouhyou_detail_004_kani=true&JigyosyoCd=1770102414-00&ServiceCd=780&Type=search", "url2": "https://mintika55.amebaownd.com/" }, "geometry": { "type": "Point", "coordinates": [ 136.642119, 36.5874494 ] } },
{ "type": "Feature", "properties": { "内容": "デイサービスりん【地域密着型通所介護】石川県金沢市神宮寺2丁目１５－１３", "url": "https://www.kaigokensaku.mhlw.go.jp/17/index.php?action_kouhyou_detail_004_kani=true&JigyosyoCd=1770104188-00&ServiceCd=780&Type=search", "url2": null }, "geometry": { "type": "Point", "coordinates": [ 136.6684381, 36.5869081 ] } },
{ "type": "Feature", "properties": { "内容": "もりトレ　デイサービス【地域密着型通所介護】吉原町ヨ142ブルーメアベニュー1階", "url": "https://www.kaigokensaku.mhlw.go.jp/17/index.php?action_kouhyou_detail_004_kani=true&JigyosyoCd=1770104741-00&ServiceCd=780&Type=search", "url2": null }, "geometry": { "type": "Point", "coordinates": [ 136.691567, 36.6109777 ] } },
{ "type": "Feature", "properties": { "内容": "ほっとスパ兼六【地域密着型通所介護】田井町10-26", "url": "https://www.kaigokensaku.mhlw.go.jp/17/index.php?action_kouhyou_detail_004_kani=true&JigyosyoCd=1770104774-00&ServiceCd=780&Type=search", "url2": null }, "geometry": { "type": "Point", "coordinates": [ 136.6782955, 36.5600645 ] } },
{ "type": "Feature", "properties": { "内容": "こみけあデイサービス光が丘弐番館【地域密着型通所介護】金沢市光が丘3丁目1番地こみけあ光が丘弐番館", "url": "https://www.kaigokensaku.mhlw.go.jp/17/index.php?action_kouhyou_detail_004_kani=true&JigyosyoCd=1770104139-00&ServiceCd=780&Type=search", "url2": "http://www.komicare.co.ｊp" }, "geometry": { "type": "Point", "coordinates": [ 136.626694600000064, 36.5148191 ] } },
{ "type": "Feature", "properties": { "内容": "おしのハウス【地域密着型通所介護】金沢市押野2-162", "url": "https://www.kaigokensaku.mhlw.go.jp/17/index.php?action_kouhyou_detail_004_kani=true&JigyosyoCd=1770102315-00&ServiceCd=780&Type=search", "url2": "http://www.yasuragi39.com/" }, "geometry": { "type": "Point", "coordinates": [ 136.617055899999968, 36.5487759 ] } },
{ "type": "Feature", "properties": { "内容": "デイサービスGGフィットネス金沢【地域密着型通所介護】金沢市大豆田本町甲534", "url": "https://www.kaigokensaku.mhlw.go.jp/17/index.php?action_kouhyou_detail_004_kani=true&JigyosyoCd=1770104535-00&ServiceCd=780&Type=search", "url2": null }, "geometry": { "type": "Point", "coordinates": [ 136.633522800000037, 36.5731289 ] } },
{ "type": "Feature", "properties": { "内容": "シミユトランクセンター【地域密着型通所介護】金沢市高畠2丁目35番地2", "url": "https://www.kaigokensaku.mhlw.go.jp/17/index.php?action_kouhyou_detail_004_kani=true&JigyosyoCd=1770104584-00&ServiceCd=780&Type=search", "url2": null }, "geometry": { "type": "Point", "coordinates": [ 136.6116581, 36.5696762 ] } },
{ "type": "Feature", "properties": { "内容": "はんなり【地域密着型通所介護】高尾南2丁目31番地", "url": "https://www.kaigokensaku.mhlw.go.jp/17/index.php?action_kouhyou_detail_004_kani=true&JigyosyoCd=1770104824-00&ServiceCd=780&Type=search", "url2": null }, "geometry": { "type": "Point", "coordinates": [ 136.6317358, 36.5182493 ] } },
{ "type": "Feature", "properties": { "内容": "Ｓｈａｒｅ金沢【地域密着型通所介護】石川県金沢市若松町セ104番1", "url": "https://www.kaigokensaku.mhlw.go.jp/17/index.php?action_kouhyou_detail_004_kani=true&JigyosyoCd=1770105136-00&ServiceCd=780&Type=search", "url2": "http://share-kanazawa.com" }, "geometry": { "type": "Point", "coordinates": [ 136.6945028, 36.5472301 ] } },
{ "type": "Feature", "properties": { "内容": "地域密着型通所介護なんぶやすらぎ【地域密着型通所介護】石川県金沢市弥生3丁目2番1号", "url": "https://www.kaigokensaku.mhlw.go.jp/17/index.php?action_kouhyou_detail_004_kani=true&JigyosyoCd=1770103230-00&ServiceCd=780&Type=search", "url2": "http//yasuragi39.com/" }, "geometry": { "type": "Point", "coordinates": [ 136.6431761, 36.5438577 ] } },
{ "type": "Feature", "properties": { "内容": "運動機能回復センター・ファイン【地域密着型通所介護】石川県金沢市若草町１６－３０", "url": "https://www.kaigokensaku.mhlw.go.jp/17/index.php?action_kouhyou_detail_004_kani=true&JigyosyoCd=1770103933-00&ServiceCd=780&Type=search", "url2": "fine-dayservice.com" }, "geometry": { "type": "Point", "coordinates": [ 136.661483099999941, 36.5418194 ] } },
{ "type": "Feature", "properties": { "内容": "デイサービスふきのとう【地域密着型通所介護】金沢市額谷２丁目４５番地", "url": "https://www.kaigokensaku.mhlw.go.jp/17/index.php?action_kouhyou_detail_004_kani=true&JigyosyoCd=1770103040-00&ServiceCd=780&Type=search", "url2": "http://hp.kaipoke.biz/fx0/" }, "geometry": { "type": "Point", "coordinates": [ 136.625272499999937, 36.509205799999989 ] } },
{ "type": "Feature", "properties": { "内容": "リハビリ＆フィットネス寿リハ小立野【地域密着型通所介護】石川県金沢市小立野1丁目7-22", "url": "https://www.kaigokensaku.mhlw.go.jp/17/index.php?action_kouhyou_detail_004_kani=true&JigyosyoCd=1770105524-00&ServiceCd=780&Type=search", "url2": "http://aimkaigo.fitness-aim.com/" }, "geometry": { "type": "Point", "coordinates": [ 136.683015100000034, 36.5441025 ] } },
{ "type": "Feature", "properties": { "内容": "コープいしかわケアセンター金沢　デイサービスこーぷあいあい【地域密着型通所介護】入江2-384", "url": "https://www.kaigokensaku.mhlw.go.jp/17/index.php?action_kouhyou_detail_004_kani=true&JigyosyoCd=1770102653-00&ServiceCd=780&Type=search", "url2": "http://www.ishikawa.coop/index.php" }, "geometry": { "type": "Point", "coordinates": [ 136.626573399999984, 36.5681988 ] } },
{ "type": "Feature", "properties": { "内容": "デイサービス　のんび～っと【地域密着型通所介護】金沢市疋田２丁目９４", "url": "https://www.kaigokensaku.mhlw.go.jp/17/index.php?action_kouhyou_detail_004_kani=true&JigyosyoCd=1770102687-00&ServiceCd=780&Type=search", "url2": "https://www.kanazawa-fukushi.co.jp/" }, "geometry": { "type": "Point", "coordinates": [ 136.675021600000036, 36.6027645 ] } },
{ "type": "Feature", "properties": { "内容": "マナの家　木曳野　デイサービス【地域密着型通所介護】石川県金沢市木曳野2丁目150番地", "url": "https://www.kaigokensaku.mhlw.go.jp/17/index.php?action_kouhyou_detail_004_kani=true&JigyosyoCd=1770103883-00&ServiceCd=780&Type=search", "url2": "http://mananoie.com" }, "geometry": { "type": "Point", "coordinates": [ 136.605002, 36.5997471 ] } },
{ "type": "Feature", "properties": { "内容": "プラトーこころとからだの健康回復センター神宮寺店【地域密着型通所介護】石川県金沢市神宮寺3-11-3", "url": "https://www.kaigokensaku.mhlw.go.jp/17/index.php?action_kouhyou_detail_004_kani=true&JigyosyoCd=1770103917-00&ServiceCd=780&Type=search", "url2": null }, "geometry": { "type": "Point", "coordinates": [ 136.666570200000024, 36.5872775 ] } },
{ "type": "Feature", "properties": { "内容": "デイサービスみんなのいえ【地域密着型通所介護】金沢市矢木2丁目335番地", "url": "https://www.kaigokensaku.mhlw.go.jp/17/index.php?action_kouhyou_detail_004_kani=true&JigyosyoCd=1770101747-00&ServiceCd=780&Type=search", "url2": null }, "geometry": { "type": "Point", "coordinates": [ 136.594380099999967, 36.5569694 ] } },
{ "type": "Feature", "properties": { "内容": "プラトーリハセンター千日町５号店【地域密着型通所介護】金沢市千日町９番２７号グリーンソサエティー犀川１階", "url": "https://www.kaigokensaku.mhlw.go.jp/17/index.php?action_kouhyou_detail_004_kani=true&JigyosyoCd=1770104576-00&ServiceCd=780&Type=search", "url2": "http://pds-plateau.com/" }, "geometry": { "type": "Point", "coordinates": [ 136.645837615344277, 36.561911945759554 ] } },
{ "type": "Feature", "properties": { "内容": "デイサービスしらさぎ【地域密着型通所介護】割出町186番地", "url": "https://www.kaigokensaku.mhlw.go.jp/17/index.php?action_kouhyou_detail_004_kani=true&JigyosyoCd=1770104915-00&ServiceCd=780&Type=search", "url2": "http://www.shirasagi-en.com" }, "geometry": { "type": "Point", "coordinates": [ 136.641688, 36.6039471 ] } },
{ "type": "Feature", "properties": { "内容": "ディーサービスうちここ【地域密着型通所介護】高尾台２丁目149番地", "url": "https://www.kaigokensaku.mhlw.go.jp/17/index.php?action_kouhyou_detail_004_kani=true&JigyosyoCd=1770104253-00&ServiceCd=780&Type=search", "url2": null }, "geometry": { "type": "Point", "coordinates": [ 136.62828890000003, 36.5227709 ] } },
{ "type": "Feature", "properties": { "内容": "サンケア畝田デイサービス【地域密着型通所介護】石川県金沢市畝田東3丁目545番地", "url": "https://www.kaigokensaku.mhlw.go.jp/17/index.php?action_kouhyou_detail_004_kani=true&JigyosyoCd=1770105375-00&ServiceCd=780&Type=search", "url2": null }, "geometry": { "type": "Point", "coordinates": [ 136.615634378187565, 36.595681843235866 ] } },
{ "type": "Feature", "properties": { "内容": "リハビリ＆フィットネス　寿リハ駅西【地域密着型通所介護】石川県金沢市駅西新町3丁目18番19号", "url": "https://www.kaigokensaku.mhlw.go.jp/17/index.php?action_kouhyou_detail_004_kani=true&JigyosyoCd=1770105284-00&ServiceCd=780&Type=search", "url2": "http://aimkaigo.fitness-aim.com/" }, "geometry": { "type": "Point", "coordinates": [ 136.637270074511406, 36.592943844311442 ] } },
{ "type": "Feature", "properties": { "内容": "プラトーリハセンター北安江２号店【地域密着型通所介護】金沢市北安江１丁目９番１７号", "url": "https://www.kaigokensaku.mhlw.go.jp/17/index.php?action_kouhyou_detail_004_kani=true&JigyosyoCd=1770105409-00&ServiceCd=780&Type=search", "url2": "http:pds-plateau.com/" }, "geometry": { "type": "Point", "coordinates": [ 136.651965799999971, 36.5836556 ] } },
{ "type": "Feature", "properties": { "内容": "静港庵【地域密着型通所介護】金沢市金石北1-19-40", "url": "https://www.kaigokensaku.mhlw.go.jp/17/index.php?action_kouhyou_detail_004_kani=true&JigyosyoCd=1760190932-00&ServiceCd=780&Type=search", "url2": null }, "geometry": { "type": "Point", "coordinates": [ 136.599538400000029, 36.6038992 ] } },
{ "type": "Feature", "properties": { "内容": "サンケア　高尾台【地域密着型通所介護】石川県金沢市高尾台１丁目７４番地", "url": "https://www.kaigokensaku.mhlw.go.jp/17/index.php?action_kouhyou_detail_004_kani=true&JigyosyoCd=1770105383-00&ServiceCd=780&Type=search", "url2": "www.suncare-life.com" }, "geometry": { "type": "Point", "coordinates": [ 136.636151596611825, 36.524035692475472 ] } },
{ "type": "Feature", "properties": { "内容": "デイサービスLIVEALIVE【地域密着型通所介護】石川県金沢市福久1丁目114番地", "url": "https://www.kaigokensaku.mhlw.go.jp/17/index.php?action_kouhyou_detail_004_kani=true&JigyosyoCd=1790101313-00&ServiceCd=780&Type=search", "url2": "https://give-livealive.com/" }, "geometry": { "type": "Point", "coordinates": [ 136.680542669975239, 36.618152732141432 ] } },
{ "type": "Feature", "properties": { "内容": "デイサービス　クイーンオランジュ【地域密着型通所介護】石川県金沢市鞍月東1丁目６番地", "url": "https://www.kaigokensaku.mhlw.go.jp/17/index.php?action_kouhyou_detail_004_kani=true&JigyosyoCd=1790101321-00&ServiceCd=780&Type=search", "url2": null }, "geometry": { "type": "Point", "coordinates": [ 136.6295663, 36.593392 ] } },
{ "type": "Feature", "properties": { "内容": "デイサービスほやね城北【地域密着型通所介護】石川県金沢市浅野本町2丁目18番26号", "url": "https://www.kaigokensaku.mhlw.go.jp/17/index.php?action_kouhyou_detail_004_kani=true&JigyosyoCd=1790100695-00&ServiceCd=780&Type=search", "url2": "http://yumefukushi.jp" }, "geometry": { "type": "Point", "coordinates": [ 136.659684700000071, 36.5843612 ] } },
{ "type": "Feature", "properties": { "内容": "アクティブスタジオ雅【地域密着型通所介護】石川県金沢市笠舞1丁目12-1ハイツ城　1F", "url": "https://www.kaigokensaku.mhlw.go.jp/17/index.php?action_kouhyou_detail_004_kani=true&JigyosyoCd=1790101248-00&ServiceCd=780&Type=search", "url2": "http://www.anthree.co.jp/active-miyabi/index.html" }, "geometry": { "type": "Point", "coordinates": [ 136.6739639, 36.547750600000015 ] } },
{ "type": "Feature", "properties": { "内容": "ふくし百選　デイサービス金沢【地域密着型通所介護】石川県金沢市窪7丁目271番地", "url": "https://www.kaigokensaku.mhlw.go.jp/17/index.php?action_kouhyou_detail_004_kani=true&JigyosyoCd=1790100802-00&ServiceCd=780&Type=search", "url2": "http://www.hs-k.co.jp" }, "geometry": { "type": "Point", "coordinates": [ 136.6379991, 36.5307397 ] } },
{ "type": "Feature", "properties": { "内容": "オークス　リハプライド小坂【地域密着型通所介護】石川県金沢市小坂町北215-5", "url": "https://www.kaigokensaku.mhlw.go.jp/17/index.php?action_kouhyou_detail_004_kani=true&JigyosyoCd=1790100927-00&ServiceCd=780&Type=search", "url2": "http://www.oarks.co.jp" }, "geometry": { "type": "Point", "coordinates": [ 136.678457799999933, 36.5932797 ] } },
{ "type": "Feature", "properties": { "内容": "いあし高畠【地域密着型通所介護】石川県金沢市高畠3-88番地", "url": "https://www.kaigokensaku.mhlw.go.jp/17/index.php?action_kouhyou_detail_004_kani=true&JigyosyoCd=1790100703-00&ServiceCd=780&Type=search", "url2": "http://i-airu.weebly.com/" }, "geometry": { "type": "Point", "coordinates": [ 136.615696399999933, 36.5728119 ] } },
{ "type": "Feature", "properties": { "内容": "デイサービス　ケアマート【地域密着型通所介護】石川県金沢市暁町9-7", "url": "https://www.kaigokensaku.mhlw.go.jp/17/index.php?action_kouhyou_detail_004_kani=true&JigyosyoCd=1790100893-00&ServiceCd=780&Type=search", "url2": null }, "geometry": { "type": "Point", "coordinates": [ 136.673117899999966, 36.563047500000017 ] } },
{ "type": "Feature", "properties": { "内容": "樹楽ゆいの杜【地域密着型通所介護】堅田町甲87", "url": "https://www.kaigokensaku.mhlw.go.jp/17/index.php?action_kouhyou_detail_004_kani=true&JigyosyoCd=1790101073-00&ServiceCd=780&Type=search", "url2": "https://kiraku-yuinomori.com/" }, "geometry": { "type": "Point", "coordinates": [ 136.698738799999973, 36.609827400000029 ] } },
{ "type": "Feature", "properties": { "内容": "プラトーケアセンター疋田【地域密着型通所介護】石川県金沢市疋田1丁目26番地", "url": "https://www.kaigokensaku.mhlw.go.jp/17/index.php?action_kouhyou_detail_004_kani=true&JigyosyoCd=1790100836-00&ServiceCd=780&Type=search", "url2": null }, "geometry": { "type": "Point", "coordinates": [ 136.670257031859819, 36.604044709998355 ] } },
{ "type": "Feature", "properties": { "内容": "リハビリ＆フィットネス　寿リハ神宮寺【地域密着型通所介護】石川県金沢市神宮寺2丁目１５－１", "url": "https://www.kaigokensaku.mhlw.go.jp/17/index.php?action_kouhyou_detail_004_kani=true&JigyosyoCd=1790100737-00&ServiceCd=780&Type=search", "url2": "http://aimkaigo.fitness-aim.com/k_company/" }, "geometry": { "type": "Point", "coordinates": [ -8.24389, 53.41291 ] } },
{ "type": "Feature", "properties": { "内容": "社会福祉法人　森山善隣館　デイサービス寿クラブ【地域密着型通所介護】石川県金沢市森山２丁目１８番４号", "url": "https://www.kaigokensaku.mhlw.go.jp/17/index.php?action_kouhyou_detail_004_kani=true&JigyosyoCd=1790100810-00&ServiceCd=780&Type=search", "url2": "info@m-zenrinkan.jp" }, "geometry": { "type": "Point", "coordinates": [ 136.667123299999929, 36.578178800000018 ] } },
{ "type": "Feature", "properties": { "内容": "デイサービスぎふと【地域密着型通所介護】石川県金沢市南新保町へ３４番地", "url": "https://www.kaigokensaku.mhlw.go.jp/17/index.php?action_kouhyou_detail_004_kani=true&JigyosyoCd=1790101297-00&ServiceCd=780&Type=search", "url2": null }, "geometry": { "type": "Point", "coordinates": [ 136.6346944, 36.5979886 ] } },
{ "type": "Feature", "properties": { "内容": "デイサービスセンターあかつき【地域密着型通所介護】石川県金沢市平和町1丁目2番28号", "url": "https://www.kaigokensaku.mhlw.go.jp/17/index.php?action_kouhyou_detail_004_kani=true&JigyosyoCd=1790101230-00&ServiceCd=780&Type=search", "url2": "http://www.seishi.isg.or.jp/akatsuki/index.html" }, "geometry": { "type": "Point", "coordinates": [ 136.6636641, 36.5384327 ] } },
{ "type": "Feature", "properties": { "内容": "清快舎ﾃﾞｲｻｰﾋﾞｽしらうめ【地域密着型通所介護】石川県金沢市茨木町10番地在宅健康センター清快舎", "url": "https://www.kaigokensaku.mhlw.go.jp/17/index.php?action_kouhyou_detail_004_kani=true&JigyosyoCd=1790101008-00&ServiceCd=780&Type=search", "url2": "seikaisya@bijyoukai.net" }, "geometry": { "type": "Point", "coordinates": [ 136.6573254, 36.5570811 ] } },
{ "type": "Feature", "properties": { "内容": "すまいる千木【地域密着型通所介護】石川県金沢市千木町ヲ1-1", "url": "https://www.kaigokensaku.mhlw.go.jp/17/index.php?action_kouhyou_detail_004_kani=true&JigyosyoCd=1790100851-00&ServiceCd=780&Type=search", "url2": null }, "geometry": { "type": "Point", "coordinates": [ 136.66936069999997, 36.6107744 ] } },
{ "type": "Feature", "properties": { "内容": "末町スマイルデイサービス【地域密着型通所介護】石川県金沢市末町12-67-7ベルシャトー1階", "url": "https://www.kaigokensaku.mhlw.go.jp/17/index.php?action_kouhyou_detail_004_kani=true&JigyosyoCd=1790100794-00&ServiceCd=780&Type=search", "url2": null }, "geometry": { "type": "Point", "coordinates": [ 136.6873567, 36.5202308 ] } },
{ "type": "Feature", "properties": { "内容": "リハビリ＆フィットネス寿リハ　新神田【地域密着型通所介護】石川県金沢市新神田4-7-9", "url": "https://www.kaigokensaku.mhlw.go.jp/17/index.php?action_kouhyou_detail_004_kani=true&JigyosyoCd=1790100976-00&ServiceCd=780&Type=search", "url2": "http://aimkaigo.fitness-aim.com/" }, "geometry": { "type": "Point", "coordinates": [ 136.6280663, 36.5613511 ] } },
{ "type": "Feature", "properties": { "内容": "リハビリ＆フィットネス　寿リハ泉野【地域密着型通所介護】石川県金沢市泉野出町4-3-35", "url": "https://www.kaigokensaku.mhlw.go.jp/17/index.php?action_kouhyou_detail_004_kani=true&JigyosyoCd=1790101115-00&ServiceCd=780&Type=search", "url2": "http://aimkaigo.fitness-aim.com/" }, "geometry": { "type": "Point", "coordinates": [ 136.648207, 36.5349929 ] } },
{ "type": "Feature", "properties": { "内容": "サンケア泉本町【地域密着型通所介護】石川県金沢市泉本町2丁目48番地", "url": "https://www.kaigokensaku.mhlw.go.jp/17/index.php?action_kouhyou_detail_004_kani=true&JigyosyoCd=1790101107-00&ServiceCd=780&Type=search", "url2": "www.suncare-life.com" }, "geometry": { "type": "Point", "coordinates": [ 136.637937099999988, 36.5488199 ] } },
{ "type": "Feature", "properties": { "内容": "ひゃくまん星増泉　デイサービス【地域密着型通所介護】石川県金沢市増泉1丁目16番41号", "url": "https://www.kaigokensaku.mhlw.go.jp/17/index.php?action_kouhyou_detail_004_kani=true&JigyosyoCd=1790100687-00&ServiceCd=780&Type=search", "url2": "http://100manboshi.com/" }, "geometry": { "type": "Point", "coordinates": [ 136.6448004, 36.5586254 ] } },
{ "type": "Feature", "properties": { "内容": "米丸デイサ－ビスセンタ－あすなろ苑【地域密着型通所介護】石川県金沢市東力町ハ284番地", "url": "https://www.kaigokensaku.mhlw.go.jp/17/index.php?action_kouhyou_detail_004_kani=true&JigyosyoCd=1790100661-00&ServiceCd=780&Type=search", "url2": "https://yonemaruasunaroen.sakura.com" }, "geometry": { "type": "Point", "coordinates": [ 136.618471600000021, 36.5616661 ] } },
{ "type": "Feature", "properties": { "内容": "デイサービスみらい・太陽丘【地域密着型通所介護】石川県金沢市太陽が丘３丁目１－１", "url": "https://www.kaigokensaku.mhlw.go.jp/17/index.php?action_kouhyou_detail_004_kani=true&JigyosyoCd=1790101388-00&ServiceCd=780&Type=search", "url2": "http://chuoufukufhikai.jp/day-m/" }, "geometry": { "type": "Point", "coordinates": [ 136.7081902, 36.5322145 ] } },
{ "type": "Feature", "properties": { "内容": "デイサービスセンター　菜の花かなざわ【地域密着型通所介護】石川県金沢市駅西本町6丁目15ー8藤江南ハイム1階", "url": "https://www.kaigokensaku.mhlw.go.jp/17/index.php?action_kouhyou_detail_004_kani=true&JigyosyoCd=1770105219-00&ServiceCd=780&Type=search", "url2": "https://meihou-kai.jp" }, "geometry": { "type": "Point", "coordinates": [ 136.624698437620708, 36.585480343539807 ] } },
{ "type": "Feature", "properties": { "内容": "デイサービスセンターさつき苑【地域密着型通所介護】石川県金沢市小将町8番23号", "url": "https://www.kaigokensaku.mhlw.go.jp/17/index.php?action_kouhyou_detail_004_kani=true&JigyosyoCd=1790101461-00&ServiceCd=780&Type=search", "url2": "http://www.daisanzenrinkan.or.jp/" }, "geometry": { "type": "Point", "coordinates": [ 136.6643989, 36.5632417 ] } },
{ "type": "Feature", "properties": { "内容": "デイサービスきたえるーむ金沢高尾台【地域密着型通所介護】石川県金沢市高尾台1丁目79番地", "url": "https://www.kaigokensaku.mhlw.go.jp/17/index.php?action_kouhyou_detail_004_kani=true&JigyosyoCd=1790101479-00&ServiceCd=780&Type=search", "url2": "https://kitaeroom.com/" }, "geometry": { "type": "Point", "coordinates": [ 136.6368201, 36.5240243 ] } },
{ "type": "Feature", "properties": { "内容": "デイサービス　すずむし庵【地域密着型通所介護】石川県金沢市糸田2丁目70番地4", "url": "https://www.kaigokensaku.mhlw.go.jp/17/index.php?action_kouhyou_detail_004_kani=true&JigyosyoCd=1790101487-00&ServiceCd=780&Type=search", "url2": "https://www.seikoudoku.com/" }, "geometry": { "type": "Point", "coordinates": [ 136.624617699999988, 36.558635199999983 ] } },
{ "type": "Feature", "properties": { "内容": "デイサービスあみ【地域密着型通所介護】石川県金沢市鈴見台５丁目2番20号", "url": "https://www.kaigokensaku.mhlw.go.jp/17/index.php?action_kouhyou_detail_004_kani=true&JigyosyoCd=1770104725-00&ServiceCd=780&Type=search", "url2": "https://dayservice-ami.com/" }, "geometry": { "type": "Point", "coordinates": [ 136.6853337, 36.5661665 ] } },
{ "type": "Feature", "properties": { "内容": "キラリ【地域密着型通所介護】石川県金沢市玉鉾3丁目210番地", "url": "https://www.kaigokensaku.mhlw.go.jp/17/index.php?action_kouhyou_detail_004_kani=true&JigyosyoCd=1790101453-00&ServiceCd=780&Type=search", "url2": "https://day-kirari.com/" }, "geometry": { "type": "Point", "coordinates": [ 136.6225902, 36.5713001 ] } },
{ "type": "Feature", "properties": { "内容": "デイサービス　しおさい【地域密着型通所介護】石川県金沢市福増町北432番地", "url": "https://www.kaigokensaku.mhlw.go.jp/17/index.php?action_kouhyou_detail_004_kani=true&JigyosyoCd=1790100745-00&ServiceCd=780&Type=search", "url2": "https://authenticshiosai.com/" }, "geometry": { "type": "Point", "coordinates": [ 136.580014600000055, 36.568348200000017 ] } },
{ "type": "Feature", "properties": { "内容": "キュアデイサービスセンター【地域密着型通所介護】笠舞3-18-3", "url": "https://www.kaigokensaku.mhlw.go.jp/17/index.php?action_kouhyou_detail_004_kani=true&JigyosyoCd=1770101515-00&ServiceCd=780&Type=search", "url2": "https://qua-22.com" }, "geometry": { "type": "Point", "coordinates": [ 136.66962785504154, 36.552511268063107 ] } },
{ "type": "Feature", "properties": { "内容": "ディサービスセンターそわじ浦【地域密着型通所介護】石川県七尾市能登島向田町ま50", "url": "https://www.kaigokensaku.mhlw.go.jp/17/index.php?action_kouhyou_detail_004_kani=true&JigyosyoCd=1770200564-00&ServiceCd=780&Type=search", "url2": "http://hp.kaipoke.biz/ch7/" }, "geometry": { "type": "Point", "coordinates": [ 137.015570132940638, 37.141706155350128 ] } },
{ "type": "Feature", "properties": { "内容": "ひなたぼっこ【地域密着型通所介護】小丸山台３丁目１３番地２", "url": "https://www.kaigokensaku.mhlw.go.jp/17/index.php?action_kouhyou_detail_004_kani=true&JigyosyoCd=1770200473-00&ServiceCd=780&Type=search", "url2": "http://hinatabokko.site/" }, "geometry": { "type": "Point", "coordinates": [ 136.949639544180314, 37.046829617873016 ] } },
{ "type": "Feature", "properties": { "内容": "小松みなみ診療所【地域密着型通所介護】小松市下粟津町み１", "url": "https://www.kaigokensaku.mhlw.go.jp/17/index.php?action_kouhyou_detail_004_kani=true&JigyosyoCd=1710311232-00&ServiceCd=780&Type=search", "url2": "http://ishikawa-kinikyo.jp/komatu/" }, "geometry": { "type": "Point", "coordinates": [ 136.4335992, 36.3457771 ] } },
{ "type": "Feature", "properties": { "内容": "里川の家【地域密着型通所介護】石川県小松市里川町ト125・127番地合併", "url": "https://www.kaigokensaku.mhlw.go.jp/17/index.php?action_kouhyou_detail_004_kani=true&JigyosyoCd=1770300638-00&ServiceCd=780&Type=search", "url2": null }, "geometry": { "type": "Point", "coordinates": [ 136.531971800000065, 36.4169444 ] } },
{ "type": "Feature", "properties": { "内容": "愛らんど萌寿デイサービスセンター【地域密着型通所介護】石川県小松市波佐谷町東６４番地", "url": "https://www.kaigokensaku.mhlw.go.jp/17/index.php?action_kouhyou_detail_004_kani=true&JigyosyoCd=1770300612-00&ServiceCd=780&Type=search", "url2": null }, "geometry": { "type": "Point", "coordinates": [ 136.479714599999966, 36.3388637 ] } },
{ "type": "Feature", "properties": { "内容": "リハビリ長寿～小松みなみ道場～【地域密着型通所介護】今江町9-357", "url": "https://www.kaigokensaku.mhlw.go.jp/17/index.php?action_kouhyou_detail_004_kani=true&JigyosyoCd=1770300877-00&ServiceCd=780&Type=search", "url2": "http://www.tyouju.co.jp/" }, "geometry": { "type": "Point", "coordinates": [ 136.434296099999983, 36.3692954 ] } },
{ "type": "Feature", "properties": { "内容": "リハビリ長寿～上小松道場～【地域密着型通所介護】石川県小松市上小松町丙41-1", "url": "https://www.kaigokensaku.mhlw.go.jp/17/index.php?action_kouhyou_detail_004_kani=true&JigyosyoCd=1760390821-00&ServiceCd=780&Type=search", "url2": "http://www.tyouju.co.jp/" }, "geometry": { "type": "Point", "coordinates": [ 136.464286300000026, 36.407889 ] } },
{ "type": "Feature", "properties": { "内容": "ウエルネスおきまち【地域密着型通所介護】小松市沖町480番地", "url": "https://www.kaigokensaku.mhlw.go.jp/17/index.php?action_kouhyou_detail_004_kani=true&JigyosyoCd=1770300760-00&ServiceCd=780&Type=search", "url2": "http://www.nishi-wellness.jp" }, "geometry": { "type": "Point", "coordinates": [ 136.463517660518619, 36.396788749407165 ] } },
{ "type": "Feature", "properties": { "内容": "デイサービスとも【地域密着型通所介護】小松市野田町丙110番地1", "url": "https://www.kaigokensaku.mhlw.go.jp/17/index.php?action_kouhyou_detail_004_kani=true&JigyosyoCd=1770300091-00&ServiceCd=780&Type=search", "url2": "https://www.dayservicetomo.com/" }, "geometry": { "type": "Point", "coordinates": [ 136.4791904, 36.4285116 ] } },
{ "type": "Feature", "properties": { "内容": "リハビリ長寿～稚松道場～【地域密着型通所介護】石川県小松市松任町115-3", "url": "https://www.kaigokensaku.mhlw.go.jp/17/index.php?action_kouhyou_detail_004_kani=true&JigyosyoCd=1770300869-00&ServiceCd=780&Type=search", "url2": "http://www.tyouju.co.jp/" }, "geometry": { "type": "Point", "coordinates": [ 136.450434399999949, 36.4115373 ] } },
{ "type": "Feature", "properties": { "内容": "三草二木　西圓寺【地域密着型通所介護】石川県小松市野田町丁68番", "url": "https://www.kaigokensaku.mhlw.go.jp/17/index.php?action_kouhyou_detail_004_kani=true&JigyosyoCd=1770300554-00&ServiceCd=780&Type=search", "url2": "http://www.bussien.com" }, "geometry": { "type": "Point", "coordinates": [ 136.479215299999964, 36.4316694 ] } },
{ "type": "Feature", "properties": { "内容": "笑い家デイサービス　みはらしの家【地域密着型通所介護】市ノ瀬町１２部１７７番地", "url": "https://www.kaigokensaku.mhlw.go.jp/17/index.php?action_kouhyou_detail_004_kani=true&JigyosyoCd=1770400131-00&ServiceCd=780&Type=search", "url2": null }, "geometry": { "type": "Point", "coordinates": [ 136.905274, 37.3474472 ] } },
{ "type": "Feature", "properties": { "内容": "デイサービスセンター　福祉の杜【地域密着型通所介護】石川県輪島市山岸町い２６番地２", "url": "https://www.kaigokensaku.mhlw.go.jp/17/index.php?action_kouhyou_detail_004_kani=true&JigyosyoCd=1770400164-00&ServiceCd=780&Type=search", "url2": "https://kotobukifukushikai.com/fukushinomori/" }, "geometry": { "type": "Point", "coordinates": [ 136.907267600000068, 37.3830523 ] } },
{ "type": "Feature", "properties": { "内容": "通所介護さくらの木【地域密着型通所介護】輪島市堀町１字13－2", "url": "https://www.kaigokensaku.mhlw.go.jp/17/index.php?action_kouhyou_detail_004_kani=true&JigyosyoCd=1710410380-00&ServiceCd=780&Type=search", "url2": "http:www.imir.jp.htm" }, "geometry": { "type": "Point", "coordinates": [ 136.89511, 37.3893317 ] } },
{ "type": "Feature", "properties": { "内容": "B'sWAJIMAデイサービスセンター【地域密着型通所介護】石川県輪島市河井町2部210番地", "url": "https://www.kaigokensaku.mhlw.go.jp/17/index.php?action_kouhyou_detail_004_kani=true&JigyosyoCd=1790400145-00&ServiceCd=780&Type=search", "url2": "https://wajima-kabulet.jp" }, "geometry": { "type": "Point", "coordinates": [ 136.902317923478677, 37.393191310661123 ] } },
{ "type": "Feature", "properties": { "内容": "コミセンマリンタウンBASE【地域密着型通所介護】石川県輪島市マリンタウン6-1", "url": "https://www.kaigokensaku.mhlw.go.jp/17/index.php?action_kouhyou_detail_004_kani=true&JigyosyoCd=1790400160-00&ServiceCd=780&Type=search", "url2": "http://bussienn.com/" }, "geometry": { "type": "Point", "coordinates": [ 136.908874258897129, 37.396525989982145 ] } },
{ "type": "Feature", "properties": { "内容": "デイサービス鶴の恩返し・珠洲【地域密着型通所介護】石川県珠洲市若山町出田１０部３９番地４", "url": "https://www.kaigokensaku.mhlw.go.jp/17/index.php?action_kouhyou_detail_004_kani=true&JigyosyoCd=1770500153-00&ServiceCd=780&Type=search", "url2": null }, "geometry": { "type": "Point", "coordinates": [ 137.264355199999954, 37.4458823 ] } },
{ "type": "Feature", "properties": { "内容": "デイサービスセンター　いらっせハマナス【地域密着型通所介護】石川県加賀市小塩町コ161番地1", "url": "https://www.kaigokensaku.mhlw.go.jp/17/index.php?action_kouhyou_detail_004_kani=true&JigyosyoCd=1770600623-00&ServiceCd=780&Type=search", "url2": "http://houwakai-g.com" }, "geometry": { "type": "Point", "coordinates": [ 136.313450800000027, 36.3506386 ] } },
{ "type": "Feature", "properties": { "内容": "デイサービス　朗　加賀【地域密着型通所介護】加賀市山代温泉桔梗丘３丁目２４－３ドミトリ山代", "url": "https://www.kaigokensaku.mhlw.go.jp/17/index.php?action_kouhyou_detail_004_kani=true&JigyosyoCd=1770600425-00&ServiceCd=780&Type=search", "url2": "https;//hogaraka.care/" }, "geometry": { "type": "Point", "coordinates": [ 136.357048599999985, 36.2857303 ] } },
{ "type": "Feature", "properties": { "内容": "さわらび通所介護事業所【地域密着型通所介護】石川県加賀市山中温泉塚谷町ロ24番地1", "url": "https://www.kaigokensaku.mhlw.go.jp/17/index.php?action_kouhyou_detail_004_kani=true&JigyosyoCd=1760690717-00&ServiceCd=780&Type=search", "url2": "http://www.sawarabi-y.jp/" }, "geometry": { "type": "Point", "coordinates": [ 136.36982880000005, 36.2590923 ] } },
{ "type": "Feature", "properties": { "内容": "デイサービスセンターたんぽぽ【地域密着型通所介護】石川県加賀市河南町カ１５３番地", "url": "https://www.kaigokensaku.mhlw.go.jp/17/index.php?action_kouhyou_detail_004_kani=true&JigyosyoCd=1770600136-00&ServiceCd=780&Type=search", "url2": null }, "geometry": { "type": "Point", "coordinates": [ 136.35074448032185, 36.279254714740645 ] } },
{ "type": "Feature", "properties": { "内容": "地域交流の家ふらっと【地域密着型通所介護】石川県加賀市山中温泉長谷田町への９１番地１", "url": "https://www.kaigokensaku.mhlw.go.jp/17/index.php?action_kouhyou_detail_004_kani=true&JigyosyoCd=1770600573-00&ServiceCd=780&Type=search", "url2": null }, "geometry": { "type": "Point", "coordinates": [ 136.357914081614695, 36.266574931244655 ] } },
{ "type": "Feature", "properties": { "内容": "ケアリス山中【地域密着型通所介護】石川県加賀市山中温泉上野町ル15番地１ゆいふる山中", "url": "https://www.kaigokensaku.mhlw.go.jp/17/index.php?action_kouhyou_detail_004_kani=true&JigyosyoCd=1790600322-00&ServiceCd=780&Type=search", "url2": "http://houwakai-g.com" }, "geometry": { "type": "Point", "coordinates": [ 136.369354, 36.2535568 ] } },
{ "type": "Feature", "properties": { "内容": "生活介護事業所　まごころ【地域密着型通所介護】石川県加賀市百々町81番地1", "url": "https://www.kaigokensaku.mhlw.go.jp/17/index.php?action_kouhyou_detail_004_kani=true&JigyosyoCd=1790600405-00&ServiceCd=780&Type=search", "url2": "https://chokyuhukushi.jp" }, "geometry": { "type": "Point", "coordinates": [ 136.31911476202481, 36.299457173167667 ] } },
{ "type": "Feature", "properties": { "内容": "機能訓練特化型デイサービス　未来・羽咋【地域密着型通所介護】石川県羽咋市大川町2丁目122番地", "url": "https://www.kaigokensaku.mhlw.go.jp/17/index.php?action_kouhyou_detail_004_kani=true&JigyosyoCd=1770700084-00&ServiceCd=780&Type=search", "url2": "https://www.mirai-yoshimaru.com/2016/11/24/180/" }, "geometry": { "type": "Point", "coordinates": [ 136.776876300000026, 36.9044471 ] } },
{ "type": "Feature", "properties": { "内容": "唐戸山デイサービス【地域密着型通所介護】羽咋市南中央町キ１５４番地１３地域ケアセンター唐戸山", "url": "https://www.kaigokensaku.mhlw.go.jp/17/index.php?action_kouhyou_detail_004_kani=true&JigyosyoCd=1770700233-00&ServiceCd=780&Type=search", "url2": "http://www.bijyoukai.net/" }, "geometry": { "type": "Point", "coordinates": [ 136.7788825, 36.8906714 ] } },
{ "type": "Feature", "properties": { "内容": "デイサービス　あわら【地域密着型通所介護】石川県羽咋市粟原町イ１０９番地", "url": "https://www.kaigokensaku.mhlw.go.jp/17/index.php?action_kouhyou_detail_004_kani=true&JigyosyoCd=1770700282-00&ServiceCd=780&Type=search", "url2": "https://awara-hakui.com/" }, "geometry": { "type": "Point", "coordinates": [ 136.7851885, 36.8741461 ] } },
{ "type": "Feature", "properties": { "内容": "デイサービス暖【地域密着型通所介護】高松ヤ２９－５", "url": "https://www.kaigokensaku.mhlw.go.jp/17/index.php?action_kouhyou_detail_004_kani=true&JigyosyoCd=1772100267-00&ServiceCd=780&Type=search", "url2": "https://oyakou.com/" }, "geometry": { "type": "Point", "coordinates": [ 136.720394, 36.7685046 ] } },
{ "type": "Feature", "properties": { "内容": "創楽デイサービス【地域密着型通所介護】石川県かほく市外日角ハ126番地２", "url": "https://www.kaigokensaku.mhlw.go.jp/17/index.php?action_kouhyou_detail_004_kani=true&JigyosyoCd=1772100275-00&ServiceCd=780&Type=search", "url2": "http://www.bijyoukai/net" }, "geometry": { "type": "Point", "coordinates": [ 136.691100600000027, 36.7267834 ] } },
{ "type": "Feature", "properties": { "内容": "地域密着型デイサービス明青クラブ【地域密着型通所介護】石川県かほく市秋浜へ２０番地４", "url": "https://www.kaigokensaku.mhlw.go.jp/17/index.php?action_kouhyou_detail_004_kani=true&JigyosyoCd=1792100073-00&ServiceCd=780&Type=search", "url2": "http://www.bijyoukai.net" }, "geometry": { "type": "Point", "coordinates": [ 136.692476, 36.7279707 ] } },
{ "type": "Feature", "properties": { "内容": "であい処　七つ花【地域密着型通所介護】木津へ4番地", "url": "https://www.kaigokensaku.mhlw.go.jp/17/index.php?action_kouhyou_detail_004_kani=true&JigyosyoCd=1772100234-00&ServiceCd=780&Type=search", "url2": null }, "geometry": { "type": "Point", "coordinates": [ 136.702472700000044, 36.746956499999989 ] } },
{ "type": "Feature", "properties": { "内容": "デイサービスなぎさの家【地域密着型通所介護】かほく市白尾タ19-1", "url": "https://www.kaigokensaku.mhlw.go.jp/17/index.php?action_kouhyou_detail_004_kani=true&JigyosyoCd=1772100184-00&ServiceCd=780&Type=search", "url2": "http://hoyasakai1060nagisa.com" }, "geometry": { "type": "Point", "coordinates": [ 136.695053300000041, 36.7161209 ] } },
{ "type": "Feature", "properties": { "内容": "プラトーケアセンター白山河内店【地域密着型通所介護】石川県白山市河内町きりの里62番地", "url": "https://www.kaigokensaku.mhlw.go.jp/17/index.php?action_kouhyou_detail_004_kani=true&JigyosyoCd=1792200212-00&ServiceCd=780&Type=search", "url2": "http:pds-plateau.com/" }, "geometry": { "type": "Point", "coordinates": [ 136.616978500000016, 36.390482800000029 ] } },
{ "type": "Feature", "properties": { "内容": "ごーるどくらぶ【地域密着型通所介護】石川県白山市宮丸町1144番地", "url": "https://www.kaigokensaku.mhlw.go.jp/17/index.php?action_kouhyou_detail_004_kani=true&JigyosyoCd=1772200869-00&ServiceCd=780&Type=search", "url2": "https://lifeone-hakusan.com/" }, "geometry": { "type": "Point", "coordinates": [ 136.5524809, 36.5053476 ] } },
{ "type": "Feature", "properties": { "内容": "三草二木　行善寺【地域密着型通所介護】石川県白山市北安田町548番地2", "url": "https://www.kaigokensaku.mhlw.go.jp/17/index.php?action_kouhyou_detail_004_kani=true&JigyosyoCd=1772200802-00&ServiceCd=780&Type=search", "url2": "http://www.bussien.com" }, "geometry": { "type": "Point", "coordinates": [ 136.551922800000057, 36.5260972 ] } },
{ "type": "Feature", "properties": { "内容": "やわらぎ太子の家美川【地域密着型通所介護】石川県白山市美川北町ル７３番１", "url": "https://www.kaigokensaku.mhlw.go.jp/17/index.php?action_kouhyou_detail_004_kani=true&JigyosyoCd=1772200711-00&ServiceCd=780&Type=search", "url2": "https://www.yawaragi.ne.jp/" }, "geometry": { "type": "Point", "coordinates": [ 136.484263611674123, 36.487109082939945 ] } },
{ "type": "Feature", "properties": { "内容": "デイサービス太陽のひだまり木津【地域密着型通所介護】石川県白山市木津町１８４５番地", "url": "https://www.kaigokensaku.mhlw.go.jp/17/index.php?action_kouhyou_detail_004_kani=true&JigyosyoCd=1772200497-00&ServiceCd=780&Type=search", "url2": "http://www.sunwels.jp" }, "geometry": { "type": "Point", "coordinates": [ 136.59246440000004, 36.500079 ] } },
{ "type": "Feature", "properties": { "内容": "イオンスマイル松任店【地域密着型通所介護】石川県白山市平松町102番地1イオン松任店1階", "url": "https://www.kaigokensaku.mhlw.go.jp/17/index.php?action_kouhyou_detail_004_kani=true&JigyosyoCd=1792200253-00&ServiceCd=780&Type=search", "url2": "https://www.aeonretail.jp/aeonsmile/" }, "geometry": { "type": "Point", "coordinates": [ 136.5679166, 36.5084775 ] } },
{ "type": "Feature", "properties": { "内容": "デイサービス灯(あかり)【地域密着型通所介護】石川県能美市宮竹町161-1", "url": "https://www.kaigokensaku.mhlw.go.jp/17/index.php?action_kouhyou_detail_004_kani=true&JigyosyoCd=1772300255-00&ServiceCd=780&Type=search", "url2": null }, "geometry": { "type": "Point", "coordinates": [ 136.589915900000051, 36.4556376 ] } },
{ "type": "Feature", "properties": { "内容": "デイサービス　ちいちの華【地域密着型通所介護】石川県能美市三ツ屋町96", "url": "https://www.kaigokensaku.mhlw.go.jp/17/index.php?action_kouhyou_detail_004_kani=true&JigyosyoCd=1772300263-00&ServiceCd=780&Type=search", "url2": null }, "geometry": { "type": "Point", "coordinates": [ 136.549817, 36.4533039 ] } },
{ "type": "Feature", "properties": { "内容": "リハビリ長寿～九谷道場～【地域密着型通所介護】石川県能美市和気町ヤ39-1", "url": "https://www.kaigokensaku.mhlw.go.jp/17/index.php?action_kouhyou_detail_004_kani=true&JigyosyoCd=1772300420-00&ServiceCd=780&Type=search", "url2": "http://www.tyouju.co.jp/" }, "geometry": { "type": "Point", "coordinates": [ 136.526164, 36.4307061 ] } },
{ "type": "Feature", "properties": { "内容": "通所介護事業所和楽【地域密着型通所介護】能美市大成町2丁目69番1", "url": "https://www.kaigokensaku.mhlw.go.jp/17/index.php?action_kouhyou_detail_004_kani=true&JigyosyoCd=1772300032-00&ServiceCd=780&Type=search", "url2": "http://www.slc-waraku.com" }, "geometry": { "type": "Point", "coordinates": [ 136.46540898836065, 36.448525315089348 ] } },
{ "type": "Feature", "properties": { "内容": "デイサービスちきそら【地域密着型通所介護】石川県野々市市位川226番地", "url": "https://www.kaigokensaku.mhlw.go.jp/17/index.php?action_kouhyou_detail_004_kani=true&JigyosyoCd=1771300785-00&ServiceCd=780&Type=search", "url2": "http://chiki3.jimdofree.com" }, "geometry": { "type": "Point", "coordinates": [ 136.606048018385309, 36.524479476209279 ] } },
{ "type": "Feature", "properties": { "内容": "デイサービス･ベル津幡【地域密着型通所介護】石川県河北郡津幡町北中条5丁目82番地", "url": "https://www.kaigokensaku.mhlw.go.jp/17/index.php?action_kouhyou_detail_004_kani=true&JigyosyoCd=1791400136-00&ServiceCd=780&Type=search", "url2": "https://nextbell.co.jp" }, "geometry": { "type": "Point", "coordinates": [ 136.728791900000033, 36.6625579 ] } },
{ "type": "Feature", "properties": { "内容": "ほっとデイサービス内灘【地域密着型通所介護】河北郡内灘町字向陽台1丁目315番地", "url": "https://www.kaigokensaku.mhlw.go.jp/17/index.php?action_kouhyou_detail_004_kani=true&JigyosyoCd=1771400627-00&ServiceCd=780&Type=search", "url2": null }, "geometry": { "type": "Point", "coordinates": [ 136.635917799999987, 36.6403894 ] } },
{ "type": "Feature", "properties": { "内容": "プラトーケアセンター内灘店【地域密着型通所介護】石川県河北郡内灘町鶴ヶ丘4-1-144", "url": "https://www.kaigokensaku.mhlw.go.jp/17/index.php?action_kouhyou_detail_004_kani=true&JigyosyoCd=1771400692-00&ServiceCd=780&Type=search", "url2": null }, "geometry": { "type": "Point", "coordinates": [ 136.6383343, 36.642186400000014 ] } },
{ "type": "Feature", "properties": { "内容": "ファミリータイズ・歩っ歩【地域密着型通所介護】石川県羽咋郡志賀町米町ルの5番地", "url": "https://www.kaigokensaku.mhlw.go.jp/17/index.php?action_kouhyou_detail_004_kani=true&JigyosyoCd=1791500133-00&ServiceCd=780&Type=search", "url2": null }, "geometry": { "type": "Point", "coordinates": [ 136.779631656869498, 37.058845446107775 ] } },
{ "type": "Feature", "properties": { "内容": "小木デイサービスセンター【地域密着型通所介護】石川県鳳珠郡能登町字小木15字42番地2", "url": "https://www.kaigokensaku.mhlw.go.jp/17/index.php?action_kouhyou_detail_004_kani=true&JigyosyoCd=1791700139-00&ServiceCd=780&Type=search", "url2": "http://www.noto-shakyo.jp/" }, "geometry": { "type": "Point", "coordinates": [ 137.22334, 37.300332 ] } },
{ "type": "Feature", "properties": { "内容": "デイサービスセンター多花楽【地域密着型通所介護】石川県鳳珠郡能登町字柳田信部1006番地能登町高齢者生活福祉センター", "url": "https://www.kaigokensaku.mhlw.go.jp/17/index.php?action_kouhyou_detail_004_kani=true&JigyosyoCd=1791700154-00&ServiceCd=780&Type=search", "url2": null }, "geometry": { "type": "Point", "coordinates": [ 137.085416183467117, 37.369382649127182 ] } },
{ "type": "Feature", "properties": { "内容": "なかよしサポートセンター【地域密着型通所介護】石川県鳳珠郡能登町字瑞穂10字120番地", "url": "https://www.kaigokensaku.mhlw.go.jp/17/index.php?action_kouhyou_detail_004_kani=true&JigyosyoCd=1791700097-00&ServiceCd=780&Type=search", "url2": null }, "geometry": { "type": "Point", "coordinates": [ 137.0410621, 37.2815306 ] } }
]
}
