{
"type": "FeatureCollection",
"name": "geo_17_訪問看護",
"crs": { "type": "name", "properties": { "name": "urn:ogc:def:crs:OGC:1.3:CRS84" } },
"features": [
{ "type": "Feature", "properties": { "内容": "訪問看護事業所　白寿園【訪問看護】石川県金沢市浅野本町二122番1", "url": "https://www.kaigokensaku.mhlw.go.jp/17/index.php?action_kouhyou_detail_004_kani=true&JigyosyoCd=1760190916-00&ServiceCd=130&Type=search", "url2": "http://hakujuen.co.jp/" }, "geometry": { "type": "Point", "coordinates": [ 136.656787694989106, 36.587465479598634 ] } },
{ "type": "Feature", "properties": { "内容": "医療法人社団　映寿会　みらい病院【訪問看護】石川県金沢市鞍月東１丁目９番地", "url": "https://www.kaigokensaku.mhlw.go.jp/17/index.php?action_kouhyou_detail_004_kani=true&JigyosyoCd=1710114420-00&ServiceCd=130&Type=search", "url2": "http://eijukai.jp" }, "geometry": { "type": "Point", "coordinates": [ 136.629875099999907, 36.5938734 ] } },
{ "type": "Feature", "properties": { "内容": "訪問看護ステーションほ～っと【訪問看護】石川県金沢市高尾南2丁目58番地虎本テナント２階１号", "url": "https://www.kaigokensaku.mhlw.go.jp/17/index.php?action_kouhyou_detail_004_kani=true&JigyosyoCd=1760191237-00&ServiceCd=130&Type=search", "url2": "https://www.station-hot.com" }, "geometry": { "type": "Point", "coordinates": [ 136.633380967796001, 36.517958909155801 ] } },
{ "type": "Feature", "properties": { "内容": "金沢健康福祉財団訪問看護ステーション【訪問看護】石川県金沢市大手町3-23金沢健康プラザ大手町　西館", "url": "https://www.kaigokensaku.mhlw.go.jp/17/index.php?action_kouhyou_detail_004_kani=true&JigyosyoCd=1760191393-00&ServiceCd=130&Type=search", "url2": "https://www.kanazawa-kenko-plaza.or.jp/" }, "geometry": { "type": "Point", "coordinates": [ 136.661164500000041, 36.5688597 ] } },
{ "type": "Feature", "properties": { "内容": "訪問看護ステーションいしびき【訪問看護】金沢市飛梅町2-14紅梅マンション101", "url": "https://www.kaigokensaku.mhlw.go.jp/17/index.php?action_kouhyou_detail_004_kani=true&JigyosyoCd=1760190841-00&ServiceCd=130&Type=search", "url2": "http://www3.ocn.ne.jp/~matsu-hp/" }, "geometry": { "type": "Point", "coordinates": [ 136.667620482251493, 36.559195716281536 ] } },
{ "type": "Feature", "properties": { "内容": "つつじの家訪問看護ステーション【訪問看護】石川県金沢市つつじが丘53番地", "url": "https://www.kaigokensaku.mhlw.go.jp/17/index.php?action_kouhyou_detail_004_kani=true&JigyosyoCd=1760191641-00&ServiceCd=130&Type=search", "url2": "https://ekango.com/" }, "geometry": { "type": "Point", "coordinates": [ 136.6785427, 36.5303551 ] } },
{ "type": "Feature", "properties": { "内容": "医療法人社団浅ノ川　心臓血管センター金沢循環器病院【訪問看護】石川県金沢市田中町は１６番地", "url": "https://www.kaigokensaku.mhlw.go.jp/17/index.php?action_kouhyou_detail_004_kani=true&JigyosyoCd=1710116284-00&ServiceCd=130&Type=search", "url2": "https://www.kanazawa-heart.or.jp/" }, "geometry": { "type": "Point", "coordinates": [ 136.6606152, 36.5994514 ] } },
{ "type": "Feature", "properties": { "内容": "訪問看護事業所　ふくわらい【訪問看護】石川県金沢市横川5-21有料老人ホーム　ふくわらい", "url": "https://www.kaigokensaku.mhlw.go.jp/17/index.php?action_kouhyou_detail_004_kani=true&JigyosyoCd=1760191286-00&ServiceCd=130&Type=search", "url2": "http://www.hakusoukai.jp" }, "geometry": { "type": "Point", "coordinates": [ 136.629960899999986, 36.541794 ] } },
{ "type": "Feature", "properties": { "内容": "ふれあい訪問看護ステーション【訪問看護】石川県金沢市鞍月5丁目205番地ミレニアム・D　103号室", "url": "https://www.kaigokensaku.mhlw.go.jp/17/index.php?action_kouhyou_detail_004_kani=true&JigyosyoCd=1760191377-00&ServiceCd=130&Type=search", "url2": null }, "geometry": { "type": "Point", "coordinates": [ 136.626588432681729, 36.598610364657631 ] } },
{ "type": "Feature", "properties": { "内容": "石川県金沢市暁町9番29号【訪問看護】石川県金沢市暁町9番29号", "url": "https://www.kaigokensaku.mhlw.go.jp/17/index.php?action_kouhyou_detail_004_kani=true&JigyosyoCd=1760191609-00&ServiceCd=130&Type=search", "url2": "https://www.suncare-life.com/" }, "geometry": { "type": "Point", "coordinates": [ 136.6733107, 36.563029 ] } },
{ "type": "Feature", "properties": { "内容": "サンケア戸板【訪問看護】石川県金沢市戸板１丁目２０番地", "url": "https://www.kaigokensaku.mhlw.go.jp/17/index.php?action_kouhyou_detail_004_kani=true&JigyosyoCd=1760191500-00&ServiceCd=130&Type=search", "url2": "www.suncare-life.com" }, "geometry": { "type": "Point", "coordinates": [ 136.624693400000012, 36.5787308 ] } },
{ "type": "Feature", "properties": { "内容": "訪問看護　インカロ－ズ【訪問看護】石川県金沢市駅西新町1丁目39番14号リブローゼ101", "url": "https://www.kaigokensaku.mhlw.go.jp/17/index.php?action_kouhyou_detail_004_kani=true&JigyosyoCd=1760191195-00&ServiceCd=130&Type=search", "url2": "https://incarosemarry.net/" }, "geometry": { "type": "Point", "coordinates": [ 136.640885600000047, 36.593354100000013 ] } },
{ "type": "Feature", "properties": { "内容": "ゆとりの園訪問看護ステーション【訪問看護】石川県金沢市米泉町7丁目61-5西金沢プリンスビル2F", "url": "https://www.kaigokensaku.mhlw.go.jp/17/index.php?action_kouhyou_detail_004_kani=true&JigyosyoCd=1760191229-00&ServiceCd=130&Type=search", "url2": "http://yutorinosono.com" }, "geometry": { "type": "Point", "coordinates": [ 136.6234799, 36.551728300000029 ] } },
{ "type": "Feature", "properties": { "内容": "訪問看護ステーション　花【訪問看護】長町１丁目４番14号メゾン・コモード302号室", "url": "https://www.kaigokensaku.mhlw.go.jp/17/index.php?action_kouhyou_detail_004_kani=true&JigyosyoCd=1760191583-00&ServiceCd=130&Type=search", "url2": "https://flare-hana.jp" }, "geometry": { "type": "Point", "coordinates": [ 136.650876058599835, 36.564395854608321 ] } },
{ "type": "Feature", "properties": { "内容": "訪問看護事業所　Luna・station　あじさい【訪問看護】石川県金沢市上荒屋1丁目305番地", "url": "https://www.kaigokensaku.mhlw.go.jp/17/index.php?action_kouhyou_detail_004_kani=true&JigyosyoCd=1760191617-00&ServiceCd=130&Type=search", "url2": null }, "geometry": { "type": "Point", "coordinates": [ 136.592885700000011, 36.548511 ] } },
{ "type": "Feature", "properties": { "内容": "いろどり訪問看護リハビリステーション【訪問看護】石川県金沢市古府3丁目148-3", "url": "https://www.kaigokensaku.mhlw.go.jp/17/index.php?action_kouhyou_detail_004_kani=true&JigyosyoCd=1760191310-00&ServiceCd=130&Type=search", "url2": "https://lifeplusinca.wixsite.com/website" }, "geometry": { "type": "Point", "coordinates": [ 136.605335599999989, 36.5704716 ] } },
{ "type": "Feature", "properties": { "内容": "訪問看護ステーションフォレスト【訪問看護】南四十万2-22", "url": "https://www.kaigokensaku.mhlw.go.jp/17/index.php?action_kouhyou_detail_004_kani=true&JigyosyoCd=1760190866-00&ServiceCd=130&Type=search", "url2": "wf-forest.flips.jp" }, "geometry": { "type": "Point", "coordinates": [ 136.616409400000066, 36.4977072 ] } },
{ "type": "Feature", "properties": { "内容": "有限会社　伸和　介護サービス　すこやかさん【訪問看護】石川県金沢市入江２丁目４２４", "url": "https://www.kaigokensaku.mhlw.go.jp/17/index.php?action_kouhyou_detail_004_kani=true&JigyosyoCd=1760190742-00&ServiceCd=130&Type=search", "url2": null }, "geometry": { "type": "Point", "coordinates": [ 136.627592700000037, 36.5685237 ] } },
{ "type": "Feature", "properties": { "内容": "けいじゅ金沢訪問看護ステーション【訪問看護】石川県金沢市下新町6番26号", "url": "https://www.kaigokensaku.mhlw.go.jp/17/index.php?action_kouhyou_detail_004_kani=true&JigyosyoCd=1760191401-00&ServiceCd=130&Type=search", "url2": "houkan@nr-kr.or.jp" }, "geometry": { "type": "Point", "coordinates": [ 136.662786485844464, 36.572248100000017 ] } },
{ "type": "Feature", "properties": { "内容": "くるみ訪問看護ステーション【訪問看護】新保本3丁目130番地", "url": "https://www.kaigokensaku.mhlw.go.jp/17/index.php?action_kouhyou_detail_004_kani=true&JigyosyoCd=1760191294-00&ServiceCd=130&Type=search", "url2": null }, "geometry": { "type": "Point", "coordinates": [ 136.60132463818158, 36.557264609625399 ] } },
{ "type": "Feature", "properties": { "内容": "訪問看護ステーション悠ライフ金沢【訪問看護】石川県金沢市有松3丁目1番10号", "url": "https://www.kaigokensaku.mhlw.go.jp/17/index.php?action_kouhyou_detail_004_kani=true&JigyosyoCd=1760191658-00&ServiceCd=130&Type=search", "url2": "https://www.kaigo.kind-life-japan.com/" }, "geometry": { "type": "Point", "coordinates": [ 136.640406399999989, 36.5412843 ] } },
{ "type": "Feature", "properties": { "内容": "訪問看護ステーション　ひゃくまん星【訪問看護】石川県金沢市増泉1丁目16番41号", "url": "https://www.kaigokensaku.mhlw.go.jp/17/index.php?action_kouhyou_detail_004_kani=true&JigyosyoCd=1760191765-00&ServiceCd=130&Type=search", "url2": "http://100manboshi.com/" }, "geometry": { "type": "Point", "coordinates": [ 136.6448246, 36.5587226 ] } },
{ "type": "Feature", "properties": { "内容": "ツクイ金沢訪問看護ステーション【訪問看護】南町4-60　金沢大同生命ビル3階", "url": "https://www.kaigokensaku.mhlw.go.jp/17/index.php?action_kouhyou_detail_004_kani=true&JigyosyoCd=1760191690-00&ServiceCd=130&Type=search", "url2": "https://www.tsukui.net" }, "geometry": { "type": "Point", "coordinates": [ 136.6537607, 36.5668815 ] } },
{ "type": "Feature", "properties": { "内容": "金沢西病院訪問看護ステーション【訪問看護】石川県金沢市駅西本町６丁目15番41号金沢西病院", "url": "https://www.kaigokensaku.mhlw.go.jp/17/index.php?action_kouhyou_detail_004_kani=true&JigyosyoCd=1760190924-00&ServiceCd=130&Type=search", "url2": "http://www.knh.or.jp/" }, "geometry": { "type": "Point", "coordinates": [ 136.625379719712811, 36.586019440993731 ] } },
{ "type": "Feature", "properties": { "内容": "訪問看護　e-life【訪問看護】千木町リ105番地", "url": "https://www.kaigokensaku.mhlw.go.jp/17/index.php?action_kouhyou_detail_004_kani=true&JigyosyoCd=1760191575-00&ServiceCd=130&Type=search", "url2": null }, "geometry": { "type": "Point", "coordinates": [ 136.672312, 36.6079496 ] } },
{ "type": "Feature", "properties": { "内容": "金沢在宅総合支援訪問看護ステーション【訪問看護】石川県金沢市入江2丁目141-1", "url": "https://www.kaigokensaku.mhlw.go.jp/17/index.php?action_kouhyou_detail_004_kani=true&JigyosyoCd=1760191211-00&ServiceCd=130&Type=search", "url2": null }, "geometry": { "type": "Point", "coordinates": [ 136.625921263159967, 36.566340562790415 ] } },
{ "type": "Feature", "properties": { "内容": "はなの木訪問看護リハビリステーション浅野川【訪問看護】石川県金沢市三口町土358番地", "url": "https://www.kaigokensaku.mhlw.go.jp/17/index.php?action_kouhyou_detail_004_kani=true&JigyosyoCd=1760191104-00&ServiceCd=130&Type=search", "url2": "http://erable.co.jp" }, "geometry": { "type": "Point", "coordinates": [ 136.64376, 36.6079355 ] } },
{ "type": "Feature", "properties": { "内容": "ふくし百選　看護サービス金沢【訪問看護】石川県金沢市窪七丁目271番地", "url": "https://www.kaigokensaku.mhlw.go.jp/17/index.php?action_kouhyou_detail_004_kani=true&JigyosyoCd=1760190957-00&ServiceCd=130&Type=search", "url2": "http://www.fukushi100.com/" }, "geometry": { "type": "Point", "coordinates": [ 136.638022472213692, 36.531071203605016 ] } },
{ "type": "Feature", "properties": { "内容": "訪問看護ステーションあおはる【訪問看護】石川県金沢市四十万３丁目102番地", "url": "https://www.kaigokensaku.mhlw.go.jp/17/index.php?action_kouhyou_detail_004_kani=true&JigyosyoCd=1760191708-00&ServiceCd=130&Type=search", "url2": "https://aoharu-st.jp/" }, "geometry": { "type": "Point", "coordinates": [ 136.619702452114836, 36.502173829194255 ] } },
{ "type": "Feature", "properties": { "内容": "金沢赤十字訪問看護ステーション【訪問看護】金沢市三馬２－２５１", "url": "https://www.kaigokensaku.mhlw.go.jp/17/index.php?action_kouhyou_detail_004_kani=true&JigyosyoCd=1760190551-00&ServiceCd=130&Type=search", "url2": "http://kanazawa₋rcｰhosp.jp/" }, "geometry": { "type": "Point", "coordinates": [ 136.63611590000005, 36.5305174 ] } },
{ "type": "Feature", "properties": { "内容": "訪問看護ステーションリベルタ金沢【訪問看護】石川県金沢市並木町1-7", "url": "https://www.kaigokensaku.mhlw.go.jp/17/index.php?action_kouhyou_detail_004_kani=true&JigyosyoCd=1760191492-00&ServiceCd=130&Type=search", "url2": "https://liberta-kanazawa.com/" }, "geometry": { "type": "Point", "coordinates": [ 136.665013600000037, 36.5712737 ] } },
{ "type": "Feature", "properties": { "内容": "ニチイケアセンター笠舞　訪問看護ステーション【訪問看護】石川県金沢市笠舞本町１－４－５", "url": "https://www.kaigokensaku.mhlw.go.jp/17/index.php?action_kouhyou_detail_004_kani=true&JigyosyoCd=1760191005-00&ServiceCd=130&Type=search", "url2": "http://www.nichiigakkan.co.jp" }, "geometry": { "type": "Point", "coordinates": [ 136.675068300000021, 36.5453829 ] } },
{ "type": "Feature", "properties": { "内容": "ウィル訪問看護ステーション金沢【訪問看護】石川県金沢市吉原町ハ66-1", "url": "https://www.kaigokensaku.mhlw.go.jp/17/index.php?action_kouhyou_detail_004_kani=true&JigyosyoCd=1760191732-00&ServiceCd=130&Type=search", "url2": "https://wyl.co.jp/" }, "geometry": { "type": "Point", "coordinates": [ 136.6923473, 36.6134557 ] } },
{ "type": "Feature", "properties": { "内容": "あんしんケアーズリハビリステーション２４【訪問看護】小将町３番６号", "url": "https://www.kaigokensaku.mhlw.go.jp/17/index.php?action_kouhyou_detail_004_kani=true&JigyosyoCd=1760191062-00&ServiceCd=130&Type=search", "url2": "http://anshin-cares.com/" }, "geometry": { "type": "Point", "coordinates": [ 136.666277088954985, 36.564591625068736 ] } },
{ "type": "Feature", "properties": { "内容": "訪問看護ステーションよつ葉金沢【訪問看護】石川県金沢市問屋町1丁目108番地", "url": "https://www.kaigokensaku.mhlw.go.jp/17/index.php?action_kouhyou_detail_004_kani=true&JigyosyoCd=1760190833-00&ServiceCd=130&Type=search", "url2": "http://www.mcare.co.jp/yotsuba/" }, "geometry": { "type": "Point", "coordinates": [ 136.637148700000012, 36.607333499999989 ] } },
{ "type": "Feature", "properties": { "内容": "医療法人社団中央会　訪問看護ステーションありまつ【訪問看護】石川県金沢市有松５－２－２４金沢有松病院別館", "url": "https://www.kaigokensaku.mhlw.go.jp/17/index.php?action_kouhyou_detail_004_kani=true&JigyosyoCd=1760190882-00&ServiceCd=130&Type=search", "url2": "http://www.k-arimatsu.jp" }, "geometry": { "type": "Point", "coordinates": [ 136.639043600000036, 36.5379618 ] } },
{ "type": "Feature", "properties": { "内容": "itosie訪問看護ステーション【訪問看護】石川県金沢市問屋町1丁目37番地", "url": "https://www.kaigokensaku.mhlw.go.jp/17/index.php?action_kouhyou_detail_004_kani=true&JigyosyoCd=1760191633-00&ServiceCd=130&Type=search", "url2": "www.itosie.jp" }, "geometry": { "type": "Point", "coordinates": [ 136.6347998, 36.6067237 ] } },
{ "type": "Feature", "properties": { "内容": "独立行政法人　地域医療機能推進機構金沢病院附属訪問看護ステーション【訪問看護】石川県金沢市沖町ハ－１５", "url": "https://www.kaigokensaku.mhlw.go.jp/17/index.php?action_kouhyou_detail_004_kani=true&JigyosyoCd=1760190874-00&ServiceCd=130&Type=search", "url2": "http://kanazawa.jcho.go.jp/" }, "geometry": { "type": "Point", "coordinates": [ 136.65327559021307, 36.592716461203352 ] } },
{ "type": "Feature", "properties": { "内容": "医療法人社団浅ノ川　あさのがわ訪問リハビリ・訪問看護ステーション【訪問看護】石川県金沢市小坂町中83番地浅ノ川総合病院内　東館1階", "url": "https://www.kaigokensaku.mhlw.go.jp/17/index.php?action_kouhyou_detail_004_kani=true&JigyosyoCd=1760191013-00&ServiceCd=130&Type=search", "url2": "http://www.asanogawa-gh.or.jp/homecare" }, "geometry": { "type": "Point", "coordinates": [ 136.677821799999947, 36.593263 ] } },
{ "type": "Feature", "properties": { "内容": "訪問看護ステーションきゃんばす【訪問看護】石川県金沢市片町2丁目10番42号RENNビルB1F", "url": "https://www.kaigokensaku.mhlw.go.jp/17/index.php?action_kouhyou_detail_004_kani=true&JigyosyoCd=1760191559-00&ServiceCd=130&Type=search", "url2": "https://www.canvas-nurse.com" }, "geometry": { "type": "Point", "coordinates": [ 136.6518532, 36.5621485 ] } },
{ "type": "Feature", "properties": { "内容": "訪問看護ステーションあて【訪問看護】金沢市大豆田本町甲278清和ビル2Ｆ", "url": "https://www.kaigokensaku.mhlw.go.jp/17/index.php?action_kouhyou_detail_004_kani=true&JigyosyoCd=1760190122-00&ServiceCd=130&Type=search", "url2": "http://www.yasuragi39.com/" }, "geometry": { "type": "Point", "coordinates": [ 136.638944700000025, 36.5719959 ] } },
{ "type": "Feature", "properties": { "内容": "こすもす訪問看護ステーション金沢【訪問看護】石川県金沢市諸江町下丁８８番地１", "url": "https://www.kaigokensaku.mhlw.go.jp/17/index.php?action_kouhyou_detail_004_kani=true&JigyosyoCd=1760190791-00&ServiceCd=130&Type=search", "url2": "http://ekango.com" }, "geometry": { "type": "Point", "coordinates": [ 136.643776800000069, 36.6042109 ] } },
{ "type": "Feature", "properties": { "内容": "あっとほーむな訪問看護ステーションやまと【訪問看護】石川県金沢市西泉１丁目１４９番地２", "url": "https://www.kaigokensaku.mhlw.go.jp/17/index.php?action_kouhyou_detail_004_kani=true&JigyosyoCd=1760191385-00&ServiceCd=130&Type=search", "url2": "homeclinic-kanazawa.jp" }, "geometry": { "type": "Point", "coordinates": [ 136.632098871163947, 36.546151302260625 ] } },
{ "type": "Feature", "properties": { "内容": "SOMPOケア　金沢笠舞　訪問看護【訪問看護】石川県金沢市笠舞1-8-18ドミールサニー1階", "url": "https://www.kaigokensaku.mhlw.go.jp/17/index.php?action_kouhyou_detail_004_kani=true&JigyosyoCd=1760190817-00&ServiceCd=130&Type=search", "url2": null }, "geometry": { "type": "Point", "coordinates": [ 136.672662800000012, 36.548088100000015 ] } },
{ "type": "Feature", "properties": { "内容": "なないろ訪問看護ステーション【訪問看護】石川県金沢市近岡町388番地1", "url": "https://www.kaigokensaku.mhlw.go.jp/17/index.php?action_kouhyou_detail_004_kani=true&JigyosyoCd=1760191054-00&ServiceCd=130&Type=search", "url2": "https://nanairo-niji.net/" }, "geometry": { "type": "Point", "coordinates": [ 136.632473609678641, 36.611965165212688 ] } },
{ "type": "Feature", "properties": { "内容": "訪問看護ステーション　しおかぜ【訪問看護】石川県金沢市金石東1丁目4-11金沢西彩庵2階", "url": "https://www.kaigokensaku.mhlw.go.jp/17/index.php?action_kouhyou_detail_004_kani=true&JigyosyoCd=1760191351-00&ServiceCd=130&Type=search", "url2": null }, "geometry": { "type": "Point", "coordinates": [ 136.5973222, 36.5997719 ] } },
{ "type": "Feature", "properties": { "内容": "済生会金沢訪問看護ステーション【訪問看護】石川県金沢市赤土町二１３番地６", "url": "https://www.kaigokensaku.mhlw.go.jp/17/index.php?action_kouhyou_detail_004_kani=true&JigyosyoCd=1760190577-00&ServiceCd=130&Type=search", "url2": "http://www.saiseikaikanazawa.jp" }, "geometry": { "type": "Point", "coordinates": [ 136.595436962796043, 36.582932492584256 ] } },
{ "type": "Feature", "properties": { "内容": "リハビリ訪問看護ステーション【訪問看護】石川県金沢市窪７丁目２６７番地", "url": "https://www.kaigokensaku.mhlw.go.jp/17/index.php?action_kouhyou_detail_004_kani=true&JigyosyoCd=1760190403-00&ServiceCd=130&Type=search", "url2": "https://carepackishikawa.studio.site/top" }, "geometry": { "type": "Point", "coordinates": [ 136.637921300000016, 36.5301564 ] } },
{ "type": "Feature", "properties": { "内容": "KKR北陸訪問看護ステーション【訪問看護】石川県金沢市泉が丘２丁目１３番４３号", "url": "https://www.kaigokensaku.mhlw.go.jp/17/index.php?action_kouhyou_detail_004_kani=true&JigyosyoCd=1760190692-00&ServiceCd=130&Type=search", "url2": "http://www.hokuriku-hosp.jp/" }, "geometry": { "type": "Point", "coordinates": [ 136.644828800000028, 36.5425385 ] } },
{ "type": "Feature", "properties": { "内容": "公益社団法人石川勤労者医療協会２４時間対応型訪問看護ステーションすみれ【訪問看護】金沢市平和町３丁目５番２号健生クリニック内　２階", "url": "https://www.kaigokensaku.mhlw.go.jp/17/index.php?action_kouhyou_detail_004_kani=true&JigyosyoCd=1760190239-00&ServiceCd=130&Type=search", "url2": "http://ishikawa-kinikyo.jp/sumire/" }, "geometry": { "type": "Point", "coordinates": [ 136.6609082, 36.5411501 ] } },
{ "type": "Feature", "properties": { "内容": "訪問看護・リハビリステーション「リハス」【訪問看護】石川県金沢市西泉5丁目33", "url": "https://www.kaigokensaku.mhlw.go.jp/17/index.php?action_kouhyou_detail_004_kani=true&JigyosyoCd=1760190981-00&ServiceCd=130&Type=search", "url2": "http://k-qol.com" }, "geometry": { "type": "Point", "coordinates": [ 136.63196819831694, 36.551624348425591 ] } },
{ "type": "Feature", "properties": { "内容": "訪問看護ステーションＦＬＯＳ【訪問看護】石川県金沢市小坂町西72番地2", "url": "https://www.kaigokensaku.mhlw.go.jp/17/index.php?action_kouhyou_detail_004_kani=true&JigyosyoCd=1760191427-00&ServiceCd=130&Type=search", "url2": "www.radix-flos.com" }, "geometry": { "type": "Point", "coordinates": [ 136.671768074482713, 36.591471765996495 ] } },
{ "type": "Feature", "properties": { "内容": "PDハウス金沢訪問看護ステーション【訪問看護】石川県金沢市諸江町27-9HORIビル2階", "url": "https://www.kaigokensaku.mhlw.go.jp/17/index.php?action_kouhyou_detail_004_kani=true&JigyosyoCd=1760191096-00&ServiceCd=130&Type=search", "url2": null }, "geometry": { "type": "Point", "coordinates": [ 136.641512399999982, 36.59370030000003 ] } },
{ "type": "Feature", "properties": { "内容": "訪問看護ステーション　デューン金沢【訪問看護】石川県金沢市長田2丁目26-5MTKスカイビル101号室", "url": "https://www.kaigokensaku.mhlw.go.jp/17/index.php?action_kouhyou_detail_004_kani=true&JigyosyoCd=1760191146-00&ServiceCd=130&Type=search", "url2": "http://www.nfield.co.jp" }, "geometry": { "type": "Point", "coordinates": [ 136.637374381306444, 36.578499756285531 ] } },
{ "type": "Feature", "properties": { "内容": "ひなの家訪問看護金沢【訪問看護】石川県金沢市末町拾四字45番地", "url": "https://www.kaigokensaku.mhlw.go.jp/17/index.php?action_kouhyou_detail_004_kani=true&JigyosyoCd=1760191880-00&ServiceCd=130&Type=search", "url2": null }, "geometry": { "type": "Point", "coordinates": [ 136.689260600000011, 36.5176242 ] } },
{ "type": "Feature", "properties": { "内容": "ソフィアメディ訪問看護ステーション金沢西【訪問看護】石川県金沢市増泉３丁目１１番７号", "url": "https://www.kaigokensaku.mhlw.go.jp/17/index.php?action_kouhyou_detail_004_kani=true&JigyosyoCd=1760191666-00&ServiceCd=130&Type=search", "url2": "https://www.sophiamedi.co.jp/station/kanazawanishi/" }, "geometry": { "type": "Point", "coordinates": [ 136.637432100000012, 36.5549517 ] } },
{ "type": "Feature", "properties": { "内容": "株式会社学研ココファン・ナーシング金沢【訪問看護】石川県金沢市元菊町21番26号学研ココファン金沢春日", "url": "https://www.kaigokensaku.mhlw.go.jp/17/index.php?action_kouhyou_detail_004_kani=true&JigyosyoCd=1760191542-00&ServiceCd=130&Type=search", "url2": "https://nursing.cocofump.co.jp/company/" }, "geometry": { "type": "Point", "coordinates": [ 136.6417578, 36.572956 ] } },
{ "type": "Feature", "properties": { "内容": "訪問看護ステーションたいむ24【訪問看護】石川県金沢市窪7-211ベルティハイム101", "url": "https://www.kaigokensaku.mhlw.go.jp/17/index.php?action_kouhyou_detail_004_kani=true&JigyosyoCd=1760191682-00&ServiceCd=130&Type=search", "url2": "http://hp.kaipoke.biz/d5r/164820/base_0007.html" }, "geometry": { "type": "Point", "coordinates": [ 136.637091399999946, 36.5309265 ] } },
{ "type": "Feature", "properties": { "内容": "安田内科病院【訪問看護】石川県金沢市大豆田本町ハ62番地", "url": "https://www.kaigokensaku.mhlw.go.jp/17/index.php?action_kouhyou_detail_004_kani=true&JigyosyoCd=1710117167-00&ServiceCd=130&Type=search", "url2": "http://www.kma.jp/yasuda" }, "geometry": { "type": "Point", "coordinates": [ 136.631925799999976, 36.5687044 ] } },
{ "type": "Feature", "properties": { "内容": "医療法人社団流産会　金沢古府記念病院　訪問看護ステーション【訪問看護】石川県金沢市古府一丁目150番地", "url": "https://www.kaigokensaku.mhlw.go.jp/17/index.php?action_kouhyou_detail_004_kani=true&JigyosyoCd=1760191799-00&ServiceCd=130&Type=search", "url2": "https://www.kkm-hp.jp/" }, "geometry": { "type": "Point", "coordinates": [ 136.607610599999987, 36.5639649 ] } },
{ "type": "Feature", "properties": { "内容": "和み訪問看護ステーション【訪問看護】石川県金沢市戸水1丁目217番地", "url": "https://www.kaigokensaku.mhlw.go.jp/17/index.php?action_kouhyou_detail_004_kani=true&JigyosyoCd=1760191450-00&ServiceCd=130&Type=search", "url2": "https://a3umi.hp.peraichi.com/kouwakaigoudougaisya/" }, "geometry": { "type": "Point", "coordinates": [ 136.6239573, 36.6041434 ] } },
{ "type": "Feature", "properties": { "内容": "tonurse訪問看護ステーション【訪問看護】石川県金沢市古府１丁目１８５番地修和テナント1号室", "url": "https://www.kaigokensaku.mhlw.go.jp/17/index.php?action_kouhyou_detail_004_kani=true&JigyosyoCd=1760191831-00&ServiceCd=130&Type=search", "url2": "https://to-nurse.com/" }, "geometry": { "type": "Point", "coordinates": [ 136.606891, 36.564188100000031 ] } },
{ "type": "Feature", "properties": { "内容": "医心館訪問看護ステーション金沢【訪問看護】石川県金沢市戸板2丁目77番地", "url": "https://www.kaigokensaku.mhlw.go.jp/17/index.php?action_kouhyou_detail_004_kani=true&JigyosyoCd=1760191807-00&ServiceCd=130&Type=search", "url2": null }, "geometry": { "type": "Point", "coordinates": [ 136.6236264, 36.5802327 ] } },
{ "type": "Feature", "properties": { "内容": "愛の風訪問看護ステーション【訪問看護】石川県金沢市高畠1丁目368番地", "url": "https://www.kaigokensaku.mhlw.go.jp/17/index.php?action_kouhyou_detail_004_kani=true&JigyosyoCd=1760191872-00&ServiceCd=130&Type=search", "url2": "https://www.site.medicalcare.toyama.jp/office4/ainokaze" }, "geometry": { "type": "Point", "coordinates": [ 136.6141025, 36.5712037 ] } },
{ "type": "Feature", "properties": { "内容": "訪問看護ステーションわらく【訪問看護】石川県金沢市木曳野３丁目２８６番地", "url": "https://www.kaigokensaku.mhlw.go.jp/17/index.php?action_kouhyou_detail_004_kani=true&JigyosyoCd=1760191815-00&ServiceCd=130&Type=search", "url2": "http://touaikai.or.jp" }, "geometry": { "type": "Point", "coordinates": [ 136.6065174, 36.6035081 ] } },
{ "type": "Feature", "properties": { "内容": "訪問看護ステーション春日和金沢【訪問看護】石川県金沢市乙丸町甲144番地", "url": "https://www.kaigokensaku.mhlw.go.jp/17/index.php?action_kouhyou_detail_004_kani=true&JigyosyoCd=1760191278-00&ServiceCd=130&Type=search", "url2": null }, "geometry": { "type": "Point", "coordinates": [ 136.663805, 36.5864504 ] } },
{ "type": "Feature", "properties": { "内容": "マリア訪問看護ステーション【訪問看護】石川県金沢市駅西新町三丁目4-29ルピナスⅡ11号", "url": "https://www.kaigokensaku.mhlw.go.jp/17/index.php?action_kouhyou_detail_004_kani=true&JigyosyoCd=1760191922-00&ServiceCd=130&Type=search", "url2": "https://visitlink.jp/" }, "geometry": { "type": "Point", "coordinates": [ 136.633377700000011, 36.5916767 ] } },
{ "type": "Feature", "properties": { "内容": "医心館訪問看護ステーション金沢Ⅱ【訪問看護】泉が丘２丁目12番35号", "url": "https://www.kaigokensaku.mhlw.go.jp/17/index.php?action_kouhyou_detail_004_kani=true&JigyosyoCd=1760191930-00&ServiceCd=130&Type=search", "url2": null }, "geometry": { "type": "Point", "coordinates": [ 136.644972200000012, 36.5400131 ] } },
{ "type": "Feature", "properties": { "内容": "アクア金沢訪問看護【訪問看護】増泉3丁目４番15号", "url": "https://www.kaigokensaku.mhlw.go.jp/17/index.php?action_kouhyou_detail_004_kani=true&JigyosyoCd=1760191955-00&ServiceCd=130&Type=search", "url2": null }, "geometry": { "type": "Point", "coordinates": [ 136.640496, 36.5562074 ] } },
{ "type": "Feature", "properties": { "内容": "ソルナ訪問看護ステーション【訪問看護】石川県金沢市疋田1-218ジョイエボルアー２号", "url": "https://www.kaigokensaku.mhlw.go.jp/17/index.php?action_kouhyou_detail_004_kani=true&JigyosyoCd=1760191963-00&ServiceCd=130&Type=search", "url2": "http://www.solna.co.jp" }, "geometry": { "type": "Point", "coordinates": [ 136.6730332, 36.6031685 ] } },
{ "type": "Feature", "properties": { "内容": "訪問看護ステーションKANON【訪問看護】石川県金沢市有松4丁目10番2号2階", "url": "https://www.kaigokensaku.mhlw.go.jp/17/index.php?action_kouhyou_detail_004_kani=true&JigyosyoCd=1760191864-00&ServiceCd=130&Type=search", "url2": null }, "geometry": { "type": "Point", "coordinates": [ 136.6371718, 36.5397983 ] } },
{ "type": "Feature", "properties": { "内容": "公立能登総合病院　訪問看護ステーション【訪問看護】石川県七尾市藤橋町ア部6番地4", "url": "https://www.kaigokensaku.mhlw.go.jp/17/index.php?action_kouhyou_detail_004_kani=true&JigyosyoCd=1760290351-00&ServiceCd=130&Type=search", "url2": "http://www.noto-hospital.nanao.ishikawa.jp" }, "geometry": { "type": "Point", "coordinates": [ 136.95671870000001, 37.0423765 ] } },
{ "type": "Feature", "properties": { "内容": "秀楽苑訪問看護ステーション【訪問看護】七尾市中島町鹿島台は部１７番地３", "url": "https://www.kaigokensaku.mhlw.go.jp/17/index.php?action_kouhyou_detail_004_kani=true&JigyosyoCd=1760290617-00&ServiceCd=130&Type=search", "url2": "http://shurakuen.jp/" }, "geometry": { "type": "Point", "coordinates": [ 136.889571199999978, 37.1310423 ] } },
{ "type": "Feature", "properties": { "内容": "恵寿総合病院訪問看護ステーション【訪問看護】石川県七尾市富岡町95番地ローレルハイツ恵寿　1階", "url": "https://www.kaigokensaku.mhlw.go.jp/17/index.php?action_kouhyou_detail_004_kani=true&JigyosyoCd=1760291292-00&ServiceCd=130&Type=search", "url2": "https://www.keijuco.jp" }, "geometry": { "type": "Point", "coordinates": [ 136.962519547746325, 37.050308462947982 ] } },
{ "type": "Feature", "properties": { "内容": "七尾訪問看護ステーション【訪問看護】石川県七尾市本府中町ソ部２０番地", "url": "https://www.kaigokensaku.mhlw.go.jp/17/index.php?action_kouhyou_detail_004_kani=true&JigyosyoCd=1760290286-00&ServiceCd=130&Type=search", "url2": null }, "geometry": { "type": "Point", "coordinates": [ 136.969859199999973, 37.039535900000011 ] } },
{ "type": "Feature", "properties": { "内容": "らいず訪問看護ステーション【訪問看護】石川県七尾市塗師町37番地北野ビル１F", "url": "https://www.kaigokensaku.mhlw.go.jp/17/index.php?action_kouhyou_detail_004_kani=true&JigyosyoCd=1760291078-00&ServiceCd=130&Type=search", "url2": null }, "geometry": { "type": "Point", "coordinates": [ 136.969078599999989, 37.0443242 ] } },
{ "type": "Feature", "properties": { "内容": "小松市民病院訪問看護ステーション【訪問看護】石川県小松市向本折町ホ60番地国民健康保険　小松市民病院内", "url": "https://www.kaigokensaku.mhlw.go.jp/17/index.php?action_kouhyou_detail_004_kani=true&JigyosyoCd=1760391332-00&ServiceCd=130&Type=search", "url2": "https://hosp.komatsu.ishikawa.jp/houmon_kango/" }, "geometry": { "type": "Point", "coordinates": [ 136.439402604893502, 36.398855764596803 ] } },
{ "type": "Feature", "properties": { "内容": "医療法人社団松陽　東病院　訪問看護【訪問看護】石川県小松市大領中町３丁目121", "url": "https://www.kaigokensaku.mhlw.go.jp/17/index.php?action_kouhyou_detail_004_kani=true&JigyosyoCd=1710312263-00&ServiceCd=130&Type=search", "url2": "http://www.higashi-hospital.jp/" }, "geometry": { "type": "Point", "coordinates": [ 136.447635499999933, 36.387005 ] } },
{ "type": "Feature", "properties": { "内容": "訪問看護ステーションゆきあい【訪問看護】石川県小松市北浅井町ハ77番地", "url": "https://www.kaigokensaku.mhlw.go.jp/17/index.php?action_kouhyou_detail_004_kani=true&JigyosyoCd=1760390037-00&ServiceCd=130&Type=search", "url2": "http://drmitani.com/" }, "geometry": { "type": "Point", "coordinates": [ 136.459659399999964, 36.3882502 ] } },
{ "type": "Feature", "properties": { "内容": "アリシス訪問看護ステーション【訪問看護】石川県小松市上小松町丙41-1", "url": "https://www.kaigokensaku.mhlw.go.jp/17/index.php?action_kouhyou_detail_004_kani=true&JigyosyoCd=1760391381-00&ServiceCd=130&Type=search", "url2": "https://www.tyouju.co.jp/" }, "geometry": { "type": "Point", "coordinates": [ 136.4636114, 36.4071021 ] } },
{ "type": "Feature", "properties": { "内容": "訪問看護ステーションややのいえ【訪問看護】石川県小松市小馬出町18番地", "url": "https://www.kaigokensaku.mhlw.go.jp/17/index.php?action_kouhyou_detail_004_kani=true&JigyosyoCd=1760391167-00&ServiceCd=130&Type=search", "url2": "http://sorabuta.com/" }, "geometry": { "type": "Point", "coordinates": [ 136.44783608082966, 36.406452651564045 ] } },
{ "type": "Feature", "properties": { "内容": "訪問看護ステーション　はなはな【訪問看護】石川県小松市土居原町２９１番地１", "url": "https://www.kaigokensaku.mhlw.go.jp/17/index.php?action_kouhyou_detail_004_kani=true&JigyosyoCd=1760390789-00&ServiceCd=130&Type=search", "url2": "hanahanajimu@sophia-hosp.jp" }, "geometry": { "type": "Point", "coordinates": [ 136.450790182981592, 36.401157213376997 ] } },
{ "type": "Feature", "properties": { "内容": "訪問看護ステーション　リハケア芦城【訪問看護】石川県小松市八幡イ12番地７", "url": "https://www.kaigokensaku.mhlw.go.jp/17/index.php?action_kouhyou_detail_004_kani=true&JigyosyoCd=1760391035-00&ServiceCd=130&Type=search", "url2": "http://rehacare-rozyo.com" }, "geometry": { "type": "Point", "coordinates": [ 136.4907724, 36.3922072 ] } },
{ "type": "Feature", "properties": { "内容": "らいず訪問看護ステーション小松【訪問看護】石川県小松市材木町68番地", "url": "https://www.kaigokensaku.mhlw.go.jp/17/index.php?action_kouhyou_detail_004_kani=true&JigyosyoCd=1760391456-00&ServiceCd=130&Type=search", "url2": null }, "geometry": { "type": "Point", "coordinates": [ 136.450684099999989, 36.4068707 ] } },
{ "type": "Feature", "properties": { "内容": "訪問看護ステーションスカイ【訪問看護】石川県小松市矢崎町ネ47番地スマイルビル2階", "url": "https://www.kaigokensaku.mhlw.go.jp/17/index.php?action_kouhyou_detail_004_kani=true&JigyosyoCd=1760391514-00&ServiceCd=130&Type=search", "url2": "http://www.successstarts.jp" }, "geometry": { "type": "Point", "coordinates": [ 136.431369600000011, 36.3643066 ] } },
{ "type": "Feature", "properties": { "内容": "輪島診療所訪問看護【訪問看護】輪島市堀町１字１３－２", "url": "https://www.kaigokensaku.mhlw.go.jp/17/index.php?action_kouhyou_detail_004_kani=true&JigyosyoCd=1710410380-00&ServiceCd=130&Type=search", "url2": "http:www.imir.jp.wajima.htm" }, "geometry": { "type": "Point", "coordinates": [ 136.89511, 37.3893317 ] } },
{ "type": "Feature", "properties": { "内容": "ごちゃまるクリニック【訪問看護】石川県輪島市河井町23-1-150", "url": "https://www.kaigokensaku.mhlw.go.jp/17/index.php?action_kouhyou_detail_004_kani=true&JigyosyoCd=1710410679-00&ServiceCd=130&Type=search", "url2": "https://gochamaru.com/" }, "geometry": { "type": "Point", "coordinates": [ 136.901154100000014, 37.3922871 ] } },
{ "type": "Feature", "properties": { "内容": "市立輪島病院【訪問看護】石川県輪島市山岸町は1番1地", "url": "https://www.kaigokensaku.mhlw.go.jp/17/index.php?action_kouhyou_detail_004_kani=true&JigyosyoCd=1710410513-00&ServiceCd=130&Type=search", "url2": "http://www.city.wajima.ishikawa.jp/wajimahp/" }, "geometry": { "type": "Point", "coordinates": [ 136.905296178543068, 37.384040584910657 ] } },
{ "type": "Feature", "properties": { "内容": "一般社団法人みんなの健康サロン海凪【訪問看護】石川県輪島市堀町3字56番地", "url": "https://www.kaigokensaku.mhlw.go.jp/17/index.php?action_kouhyou_detail_004_kani=true&JigyosyoCd=1760491561-00&ServiceCd=130&Type=search", "url2": null }, "geometry": { "type": "Point", "coordinates": [ 136.8925156, 37.3959294 ] } },
{ "type": "Feature", "properties": { "内容": "珠洲市総合病院指定訪問看護事業所【訪問看護】石川県珠洲市野々江町ユ部1番地１", "url": "https://www.kaigokensaku.mhlw.go.jp/17/index.php?action_kouhyou_detail_004_kani=true&JigyosyoCd=1710510361-00&ServiceCd=130&Type=search", "url2": "https://www.city.suzu.lg.jp/site/suzuhp/index.html" }, "geometry": { "type": "Point", "coordinates": [ 137.270671709600833, 37.443562552455859 ] } },
{ "type": "Feature", "properties": { "内容": "訪問看護ステーション　ぬくもり【訪問看護】石川県加賀市山中温泉上野町ル15番地1", "url": "https://www.kaigokensaku.mhlw.go.jp/17/index.php?action_kouhyou_detail_004_kani=true&JigyosyoCd=1760691186-00&ServiceCd=130&Type=search", "url2": null }, "geometry": { "type": "Point", "coordinates": [ 136.3695614, 36.2540534 ] } },
{ "type": "Feature", "properties": { "内容": "加賀市医療センター訪問看護ステーション【訪問看護】石川県加賀市作見町リ36番地加賀市医療センター", "url": "https://www.kaigokensaku.mhlw.go.jp/17/index.php?action_kouhyou_detail_004_kani=true&JigyosyoCd=1760691269-00&ServiceCd=130&Type=search", "url2": "http:/www.kagacityhp.jp/contents/patient/link.html" }, "geometry": { "type": "Point", "coordinates": [ 136.352137, 36.3173375 ] } },
{ "type": "Feature", "properties": { "内容": "訪問看護ステーション　なのはな【訪問看護】石川県加賀市大聖寺岡町ホ-16-1", "url": "https://www.kaigokensaku.mhlw.go.jp/17/index.php?action_kouhyou_detail_004_kani=true&JigyosyoCd=1760691483-00&ServiceCd=130&Type=search", "url2": "https://www.houmon-nanohana.com/" }, "geometry": { "type": "Point", "coordinates": [ 136.317306035581993, 36.314210715701073 ] } },
{ "type": "Feature", "properties": { "内容": "訪問看護ステーション　えがお【訪問看護】加賀市作見町ホ56番地1にこにこランド内", "url": "https://www.kaigokensaku.mhlw.go.jp/17/index.php?action_kouhyou_detail_004_kani=true&JigyosyoCd=1760690394-00&ServiceCd=130&Type=search", "url2": "http://www.kagafs.jp" }, "geometry": { "type": "Point", "coordinates": [ 136.35773940118861, 36.316071208183885 ] } },
{ "type": "Feature", "properties": { "内容": "加賀中央訪問看護ステーション「さわやか」【訪問看護】石川県加賀市大聖寺永町イ17久藤総合病院内　5階", "url": "https://www.kaigokensaku.mhlw.go.jp/17/index.php?action_kouhyou_detail_004_kani=true&JigyosyoCd=1760691244-00&ServiceCd=130&Type=search", "url2": "http://kudo-hp.jihoukai.com/" }, "geometry": { "type": "Point", "coordinates": [ 136.335088300000052, 36.325441599999984 ] } },
{ "type": "Feature", "properties": { "内容": "いまケア訪問看護リハビリステーション【訪問看護】石川県加賀市作見町り77", "url": "https://www.kaigokensaku.mhlw.go.jp/17/index.php?action_kouhyou_detail_004_kani=true&JigyosyoCd=1760691145-00&ServiceCd=130&Type=search", "url2": null }, "geometry": { "type": "Point", "coordinates": [ 136.3502661, 36.3167299 ] } },
{ "type": "Feature", "properties": { "内容": "訪問看護ステーション加賀【訪問看護】南郷町3乙4番地", "url": "https://www.kaigokensaku.mhlw.go.jp/17/index.php?action_kouhyou_detail_004_kani=true&JigyosyoCd=1760690022-00&ServiceCd=130&Type=search", "url2": "http://www.kaganozomien.jp/" }, "geometry": { "type": "Point", "coordinates": [ 136.326304199999981, 36.292387 ] } },
{ "type": "Feature", "properties": { "内容": "さわらび訪問看護ステーション【訪問看護】石川県加賀市山中温泉塚谷町ロ24-1", "url": "https://www.kaigokensaku.mhlw.go.jp/17/index.php?action_kouhyou_detail_004_kani=true&JigyosyoCd=1760691590-00&ServiceCd=130&Type=search", "url2": "http://www.sawarabi-y.jp/" }, "geometry": { "type": "Point", "coordinates": [ 136.369905499999987, 36.2590617 ] } },
{ "type": "Feature", "properties": { "内容": "羽咋市在宅総合サービスステーション【訪問看護】石川県羽咋市鶴多町亀田17番地羽咋すこやかセンター２階", "url": "https://www.kaigokensaku.mhlw.go.jp/17/index.php?action_kouhyou_detail_004_kani=true&JigyosyoCd=1760790566-00&ServiceCd=130&Type=search", "url2": "http://hakuisyakyo.jp/" }, "geometry": { "type": "Point", "coordinates": [ 136.791364199999947, 36.8980509 ] } },
{ "type": "Feature", "properties": { "内容": "介護センターほのぼの【訪問看護】石川県羽咋市石野町ト４０", "url": "https://www.kaigokensaku.mhlw.go.jp/17/index.php?action_kouhyou_detail_004_kani=true&JigyosyoCd=1760790475-00&ServiceCd=130&Type=search", "url2": "http://ishikawa-kinikyo.jp/hakui/honobono/" }, "geometry": { "type": "Point", "coordinates": [ 136.785872037828767, 36.893895130712657 ] } },
{ "type": "Feature", "properties": { "内容": "訪問看護ステーション　あわら【訪問看護】石川県羽咋市粟原町イ110番地", "url": "https://www.kaigokensaku.mhlw.go.jp/17/index.php?action_kouhyou_detail_004_kani=true&JigyosyoCd=1760791101-00&ServiceCd=130&Type=search", "url2": "https://arawa-hakui.com" }, "geometry": { "type": "Point", "coordinates": [ 136.785206455948355, 36.874010548066451 ] } },
{ "type": "Feature", "properties": { "内容": "訪問看護ステーションしおさい【訪問看護】石川県かほく市白尾タ18番地1", "url": "https://www.kaigokensaku.mhlw.go.jp/17/index.php?action_kouhyou_detail_004_kani=true&JigyosyoCd=1762191359-00&ServiceCd=130&Type=search", "url2": "http://hoyasakai1060nagisa.com" }, "geometry": { "type": "Point", "coordinates": [ 136.695173399999987, 36.7162561 ] } },
{ "type": "Feature", "properties": { "内容": "二ツ屋病院訪問看護ステーション【訪問看護】二ツ屋ソ７２番地", "url": "https://www.kaigokensaku.mhlw.go.jp/17/index.php?action_kouhyou_detail_004_kani=true&JigyosyoCd=1762191326-00&ServiceCd=130&Type=search", "url2": "http://www.futatsuya-hp.jp" }, "geometry": { "type": "Point", "coordinates": [ 136.738513899999987, 36.7846775 ] } },
{ "type": "Feature", "properties": { "内容": "かほく中央訪問看護ステーション【訪問看護】石川県かほく市遠塚ロ52番地10かほく市七塚健康福祉センター", "url": "https://www.kaigokensaku.mhlw.go.jp/17/index.php?action_kouhyou_detail_004_kani=true&JigyosyoCd=1762190609-00&ServiceCd=130&Type=search", "url2": "www.iizcj.or.jp" }, "geometry": { "type": "Point", "coordinates": [ 136.700727, 36.7347602 ] } },
{ "type": "Feature", "properties": { "内容": "かほく高松訪問看護ステーション【訪問看護】石川県かほく市高松ｸ42-1かほく市高松産業文化センター１階", "url": "https://www.kaigokensaku.mhlw.go.jp/17/index.php?action_kouhyou_detail_004_kani=true&JigyosyoCd=1762190591-00&ServiceCd=130&Type=search", "url2": null }, "geometry": { "type": "Point", "coordinates": [ 136.72125410000001, 36.7693588 ] } },
{ "type": "Feature", "properties": { "内容": "訪問看護ステーション碧【訪問看護】石川県かほく市大崎中34", "url": "https://www.kaigokensaku.mhlw.go.jp/17/index.php?action_kouhyou_detail_004_kani=true&JigyosyoCd=1762191607-00&ServiceCd=130&Type=search", "url2": null }, "geometry": { "type": "Point", "coordinates": [ 136.6891699, 36.7043552 ] } },
{ "type": "Feature", "properties": { "内容": "白山ろく訪問看護ステーション【訪問看護】石川県白山市佐良ロ123番地特別養護老人ホーム「大門園」内", "url": "https://www.kaigokensaku.mhlw.go.jp/17/index.php?action_kouhyou_detail_004_kani=true&JigyosyoCd=1762290672-00&ServiceCd=130&Type=search", "url2": null }, "geometry": { "type": "Point", "coordinates": [ 136.646959931352313, 36.324694795445168 ] } },
{ "type": "Feature", "properties": { "内容": "こみけあ訪問看護ステーション【訪問看護】石川県白山市陽羽里2-44-1ケアセンターこみけあ陽羽里", "url": "https://www.kaigokensaku.mhlw.go.jp/17/index.php?action_kouhyou_detail_004_kani=true&JigyosyoCd=1762291134-00&ServiceCd=130&Type=search", "url2": "http://www.komicare.co.jp" }, "geometry": { "type": "Point", "coordinates": [ 136.613761175254808, 36.493481594049086 ] } },
{ "type": "Feature", "properties": { "内容": "訪看リハビリステーションいまひら【訪問看護】石川県白山市今平町429番地", "url": "https://www.kaigokensaku.mhlw.go.jp/17/index.php?action_kouhyou_detail_004_kani=true&JigyosyoCd=1762291175-00&ServiceCd=130&Type=search", "url2": "https://m-project.biz/top/" }, "geometry": { "type": "Point", "coordinates": [ 136.576738100000057, 36.4991458 ] } },
{ "type": "Feature", "properties": { "内容": "白山鶴来訪問看護ステーション【訪問看護】白山市月橋町６９７－１鶴来保健センター内", "url": "https://www.kaigokensaku.mhlw.go.jp/17/index.php?action_kouhyou_detail_004_kani=true&JigyosyoCd=1762290631-00&ServiceCd=130&Type=search", "url2": null }, "geometry": { "type": "Point", "coordinates": [ 136.620078899999953, 36.45673 ] } },
{ "type": "Feature", "properties": { "内容": "白山松任訪問看護ステーション【訪問看護】石川県白山市倉光三丁目100番地健康ｾﾝﾀｰ松任　１階", "url": "https://www.kaigokensaku.mhlw.go.jp/17/index.php?action_kouhyou_detail_004_kani=true&JigyosyoCd=1762290623-00&ServiceCd=130&Type=search", "url2": "http://www.iizcj.or.jp" }, "geometry": { "type": "Point", "coordinates": [ 136.564575, 36.5099443 ] } },
{ "type": "Feature", "properties": { "内容": "あっとほーむな訪問看護ステーションHAKU【訪問看護】相木町209-1", "url": "https://www.kaigokensaku.mhlw.go.jp/17/index.php?action_kouhyou_detail_004_kani=true&JigyosyoCd=1762291472-00&ServiceCd=130&Type=search", "url2": "https://www.ha-ku547.com/" }, "geometry": { "type": "Point", "coordinates": [ 136.564176300000014, 36.5286746 ] } },
{ "type": "Feature", "properties": { "内容": "寺井病院【訪問看護】石川県能美市寺井町ウ８４", "url": "https://www.kaigokensaku.mhlw.go.jp/17/index.php?action_kouhyou_detail_004_kani=true&JigyosyoCd=1712310109-00&ServiceCd=130&Type=search", "url2": "https://terai-hospital.jp/" }, "geometry": { "type": "Point", "coordinates": [ 136.4892059, 36.4382106 ] } },
{ "type": "Feature", "properties": { "内容": "訪問看護ステーション九谷【訪問看護】石川県能美市寺井町わ20番地サービス付き高齢者向け住宅九谷内", "url": "https://www.kaigokensaku.mhlw.go.jp/17/index.php?action_kouhyou_detail_004_kani=true&JigyosyoCd=1762391199-00&ServiceCd=130&Type=search", "url2": "http//sakoujyukutani.at.webry.info" }, "geometry": { "type": "Point", "coordinates": [ 136.4991258, 36.4394008 ] } },
{ "type": "Feature", "properties": { "内容": "ぐらんりーふ訪問看護ステーション【訪問看護】吉原釜屋町ロ６０番１", "url": "https://www.kaigokensaku.mhlw.go.jp/17/index.php?action_kouhyou_detail_004_kani=true&JigyosyoCd=1762391397-00&ServiceCd=130&Type=search", "url2": "http://www.grandlief.net" }, "geometry": { "type": "Point", "coordinates": [ 136.467967038774873, 36.468675637147896 ] } },
{ "type": "Feature", "properties": { "内容": "能美市立病院訪問看護ステーション【訪問看護】石川県能美市大浜町ノ35番地1老人福祉センター　白寿会館1階", "url": "https://www.kaigokensaku.mhlw.go.jp/17/index.php?action_kouhyou_detail_004_kani=true&JigyosyoCd=1762390340-00&ServiceCd=130&Type=search", "url2": "http://nomihsp.com/" }, "geometry": { "type": "Point", "coordinates": [ 136.460238859524566, 36.454565165999341 ] } },
{ "type": "Feature", "properties": { "内容": "ほうじゅ訪問看護・リハステーション緑が丘【訪問看護】石川県能美市緑が丘11丁目71番地芳珠記念病院", "url": "https://www.kaigokensaku.mhlw.go.jp/17/index.php?action_kouhyou_detail_004_kani=true&JigyosyoCd=1762390332-00&ServiceCd=130&Type=search", "url2": "https://www.houju.or.jp/" }, "geometry": { "type": "Point", "coordinates": [ 136.536026900000024, 36.4421521 ] } },
{ "type": "Feature", "properties": { "内容": "訪問看護ステーションよつ葉能美【訪問看護】石川県能美市辰口町485-1", "url": "https://www.kaigokensaku.mhlw.go.jp/17/index.php?action_kouhyou_detail_004_kani=true&JigyosyoCd=1762391629-00&ServiceCd=130&Type=search", "url2": "http://www.mcare.co.jp/yotsuba/" }, "geometry": { "type": "Point", "coordinates": [ 136.5482386, 36.4430177 ] } },
{ "type": "Feature", "properties": { "内容": "ひなの家訪問看護【訪問看護】石川県野々市市郷１丁目１３１番地", "url": "https://www.kaigokensaku.mhlw.go.jp/17/index.php?action_kouhyou_detail_004_kani=true&JigyosyoCd=1761391091-00&ServiceCd=130&Type=search", "url2": "https://hinanoie-houmonkango.jp/" }, "geometry": { "type": "Point", "coordinates": [ 136.612143100000026, 36.5230513 ] } },
{ "type": "Feature", "properties": { "内容": "とくひさ訪問看護ステーション【訪問看護】石川県野々市市蓮花寺町47街区11-1", "url": "https://www.kaigokensaku.mhlw.go.jp/17/index.php?action_kouhyou_detail_004_kani=true&JigyosyoCd=1761391497-00&ServiceCd=130&Type=search", "url2": "http://tokuhisa.net" }, "geometry": { "type": "Point", "coordinates": [ 136.594693339425646, 36.528394694806494 ] } },
{ "type": "Feature", "properties": { "内容": "訪問看護事業所ﾆﾙｳﾞｧｰﾅ【訪問看護】石川県野々市市住吉町26-46", "url": "https://www.kaigokensaku.mhlw.go.jp/17/index.php?action_kouhyou_detail_004_kani=true&JigyosyoCd=1761391026-00&ServiceCd=130&Type=search", "url2": "http://nirvaana.co.jp/" }, "geometry": { "type": "Point", "coordinates": [ 136.617398958051041, 36.523627612900611 ] } },
{ "type": "Feature", "properties": { "内容": "訪問看護ステーションよつ葉ののいち【訪問看護】野々市市二日市町4丁目102番地ガレリアコルテ106号室", "url": "https://www.kaigokensaku.mhlw.go.jp/17/index.php?action_kouhyou_detail_004_kani=true&JigyosyoCd=1761391059-00&ServiceCd=130&Type=search", "url2": "http://www.mcare.co.jp/" }, "geometry": { "type": "Point", "coordinates": [ 136.598655752273203, 36.53907272088825 ] } },
{ "type": "Feature", "properties": { "内容": "野々市訪問看護ステーション【訪問看護】石川県野々市市野代2丁目145-2", "url": "https://www.kaigokensaku.mhlw.go.jp/17/index.php?action_kouhyou_detail_004_kani=true&JigyosyoCd=1761390077-00&ServiceCd=130&Type=search", "url2": null }, "geometry": { "type": "Point", "coordinates": [ 136.604874992807027, 36.540322916158416 ] } },
{ "type": "Feature", "properties": { "内容": "南ヶ丘訪問看護ステーション【訪問看護】石川県野々市市西部中央土地区画整理事業施行地区５６街区１番", "url": "https://www.kaigokensaku.mhlw.go.jp/17/index.php?action_kouhyou_detail_004_kani=true&JigyosyoCd=1761391364-00&ServiceCd=130&Type=search", "url2": "http://www.minamigaoka-hp.or.jp" }, "geometry": { "type": "Point", "coordinates": [ 136.600647, 36.526923 ] } },
{ "type": "Feature", "properties": { "内容": "あっとほーむな訪問看護ステーションのーす【訪問看護】石川県河北郡津幡町庄リ87-1庄の里Ⅱ　102号室", "url": "https://www.kaigokensaku.mhlw.go.jp/17/index.php?action_kouhyou_detail_004_kani=true&JigyosyoCd=1761491529-00&ServiceCd=130&Type=search", "url2": "https://waseda-athome.jp" }, "geometry": { "type": "Point", "coordinates": [ 136.723623, 36.679631 ] } },
{ "type": "Feature", "properties": { "内容": "みんなで笑顔「木のおうち」訪問看護リハビリステーション【訪問看護】石川県河北郡津幡町井上の荘５丁目５７番地", "url": "https://www.kaigokensaku.mhlw.go.jp/17/index.php?action_kouhyou_detail_004_kani=true&JigyosyoCd=1761491206-00&ServiceCd=130&Type=search", "url2": "https://plumeria-heart.com/wp-houmon" }, "geometry": { "type": "Point", "coordinates": [ 136.714277964186181, 36.672874653228682 ] } },
{ "type": "Feature", "properties": { "内容": "津幡訪問看護ステ－ション【訪問看護】石川県河北郡津幡町字津幡ロ51番地2", "url": "https://www.kaigokensaku.mhlw.go.jp/17/index.php?action_kouhyou_detail_004_kani=true&JigyosyoCd=1761490059-00&ServiceCd=130&Type=search", "url2": "http://www.iizci.or.jp" }, "geometry": { "type": "Point", "coordinates": [ 136.7365519, 36.6702878 ] } },
{ "type": "Feature", "properties": { "内容": "うちなだ訪問看護ステーションエヴァ【訪問看護】石川県河北郡内灘町字大学2丁目25-2コーポ大学103", "url": "https://www.kaigokensaku.mhlw.go.jp/17/index.php?action_kouhyou_detail_004_kani=true&JigyosyoCd=1761491412-00&ServiceCd=130&Type=search", "url2": "https://ph-eva.jp" }, "geometry": { "type": "Point", "coordinates": [ 136.646035438813641, 36.653040995974258 ] } },
{ "type": "Feature", "properties": { "内容": "訪問看護リハビリステーションOHANA【訪問看護】石川県河北郡内灘町ハマナス１－９", "url": "https://www.kaigokensaku.mhlw.go.jp/17/index.php?action_kouhyou_detail_004_kani=true&JigyosyoCd=1761491214-00&ServiceCd=130&Type=search", "url2": "https://hk-ohana.jp/" }, "geometry": { "type": "Point", "coordinates": [ 136.64172259999998, 36.6541046 ] } },
{ "type": "Feature", "properties": { "内容": "志賀訪問看護ステーション【訪問看護】石川県羽咋郡志賀町高浜町カの１番地１", "url": "https://www.kaigokensaku.mhlw.go.jp/17/index.php?action_kouhyou_detail_004_kani=true&JigyosyoCd=1761590171-00&ServiceCd=130&Type=search", "url2": "https://www.iizcj.or.jp/" }, "geometry": { "type": "Point", "coordinates": [ 136.775012798876304, 37.010541519504443 ] } },
{ "type": "Feature", "properties": { "内容": "ホームケアステーション歩来　～Aruku～【訪問看護】石川県羽咋郡志賀町高浜町ヤー13番地5", "url": "https://www.kaigokensaku.mhlw.go.jp/17/index.php?action_kouhyou_detail_004_kani=true&JigyosyoCd=1761591617-00&ServiceCd=130&Type=search", "url2": "https://nursingcare-aruku.com/" }, "geometry": { "type": "Point", "coordinates": [ 136.7760635, 37.0020285 ] } },
{ "type": "Feature", "properties": { "内容": "町立宝達志水病院【訪問看護】石川県羽咋郡宝達志水町子浦ロ１１番地１", "url": "https://www.kaigokensaku.mhlw.go.jp/17/index.php?action_kouhyou_detail_004_kani=true&JigyosyoCd=1711510568-00&ServiceCd=130&Type=search", "url2": "http://hodatsushimizu-hp.jp/" }, "geometry": { "type": "Point", "coordinates": [ 136.794945900000016, 36.8669224 ] } },
{ "type": "Feature", "properties": { "内容": "中能登訪問看護ステーション【訪問看護】鹿島郡中能登町能登部上チ部30番地", "url": "https://www.kaigokensaku.mhlw.go.jp/17/index.php?action_kouhyou_detail_004_kani=true&JigyosyoCd=1761690211-00&ServiceCd=130&Type=search", "url2": "http://www.iizcj.or.jp" }, "geometry": { "type": "Point", "coordinates": [ 136.87578910000002, 36.966033 ] } },
{ "type": "Feature", "properties": { "内容": "穴水訪問看護ステーション【訪問看護】石川県鳳珠郡穴水町字川島タの３８番地穴水町保健センター１階", "url": "https://www.kaigokensaku.mhlw.go.jp/17/index.php?action_kouhyou_detail_004_kani=true&JigyosyoCd=1761790961-00&ServiceCd=130&Type=search", "url2": "http://www.iizcj.or.jp" }, "geometry": { "type": "Point", "coordinates": [ 136.910208899999986, 37.2333557 ] } },
{ "type": "Feature", "properties": { "内容": "合同会社スマイルケア　福風訪問看護ステーション【訪問看護】石川県鳳珠郡穴水町字川島ア27-1", "url": "https://www.kaigokensaku.mhlw.go.jp/17/index.php?action_kouhyou_detail_004_kani=true&JigyosyoCd=1761791340-00&ServiceCd=130&Type=search", "url2": null }, "geometry": { "type": "Point", "coordinates": [ 136.910092600000013, 37.2299338 ] } },
{ "type": "Feature", "properties": { "内容": "公立宇出津総合病院【訪問看護】鳳珠郡能登町タ字97番地", "url": "https://www.kaigokensaku.mhlw.go.jp/17/index.php?action_kouhyou_detail_004_kani=true&JigyosyoCd=1711710606-00&ServiceCd=130&Type=search", "url2": "http://www.hospitalnet.jp/" }, "geometry": { "type": "Point", "coordinates": [ 137.146983, 37.3084735 ] } },
{ "type": "Feature", "properties": { "内容": "能登中央訪問看護ステーション【訪問看護】石川県鳳珠郡能登町字崎山1丁目1番地", "url": "https://www.kaigokensaku.mhlw.go.jp/17/index.php?action_kouhyou_detail_004_kani=true&JigyosyoCd=1761790334-00&ServiceCd=130&Type=search", "url2": null }, "geometry": { "type": "Point", "coordinates": [ 137.148652500000026, 37.3028742 ] } }
]
}
