{
"type": "FeatureCollection",
"name": "geo_17_高校",
"crs": { "type": "name", "properties": { "name": "urn:ogc:def:crs:EPSG::6668" } },
"features": [
{ "type": "Feature", "properties": { "P29_001": "17201", "P29_002": "D117110000018", "P29_003": "16004", "P29_004": "金沢大学人間社会学域学校教育学類附属高等学校", "P29_005": "石川県金沢市平和町1-1-15", "P29_006": "1", "P29_007": "0", "P29_008": "00", "P29_009": null }, "geometry": { "type": "Point", "coordinates": [ 136.664274742611553, 36.538629986633907 ] } },
{ "type": "Feature", "properties": { "P29_001": "17201", "P29_002": "D117220100014", "P29_003": "16004", "P29_004": "石川県立金沢錦丘高等学校", "P29_005": "石川県金沢市窪6-218", "P29_006": "2", "P29_007": "0", "P29_008": "00", "P29_009": null }, "geometry": { "type": "Point", "coordinates": [ 136.641468188430395, 36.53017872454155 ] } },
{ "type": "Feature", "properties": { "P29_001": "17201", "P29_002": "D117220100023", "P29_003": "16004", "P29_004": "石川県立金沢泉丘高等学校", "P29_005": "石川県金沢市泉野出町3-10-10", "P29_006": "2", "P29_007": "0", "P29_008": "00", "P29_009": null }, "geometry": { "type": "Point", "coordinates": [ 136.648886016654245, 36.5382069669065 ] } },
{ "type": "Feature", "properties": { "P29_001": "17201", "P29_002": "D117220100032", "P29_003": "16004", "P29_004": "石川県立金沢二水高等学校", "P29_005": "石川県金沢市緑が丘20-15", "P29_006": "2", "P29_007": "0", "P29_008": "00", "P29_009": null }, "geometry": { "type": "Point", "coordinates": [ 136.658296492755142, 36.541168067028465 ] } },
{ "type": "Feature", "properties": { "P29_001": "17201", "P29_002": "D117220100041", "P29_003": "16004", "P29_004": "石川県立金沢伏見高等学校", "P29_005": "石川県金沢市米泉町5-85", "P29_006": "2", "P29_007": "0", "P29_008": "00", "P29_009": null }, "geometry": { "type": "Point", "coordinates": [ 136.627854674759845, 36.54909609617421 ] } },
{ "type": "Feature", "properties": { "P29_001": "17201", "P29_002": "D117220100050", "P29_003": "16004", "P29_004": "石川県立金沢商業高等学校", "P29_005": "石川県金沢市小立野5-4-1", "P29_006": "2", "P29_007": "0", "P29_008": "00", "P29_009": null }, "geometry": { "type": "Point", "coordinates": [ 136.678458921095682, 36.553334888191038 ] } },
{ "type": "Feature", "properties": { "P29_001": "17201", "P29_002": "D117220100069", "P29_003": "16004", "P29_004": "石川県立工業高等学校", "P29_005": "石川県金沢市本多町2-3-6", "P29_006": "2", "P29_007": "0", "P29_008": "00", "P29_009": null }, "geometry": { "type": "Point", "coordinates": [ 136.662882367957025, 36.556421928708303 ] } },
{ "type": "Feature", "properties": { "P29_001": "17201", "P29_002": "D117220100078", "P29_003": "16004", "P29_004": "石川県立金沢桜丘高等学校", "P29_005": "石川県金沢市大樋町16-1", "P29_006": "2", "P29_007": "0", "P29_008": "00", "P29_009": null }, "geometry": { "type": "Point", "coordinates": [ 136.678687280718975, 36.583641142621076 ] } },
{ "type": "Feature", "properties": { "P29_001": "17201", "P29_002": "D117220100087", "P29_003": "16004", "P29_004": "石川県立金沢北陵高等学校", "P29_005": "石川県金沢市吉原町ワ21", "P29_006": "2", "P29_007": "0", "P29_008": "00", "P29_009": null }, "geometry": { "type": "Point", "coordinates": [ 136.692621303376569, 36.607327190381376 ] } },
{ "type": "Feature", "properties": { "P29_001": "17201", "P29_002": "D117220100096", "P29_003": "16004", "P29_004": "石川県立金沢中央高等学校", "P29_005": "石川県金沢市泉本町6-105", "P29_006": "2", "P29_007": "0", "P29_008": "00", "P29_009": null }, "geometry": { "type": "Point", "coordinates": [ 136.638951565934434, 36.554053477169347 ] } },
{ "type": "Feature", "properties": { "P29_001": "17201", "P29_002": "D117220100103", "P29_003": "16004", "P29_004": "石川県立金沢向陽高等学校", "P29_005": "石川県金沢市大場町東590", "P29_006": "2", "P29_007": "0", "P29_008": "00", "P29_009": null }, "geometry": { "type": "Point", "coordinates": [ 136.687250814052305, 36.624037541588791 ] } },
{ "type": "Feature", "properties": { "P29_001": "17201", "P29_002": "D117220100112", "P29_003": "16004", "P29_004": "金沢市立工業高等学校", "P29_005": "石川県金沢市畝田東1-1-1", "P29_006": "3", "P29_007": "0", "P29_008": "00", "P29_009": null }, "geometry": { "type": "Point", "coordinates": [ 136.615604557195581, 36.592482426771511 ] } },
{ "type": "Feature", "properties": { "P29_001": "17201", "P29_002": "D117220100121", "P29_003": "16004", "P29_004": "石川県立金沢西高等学校", "P29_005": "石川県金沢市畝田東3-526", "P29_006": "2", "P29_007": "0", "P29_008": "00", "P29_009": null }, "geometry": { "type": "Point", "coordinates": [ 136.61761978865789, 36.596160664100722 ] } },
{ "type": "Feature", "properties": { "P29_001": "17201", "P29_002": "D117220100130", "P29_003": "16004", "P29_004": "石川県立金沢辰巳丘高等学校", "P29_005": "石川県金沢市末町ニ18", "P29_006": "2", "P29_007": "0", "P29_008": "00", "P29_009": null }, "geometry": { "type": "Point", "coordinates": [ 136.690976769559001, 36.520005208131835 ] } },
{ "type": "Feature", "properties": { "P29_001": "17202", "P29_002": "D117220200013", "P29_003": "16004", "P29_004": "石川県立七尾高等学校", "P29_005": "石川県七尾市西藤橋町エ1-1", "P29_006": "2", "P29_007": "0", "P29_008": "00", "P29_009": null }, "geometry": { "type": "Point", "coordinates": [ 136.958923329864632, 37.042074663495505 ] } },
{ "type": "Feature", "properties": { "P29_001": "17202", "P29_002": "D117220200022", "P29_003": "16004", "P29_004": "石川県立七尾城北高等学校", "P29_005": "石川県七尾市西藤橋町エ1-1", "P29_006": "2", "P29_007": "0", "P29_008": "00", "P29_009": null }, "geometry": { "type": "Point", "coordinates": [ 136.959477472570683, 37.043294328161934 ] } },
{ "type": "Feature", "properties": { "P29_001": "17202", "P29_002": "D117220200031", "P29_003": "16004", "P29_004": "石川県立七尾東雲高等学校", "P29_005": "石川県七尾市下町戊部12-1", "P29_006": "2", "P29_007": "0", "P29_008": "00", "P29_009": null }, "geometry": { "type": "Point", "coordinates": [ 136.929146591170479, 37.012510327684069 ] } },
{ "type": "Feature", "properties": { "P29_001": "17202", "P29_002": "D117220200040", "P29_003": "16004", "P29_004": "石川県立田鶴浜高等学校", "P29_005": "石川県七尾市上野ヶ丘町59", "P29_006": "2", "P29_007": "0", "P29_008": "00", "P29_009": null }, "geometry": { "type": "Point", "coordinates": [ 136.883927177786717, 37.059430778400923 ] } },
{ "type": "Feature", "properties": { "P29_001": "17203", "P29_002": "D117220300012", "P29_003": "16004", "P29_004": "石川県立小松商業高等学校", "P29_005": "石川県小松市希望丘10", "P29_006": "2", "P29_007": "0", "P29_008": "00", "P29_009": null }, "geometry": { "type": "Point", "coordinates": [ 136.4982232902546, 36.399250399028126 ] } },
{ "type": "Feature", "properties": { "P29_001": "17203", "P29_002": "D117220300021", "P29_003": "16004", "P29_004": "石川県立小松工業高等学校", "P29_005": "石川県小松市打越町丙67", "P29_006": "2", "P29_007": "0", "P29_008": "00", "P29_009": null }, "geometry": { "type": "Point", "coordinates": [ 136.472227999273343, 36.400125995381799 ] } },
{ "type": "Feature", "properties": { "P29_001": "17203", "P29_002": "D117220300030", "P29_003": "16004", "P29_004": "石川県立小松高等学校", "P29_005": "石川県小松市丸内町二ノ丸15", "P29_006": "2", "P29_007": "0", "P29_008": "00", "P29_009": null }, "geometry": { "type": "Point", "coordinates": [ 136.446630289496852, 36.412171184163746 ] } },
{ "type": "Feature", "properties": { "P29_001": "17203", "P29_002": "D117220300049", "P29_003": "16004", "P29_004": "石川県立小松北高等学校", "P29_005": "石川県小松市島田町イ85-1", "P29_006": "2", "P29_007": "0", "P29_008": "00", "P29_009": null }, "geometry": { "type": "Point", "coordinates": [ 136.462918468031916, 36.421534063778793 ] } },
{ "type": "Feature", "properties": { "P29_001": "17203", "P29_002": "D117220300058", "P29_003": "16004", "P29_004": "小松市立高等学校", "P29_005": "石川県小松市八幡ト1", "P29_006": "3", "P29_007": "0", "P29_008": "00", "P29_009": null }, "geometry": { "type": "Point", "coordinates": [ 136.493568349152099, 36.399195487875559 ] } },
{ "type": "Feature", "properties": { "P29_001": "17203", "P29_002": "D117220300067", "P29_003": "16004", "P29_004": "石川県立小松明峰高等学校", "P29_005": "石川県小松市平面町へ72", "P29_006": "2", "P29_007": "0", "P29_008": "00", "P29_009": null }, "geometry": { "type": "Point", "coordinates": [ 136.467049834584799, 36.417515992767811 ] } },
{ "type": "Feature", "properties": { "P29_001": "17204", "P29_002": "D117220400011", "P29_003": "16004", "P29_004": "石川県立輪島高等学校", "P29_005": "石川県輪島市河井町18部42-2", "P29_006": "2", "P29_007": "0", "P29_008": "00", "P29_009": null }, "geometry": { "type": "Point", "coordinates": [ 136.904612491267898, 37.390564053855826 ] } },
{ "type": "Feature", "properties": { "P29_001": "17204", "P29_002": "D117220400020", "P29_003": "16004", "P29_004": "石川県立門前高等学校", "P29_005": "石川県輪島市門前町広岡5-3", "P29_006": "2", "P29_007": "0", "P29_008": "00", "P29_009": null }, "geometry": { "type": "Point", "coordinates": [ 136.76728853153827, 37.286680248958397 ] } },
{ "type": "Feature", "properties": { "P29_001": "17205", "P29_002": "D117220500010", "P29_003": "16004", "P29_004": "石川県立飯田高等学校", "P29_005": "石川県珠洲市野々江町1-1", "P29_006": "2", "P29_007": "0", "P29_008": "00", "P29_009": null }, "geometry": { "type": "Point", "coordinates": [ 137.267736796083, 37.447765584604831 ] } },
{ "type": "Feature", "properties": { "P29_001": "17206", "P29_002": "D117220600019", "P29_003": "16004", "P29_004": "石川県立大聖寺実業高等学校", "P29_005": "石川県加賀市熊坂町ヲ77", "P29_006": "2", "P29_007": "0", "P29_008": "00", "P29_009": null }, "geometry": { "type": "Point", "coordinates": [ 136.304681620225523, 36.298251773660681 ] } },
{ "type": "Feature", "properties": { "P29_001": "17206", "P29_002": "D117220600028", "P29_003": "16004", "P29_004": "石川県立大聖寺高等学校", "P29_005": "石川県加賀市大聖寺永町33-1", "P29_006": "2", "P29_007": "0", "P29_008": "00", "P29_009": null }, "geometry": { "type": "Point", "coordinates": [ 136.319103821685246, 36.309647724447984 ] } },
{ "type": "Feature", "properties": { "P29_001": "17206", "P29_002": "D117220600037", "P29_003": "16004", "P29_004": "石川県立加賀聖城高等学校", "P29_005": "石川県加賀市大聖寺馬場町28", "P29_006": "2", "P29_007": "0", "P29_008": "00", "P29_009": null }, "geometry": { "type": "Point", "coordinates": [ 136.307368932241303, 36.305887905062477 ] } },
{ "type": "Feature", "properties": { "P29_001": "17206", "P29_002": "D117220600046", "P29_003": "16004", "P29_004": "石川県立加賀高等学校", "P29_005": "石川県加賀市動橋町ム53", "P29_006": "2", "P29_007": "0", "P29_008": "00", "P29_009": null }, "geometry": { "type": "Point", "coordinates": [ 136.378431941254746, 36.331001748392374 ] } },
{ "type": "Feature", "properties": { "P29_001": "17207", "P29_002": "D117220700018", "P29_003": "16004", "P29_004": "石川県立羽咋高等学校", "P29_005": "石川県羽咋市柳橋町柳橋1", "P29_006": "2", "P29_007": "0", "P29_008": "00", "P29_009": null }, "geometry": { "type": "Point", "coordinates": [ 136.789236567200732, 36.893521153922208 ] } },
{ "type": "Feature", "properties": { "P29_001": "17207", "P29_002": "D117220700027", "P29_003": "16004", "P29_004": "石川県立羽咋工業高等学校", "P29_005": "石川県羽咋市西釜屋町ク21", "P29_006": "2", "P29_007": "0", "P29_008": "00", "P29_009": null }, "geometry": { "type": "Point", "coordinates": [ 136.77488095333922, 36.908385466246393 ] } },
{ "type": "Feature", "properties": { "P29_001": "17207", "P29_002": "D117220700036", "P29_003": "16004", "P29_004": "石川県立羽松高等学校", "P29_005": "石川県羽咋市吉崎町ラ1-2", "P29_006": "2", "P29_007": "0", "P29_008": "00", "P29_009": null }, "geometry": { "type": "Point", "coordinates": [ 136.793300102834905, 36.897856329300993 ] } },
{ "type": "Feature", "properties": { "P29_001": "17210", "P29_002": "D117221000013", "P29_003": "16004", "P29_004": "石川県立松任高等学校", "P29_005": "石川県白山市馬場1-100", "P29_006": "2", "P29_007": "0", "P29_008": "00", "P29_009": null }, "geometry": { "type": "Point", "coordinates": [ 136.561549829800668, 36.520882335072216 ] } },
{ "type": "Feature", "properties": { "P29_001": "17210", "P29_002": "D117221000022", "P29_003": "16004", "P29_004": "石川県立翠星高等学校", "P29_005": "石川県白山市三浦町500-1", "P29_006": "2", "P29_007": "0", "P29_008": "00", "P29_009": null }, "geometry": { "type": "Point", "coordinates": [ 136.574757158605848, 36.513444582408965 ] } },
{ "type": "Feature", "properties": { "P29_001": "17210", "P29_002": "D117221000031", "P29_003": "16004", "P29_004": "石川県立鶴来高等学校", "P29_005": "石川県白山市月橋町710", "P29_006": "2", "P29_007": "0", "P29_008": "00", "P29_009": null }, "geometry": { "type": "Point", "coordinates": [ 136.618822997602564, 36.457430002583685 ] } },
{ "type": "Feature", "properties": { "P29_001": "17211", "P29_002": "D117221100012", "P29_003": "16004", "P29_004": "石川県立寺井高等学校", "P29_005": "石川県能美市吉光町ト90", "P29_006": "2", "P29_007": "0", "P29_008": "00", "P29_009": null }, "geometry": { "type": "Point", "coordinates": [ 136.496402552712709, 36.446910003685986 ] } },
{ "type": "Feature", "properties": { "P29_001": "17212", "P29_002": "D117221200011", "P29_003": "16004", "P29_004": "石川県立野々市明倫高等学校", "P29_005": "石川県野々市市下林3-309", "P29_006": "2", "P29_007": "0", "P29_008": "00", "P29_009": null }, "geometry": { "type": "Point", "coordinates": [ 136.60102486951078, 36.525251866394107 ] } },
{ "type": "Feature", "properties": { "P29_001": "17361", "P29_002": "D117236100010", "P29_003": "16004", "P29_004": "石川県立津幡高等学校", "P29_005": "石川県河北郡津幡町字加賀爪ヲ45", "P29_006": "2", "P29_007": "0", "P29_008": "00", "P29_009": null }, "geometry": { "type": "Point", "coordinates": [ 136.74255066183224, 36.667921639018907 ] } },
{ "type": "Feature", "properties": { "P29_001": "17365", "P29_002": "D117236500016", "P29_003": "16004", "P29_004": "石川県立内灘高等学校", "P29_005": "石川県河北郡内灘町字千鳥台3-1", "P29_006": "2", "P29_007": "0", "P29_008": "00", "P29_009": null }, "geometry": { "type": "Point", "coordinates": [ 136.629846801443762, 36.641638948087746 ] } },
{ "type": "Feature", "properties": { "P29_001": "17384", "P29_002": "D117238400013", "P29_003": "16004", "P29_004": "石川県立志賀高等学校", "P29_005": "石川県羽咋郡志賀町高浜町ノ170", "P29_006": "2", "P29_007": "0", "P29_008": "00", "P29_009": null }, "geometry": { "type": "Point", "coordinates": [ 136.771950097889146, 37.001523240318853 ] } },
{ "type": "Feature", "properties": { "P29_001": "17386", "P29_002": "D117238600011", "P29_003": "16004", "P29_004": "石川県立宝達高等学校", "P29_005": "石川県羽咋郡宝達志水町今浜ト80", "P29_006": "2", "P29_007": "0", "P29_008": "00", "P29_009": null }, "geometry": { "type": "Point", "coordinates": [ 136.760259908118826, 36.824407016233685 ] } },
{ "type": "Feature", "properties": { "P29_001": "17407", "P29_002": "D117240700016", "P29_003": "16004", "P29_004": "石川県立鹿西高等学校", "P29_005": "石川県鹿島郡中能登町能登部上ヲ1", "P29_006": "2", "P29_007": "0", "P29_008": "00", "P29_009": null }, "geometry": { "type": "Point", "coordinates": [ 136.871039681935628, 36.963454895013676 ] } },
{ "type": "Feature", "properties": { "P29_001": "17461", "P29_002": "D117246100019", "P29_003": "16004", "P29_004": "石川県立穴水高等学校", "P29_005": "石川県鳳珠郡穴水町由比丘い33", "P29_006": "2", "P29_007": "0", "P29_008": "00", "P29_009": null }, "geometry": { "type": "Point", "coordinates": [ 136.921833275093547, 37.227479121428921 ] } },
{ "type": "Feature", "properties": { "P29_001": "17463", "P29_002": "D117246300017", "P29_003": "16004", "P29_004": "石川県立能登高等学校", "P29_005": "石川県鳳珠郡能登町宇出津マ106-7", "P29_006": "2", "P29_007": "0", "P29_008": "00", "P29_009": null }, "geometry": { "type": "Point", "coordinates": [ 137.150785697488885, 37.299005659026243 ] } },
{ "type": "Feature", "properties": { "P29_001": "17201", "P29_002": "D117320100012", "P29_003": "16004", "P29_004": "金沢高等学校", "P29_005": "石川県金沢市泉本町3-111", "P29_006": "4", "P29_007": "0", "P29_008": "00", "P29_009": null }, "geometry": { "type": "Point", "coordinates": [ 136.635425794917154, 36.550647997281537 ] } },
{ "type": "Feature", "properties": { "P29_001": "17201", "P29_002": "D117320100021", "P29_003": "16004", "P29_004": "金沢学院大学附属高等学校", "P29_005": "石川県金沢市末町10", "P29_006": "4", "P29_007": "0", "P29_008": "00", "P29_009": null }, "geometry": { "type": "Point", "coordinates": [ 136.695596969418517, 36.514315226555958 ] } },
{ "type": "Feature", "properties": { "P29_001": "17201", "P29_002": "D117320100030", "P29_003": "16004", "P29_004": "遊学館高等学校", "P29_005": "石川県金沢市本多町2-2-3", "P29_006": "4", "P29_007": "0", "P29_008": "00", "P29_009": null }, "geometry": { "type": "Point", "coordinates": [ 136.660775235260644, 36.555412911294638 ] } },
{ "type": "Feature", "properties": { "P29_001": "17201", "P29_002": "D117320100049", "P29_003": "16004", "P29_004": "金沢龍谷高等学校", "P29_005": "石川県金沢市上安原町169-1", "P29_006": "4", "P29_007": "0", "P29_008": "00", "P29_009": null }, "geometry": { "type": "Point", "coordinates": [ 136.58627782078625, 36.566040725059509 ] } },
{ "type": "Feature", "properties": { "P29_001": "17201", "P29_002": "D117320100058", "P29_003": "16004", "P29_004": "北陸学院高等学校", "P29_005": "石川県金沢市飛梅町1-10", "P29_006": "4", "P29_007": "0", "P29_008": "00", "P29_009": null }, "geometry": { "type": "Point", "coordinates": [ 136.667087391213528, 36.559468504808905 ] } },
{ "type": "Feature", "properties": { "P29_001": "17201", "P29_002": "D117320100067", "P29_003": "16004", "P29_004": "星稜高等学校", "P29_005": "石川県金沢市小坂町南206", "P29_006": "4", "P29_007": "0", "P29_008": "00", "P29_009": null }, "geometry": { "type": "Point", "coordinates": [ 136.682524323517129, 36.584838862806741 ] } },
{ "type": "Feature", "properties": { "P29_001": "17202", "P29_002": "D117320200011", "P29_003": "16004", "P29_004": "鵬学園高等学校", "P29_005": "石川県七尾市天神川原町ハ-32", "P29_006": "4", "P29_007": "0", "P29_008": "00", "P29_009": null }, "geometry": { "type": "Point", "coordinates": [ 136.9742799224789, 37.029950645808881 ] } },
{ "type": "Feature", "properties": { "P29_001": "17203", "P29_002": "D117320300010", "P29_003": "16004", "P29_004": "小松大谷高等学校", "P29_005": "石川県小松市津波倉町チ1", "P29_006": "4", "P29_007": "0", "P29_008": "00", "P29_009": null }, "geometry": { "type": "Point", "coordinates": [ 136.446072360681512, 36.347606118576856 ] } },
{ "type": "Feature", "properties": { "P29_001": "17204", "P29_002": "D117320400019", "P29_003": "16004", "P29_004": "日本航空高等学校石川", "P29_005": "石川県輪島市三井町洲衛9部27-7", "P29_006": "4", "P29_007": "0", "P29_008": "00", "P29_009": null }, "geometry": { "type": "Point", "coordinates": [ 136.961286767907694, 37.296532993589437 ] } },
{ "type": "Feature", "properties": { "P29_001": "17210", "P29_002": "D117321000011", "P29_003": "16004", "P29_004": "叡明館（高等部）", "P29_005": "石川県白山市長島町1001", "P29_006": "4", "P29_007": "0", "P29_008": "00", "P29_009": null }, "geometry": { "type": "Point", "coordinates": [ 136.557807305673947, 36.495166054349312 ] } },
{ "type": "Feature", "properties": { "P29_001": "17210", "P29_002": "D117321000020", "P29_003": "16004", "P29_004": "美川特区アットマーク国際高等学校", "P29_005": "石川県白山市美川浜町タ5", "P29_006": "4", "P29_007": "0", "P29_008": "00", "P29_009": null }, "geometry": { "type": "Point", "coordinates": [ 136.492631844685462, 36.489594577529424 ] } }
]
}
