{
"type": "FeatureCollection",
"name": "geo_17_特定施設入居者生活介護（有料老人ホーム）",
"crs": { "type": "name", "properties": { "name": "urn:ogc:def:crs:OGC:1.3:CRS84" } },
"features": [
{ "type": "Feature", "properties": { "内容": "スプリングライフ金沢【特定施設入居者生活介護（有料老人ホーム）】金沢市粟崎町4丁目80番地2", "url2": "https://www.kaigokensaku.mhlw.go.jp/17/index.php?action_kouhyou_detail_004_kani=true&JigyosyoCd=1770100012-00&ServiceCd=331&Type=search" }, "geometry": { "type": "Point", "coordinates": [ 136.62284109999996, 36.6305681 ] } },
{ "type": "Feature", "properties": { "内容": "メディカルホームグランダ金沢武蔵【特定施設入居者生活介護（有料老人ホーム）】石川県金沢市武蔵町13番15号", "url2": "https://www.kaigokensaku.mhlw.go.jp/17/index.php?action_kouhyou_detail_004_kani=true&JigyosyoCd=1770107454-00&ServiceCd=331&Type=search" }, "geometry": { "type": "Point", "coordinates": [ 136.653599500000013, 36.5722856 ] } },
{ "type": "Feature", "properties": { "内容": "特定施設入居者生活介護ボニュール平和苑【特定施設入居者生活介護（有料老人ホーム）】石川県金沢市平和町3丁目8番1ボニュール平和苑", "url2": "https://www.kaigokensaku.mhlw.go.jp/17/index.php?action_kouhyou_detail_004_kani=true&JigyosyoCd=1770104519-00&ServiceCd=331&Type=search" }, "geometry": { "type": "Point", "coordinates": [ 136.6638434, 36.5413027 ] } },
{ "type": "Feature", "properties": { "内容": "リビングさい【特定施設入居者生活介護（有料老人ホーム）】石川県金沢市松島３丁目２０７番地", "url2": "https://www.kaigokensaku.mhlw.go.jp/17/index.php?action_kouhyou_detail_004_kani=true&JigyosyoCd=1770106217-00&ServiceCd=331&Type=search" }, "geometry": { "type": "Point", "coordinates": [ 136.602794928836062, 36.568180130550523 ] } },
{ "type": "Feature", "properties": { "内容": "シニアホームみらい鞍月【特定施設入居者生活介護（有料老人ホーム）】鞍月東1丁目6番地", "url2": "https://www.kaigokensaku.mhlw.go.jp/17/index.php?action_kouhyou_detail_004_kani=true&JigyosyoCd=1770105656-00&ServiceCd=331&Type=search" }, "geometry": { "type": "Point", "coordinates": [ 136.629914570500205, 36.593347440429568 ] } },
{ "type": "Feature", "properties": { "内容": "マザーシップ浅野本町【特定施設入居者生活介護（有料老人ホーム）】石川県金沢市浅野本町ニ172-1", "url2": "https://www.kaigokensaku.mhlw.go.jp/17/index.php?action_kouhyou_detail_004_kani=true&JigyosyoCd=1770104089-00&ServiceCd=331&Type=search" }, "geometry": { "type": "Point", "coordinates": [ 136.656101400000011, 36.589602 ] } },
{ "type": "Feature", "properties": { "内容": "ひなた駅西【特定施設入居者生活介護（有料老人ホーム）】石川県金沢市北安江3丁目3番1号", "url2": "https://www.kaigokensaku.mhlw.go.jp/17/index.php?action_kouhyou_detail_004_kani=true&JigyosyoCd=1770105110-00&ServiceCd=331&Type=search" }, "geometry": { "type": "Point", "coordinates": [ 136.645683101188638, 36.583622811010642 ] } },
{ "type": "Feature", "properties": { "内容": "介護付きホーム　憩の家特定施設入居者生活介護【特定施設入居者生活介護（有料老人ホーム）】金沢市馬替２丁目８番地1", "url2": "https://www.kaigokensaku.mhlw.go.jp/17/index.php?action_kouhyou_detail_004_kani=true&JigyosyoCd=1770104709-00&ServiceCd=331&Type=search" }, "geometry": { "type": "Point", "coordinates": [ 136.622367199999985, 36.5211626 ] } },
{ "type": "Feature", "properties": { "内容": "介護付有料老人ホーム　シティモンド金沢【特定施設入居者生活介護（有料老人ホーム）】石川県金沢市橋場町2番10号", "url2": "https://www.kaigokensaku.mhlw.go.jp/17/index.php?action_kouhyou_detail_004_kani=true&JigyosyoCd=1770102026-00&ServiceCd=331&Type=search" }, "geometry": { "type": "Point", "coordinates": [ 136.664646, 36.5692745 ] } },
{ "type": "Feature", "properties": { "内容": "リハビリホームグランダ金沢兼六元町【特定施設入居者生活介護（有料老人ホーム）】石川県金沢市兼六元町3-72", "url2": "https://www.kaigokensaku.mhlw.go.jp/17/index.php?action_kouhyou_detail_004_kani=true&JigyosyoCd=1770107462-00&ServiceCd=331&Type=search" }, "geometry": { "type": "Point", "coordinates": [ 136.6654536, 36.5656048 ] } },
{ "type": "Feature", "properties": { "内容": "ウエルネスふらま【特定施設入居者生活介護（有料老人ホーム）】石川県小松市千代町と１００－１", "url2": "https://www.kaigokensaku.mhlw.go.jp/17/index.php?action_kouhyou_detail_004_kani=true&JigyosyoCd=1770300315-00&ServiceCd=331&Type=search" }, "geometry": { "type": "Point", "coordinates": [ 136.496478300000035, 36.4106297 ] } },
{ "type": "Feature", "properties": { "内容": "ウエルネスかねの【特定施設入居者生活介護（有料老人ホーム）】石川県小松市金平町ラ100番地1", "url2": "https://www.kaigokensaku.mhlw.go.jp/17/index.php?action_kouhyou_detail_004_kani=true&JigyosyoCd=1770300463-00&ServiceCd=331&Type=search" }, "geometry": { "type": "Point", "coordinates": [ 136.493724299999911, 36.358581299999983 ] } },
{ "type": "Feature", "properties": { "内容": "ケアハウス　メゾンウルーズ【特定施設入居者生活介護（有料老人ホーム）】石川県白山市松任駅北相木第2土地区画整理事業施行地区内19街区1", "url2": "https://www.kaigokensaku.mhlw.go.jp/17/index.php?action_kouhyou_detail_004_kani=true&JigyosyoCd=1772201073-00&ServiceCd=331&Type=search" }, "geometry": { "type": "Point", "coordinates": [ 136.5661057, 36.5266568 ] } },
{ "type": "Feature", "properties": { "内容": "悠の風　野々市【特定施設入居者生活介護（有料老人ホーム）】横宮町16番9号", "url2": "https://www.kaigokensaku.mhlw.go.jp/17/index.php?action_kouhyou_detail_004_kani=true&JigyosyoCd=1771300397-00&ServiceCd=331&Type=search" }, "geometry": { "type": "Point", "coordinates": [ 136.616703799999982, 36.5339666 ] } },
{ "type": "Feature", "properties": { "内容": "株式会社はなみずき　介護付有料老人ホーム　スーパーびゅー蓮花寺【特定施設入居者生活介護（有料老人ホーム）】野々市市蓮花寺町25番地", "url2": "https://www.kaigokensaku.mhlw.go.jp/17/index.php?action_kouhyou_detail_004_kani=true&JigyosyoCd=1771300462-00&ServiceCd=331&Type=search" }, "geometry": { "type": "Point", "coordinates": [ 136.5923699, 36.5306337 ] } }
]
}
