{
"type": "FeatureCollection",
"name": "geo_17_短期入所療養介護（介護老人保健施設）",
"crs": { "type": "name", "properties": { "name": "urn:ogc:def:crs:OGC:1.3:CRS84" } },
"features": [
{ "type": "Feature", "properties": { "内容": "金沢春日ケアセンター【短期入所療養介護（介護老人保健施設）】石川県金沢市元菊町２０番１号", "url2": "https://www.kaigokensaku.mhlw.go.jp/17/index.php?action_kouhyou_detail_004_kani=true&JigyosyoCd=1750180018-00&ServiceCd=220&Type=search" }, "geometry": { "type": "Point", "coordinates": [ 136.6421876, 36.573611 ] } },
{ "type": "Feature", "properties": { "内容": "介護老人保健施設　あっぷる【短期入所療養介護（介護老人保健施設）】金沢市長坂町チ15番地", "url2": "https://www.kaigokensaku.mhlw.go.jp/17/index.php?action_kouhyou_detail_004_kani=true&JigyosyoCd=1750180125-00&ServiceCd=220&Type=search" }, "geometry": { "type": "Point", "coordinates": [ 136.657033599999949, 36.5321984 ] } },
{ "type": "Feature", "properties": { "内容": "介護老人保健施設　ろうけん桜並木【短期入所療養介護（介護老人保健施設）】石川県金沢市田上さくら二丁目７２番地", "url2": "https://www.kaigokensaku.mhlw.go.jp/17/index.php?action_kouhyou_detail_004_kani=true&JigyosyoCd=1750180406-00&ServiceCd=220&Type=search" }, "geometry": { "type": "Point", "coordinates": [ 136.689089700000068, 36.5435248 ] } },
{ "type": "Feature", "properties": { "内容": "福久ケアセンター【短期入所療養介護（介護老人保健施設）】金沢市福久町ワ１番地１", "url2": "https://www.kaigokensaku.mhlw.go.jp/17/index.php?action_kouhyou_detail_004_kani=true&JigyosyoCd=1750180224-00&ServiceCd=220&Type=search" }, "geometry": { "type": "Point", "coordinates": [ 136.677337599999987, 36.6173959 ] } },
{ "type": "Feature", "properties": { "内容": "老人保健施設　なでしこの丘【短期入所療養介護（介護老人保健施設）】石川県金沢市馬替２丁目１４２番地", "url2": "https://www.kaigokensaku.mhlw.go.jp/17/index.php?action_kouhyou_detail_004_kani=true&JigyosyoCd=1750180091-00&ServiceCd=220&Type=search" }, "geometry": { "type": "Point", "coordinates": [ 136.620970100000022, 36.5218431 ] } },
{ "type": "Feature", "properties": { "内容": "田中町温泉ケアセンター【短期入所療養介護（介護老人保健施設）】金沢市田中町は１６番地", "url2": "https://www.kaigokensaku.mhlw.go.jp/17/index.php?action_kouhyou_detail_004_kani=true&JigyosyoCd=1750180075-00&ServiceCd=220&Type=search" }, "geometry": { "type": "Point", "coordinates": [ 136.6605396, 36.5995673 ] } },
{ "type": "Feature", "properties": { "内容": "地域医療機能推進機構金沢病院附属介護老人保健施設【短期入所療養介護（介護老人保健施設）】金沢市沖町ハ部１５", "url2": "https://www.kaigokensaku.mhlw.go.jp/17/index.php?action_kouhyou_detail_004_kani=true&JigyosyoCd=1750180315-00&ServiceCd=220&Type=search" }, "geometry": { "type": "Point", "coordinates": [ 136.6514267, 36.5915128 ] } },
{ "type": "Feature", "properties": { "内容": "みらいのさと太陽【短期入所療養介護（介護老人保健施設）】金沢市鞍月東1丁目17番地", "url2": "https://www.kaigokensaku.mhlw.go.jp/17/index.php?action_kouhyou_detail_004_kani=true&JigyosyoCd=1750180067-00&ServiceCd=220&Type=search" }, "geometry": { "type": "Point", "coordinates": [ 136.6311389, 36.5940428 ] } },
{ "type": "Feature", "properties": { "内容": "介護老人保健施設　ピカソ【短期入所療養介護（介護老人保健施設）】石川県金沢市田上本町カ45番地1", "url2": "https://www.kaigokensaku.mhlw.go.jp/17/index.php?action_kouhyou_detail_004_kani=true&JigyosyoCd=1750180299-00&ServiceCd=220&Type=search" }, "geometry": { "type": "Point", "coordinates": [ 136.700985699999961, 36.5297971 ] } },
{ "type": "Feature", "properties": { "内容": "老健ホームいしかわ【短期入所療養介護（介護老人保健施設）】石川県金沢市忠縄町144番地1老健ホームいしかわ", "url2": "https://www.kaigokensaku.mhlw.go.jp/17/index.php?action_kouhyou_detail_004_kani=true&JigyosyoCd=1750180323-00&ServiceCd=220&Type=search" }, "geometry": { "type": "Point", "coordinates": [ 136.691639900000013, 36.628972 ] } },
{ "type": "Feature", "properties": { "内容": "千木町ケアセンター【短期入所療養介護（介護老人保健施設）】石川県金沢市千木町ヘ3番地1", "url2": "https://www.kaigokensaku.mhlw.go.jp/17/index.php?action_kouhyou_detail_004_kani=true&JigyosyoCd=1750180414-00&ServiceCd=220&Type=search" }, "geometry": { "type": "Point", "coordinates": [ 136.67214194854887, 36.611494536423905 ] } },
{ "type": "Feature", "properties": { "内容": "介護老人保健施設寿老園【短期入所療養介護（介護老人保健施設）】石川県七尾市中島町鹿島台は部14番地1", "url2": "https://www.kaigokensaku.mhlw.go.jp/17/index.php?action_kouhyou_detail_004_kani=true&JigyosyoCd=1750280198-00&ServiceCd=220&Type=search" }, "geometry": { "type": "Point", "coordinates": [ 136.8871543, 37.1309463 ] } },
{ "type": "Feature", "properties": { "内容": "介護老人保健施設「えんやま」【短期入所療養介護（介護老人保健施設）】石川県七尾市千野町に部10番地", "url2": "https://www.kaigokensaku.mhlw.go.jp/17/index.php?action_kouhyou_detail_004_kani=true&JigyosyoCd=1750280420-00&ServiceCd=220&Type=search" }, "geometry": { "type": "Point", "coordinates": [ 136.952653199999986, 37.0158738 ] } },
{ "type": "Feature", "properties": { "内容": "介護老人保健施設　和光苑【短期入所療養介護（介護老人保健施設）】石川県七尾市津向町ト部107番地", "url2": "https://www.kaigokensaku.mhlw.go.jp/17/index.php?action_kouhyou_detail_004_kani=true&JigyosyoCd=1750280024-00&ServiceCd=220&Type=search" }, "geometry": { "type": "Point", "coordinates": [ 136.9544847, 37.0589375 ] } },
{ "type": "Feature", "properties": { "内容": "介護老人保健施設　さくら園【短期入所療養介護（介護老人保健施設）】小松市園町ホ３５番地１", "url2": "https://www.kaigokensaku.mhlw.go.jp/17/index.php?action_kouhyou_detail_004_kani=true&JigyosyoCd=1750380378-00&ServiceCd=220&Type=search" }, "geometry": { "type": "Point", "coordinates": [ 136.46052009999994, 36.4085834 ] } },
{ "type": "Feature", "properties": { "内容": "老人保健施設まだら園【短期入所療養介護（介護老人保健施設）】小松市北浅井町り125番地1", "url2": "https://www.kaigokensaku.mhlw.go.jp/17/index.php?action_kouhyou_detail_004_kani=true&JigyosyoCd=1750380170-00&ServiceCd=220&Type=search" }, "geometry": { "type": "Point", "coordinates": [ 136.4570678, 36.3899887 ] } },
{ "type": "Feature", "properties": { "内容": "介護老人保健施設　グリーン・ポート小松【短期入所療養介護（介護老人保健施設）】小松市岩渕町４６－２", "url2": "https://www.kaigokensaku.mhlw.go.jp/17/index.php?action_kouhyou_detail_004_kani=true&JigyosyoCd=1750380204-00&ServiceCd=220&Type=search" }, "geometry": { "type": "Point", "coordinates": [ 136.526641, 36.3917314 ] } },
{ "type": "Feature", "properties": { "内容": "介護老人保健施設レイクサイド木場【短期入所療養介護（介護老人保健施設）】石川県小松市三谷町そ80番地", "url2": "https://www.kaigokensaku.mhlw.go.jp/17/index.php?action_kouhyou_detail_004_kani=true&JigyosyoCd=1750380345-00&ServiceCd=220&Type=search" }, "geometry": { "type": "Point", "coordinates": [ 136.4538854, 36.3688861 ] } },
{ "type": "Feature", "properties": { "内容": "介護老人保健施設　太陽の丘【短期入所療養介護（介護老人保健施設）】石川県加賀市深田ロ2番地1", "url2": "https://www.kaigokensaku.mhlw.go.jp/17/index.php?action_kouhyou_detail_004_kani=true&JigyosyoCd=1750680330-00&ServiceCd=220&Type=search" }, "geometry": { "type": "Point", "coordinates": [ 136.302683800000011, 36.3428133 ] } },
{ "type": "Feature", "properties": { "内容": "介護⽼⼈保健施設加賀中央メディケアホーム【短期入所療養介護（介護老人保健施設）】⽯川県加賀市⼭⽥町蛇⾕1番地19", "url2": "https://www.kaigokensaku.mhlw.go.jp/17/index.php?action_kouhyou_detail_004_kani=true&JigyosyoCd=1750680033-00&ServiceCd=220&Type=search" }, "geometry": { "type": "Point", "coordinates": [ 136.314627100000052, 36.3026243 ] } },
{ "type": "Feature", "properties": { "内容": "介護老人保健施設　千代野苑【短期入所療養介護（介護老人保健施設）】石川県白山市米永町303番地5", "url2": "https://www.kaigokensaku.mhlw.go.jp/17/index.php?action_kouhyou_detail_004_kani=true&JigyosyoCd=1752280055-00&ServiceCd=220&Type=search" }, "geometry": { "type": "Point", "coordinates": [ 136.542629499999947, 36.5156066 ] } },
{ "type": "Feature", "properties": { "内容": "介護老人保健施設なごみ苑【短期入所療養介護（介護老人保健施設）】石川県白山市米永町300番地2", "url2": "https://www.kaigokensaku.mhlw.go.jp/17/index.php?action_kouhyou_detail_004_kani=true&JigyosyoCd=1752280360-00&ServiceCd=220&Type=search" }, "geometry": { "type": "Point", "coordinates": [ 136.54371, 36.515466315935427 ] } },
{ "type": "Feature", "properties": { "内容": "介護老人保健施設　手取の里【短期入所療養介護（介護老人保健施設）】寺井町ウ84", "url2": "https://www.kaigokensaku.mhlw.go.jp/17/index.php?action_kouhyou_detail_004_kani=true&JigyosyoCd=1752380301-00&ServiceCd=220&Type=search" }, "geometry": { "type": "Point", "coordinates": [ 136.489008900000044, 36.4385639 ] } },
{ "type": "Feature", "properties": { "内容": "能美市介護老人保健施設はまなすの丘【短期入所療養介護（介護老人保健施設）】石川県能美市大浜町ム52番地18", "url2": "https://www.kaigokensaku.mhlw.go.jp/17/index.php?action_kouhyou_detail_004_kani=true&JigyosyoCd=1752380285-00&ServiceCd=220&Type=search" }, "geometry": { "type": "Point", "coordinates": [ 136.453288400000019, 36.4547691 ] } },
{ "type": "Feature", "properties": { "内容": "介護老人保健施設　陽翠の里【短期入所療養介護（介護老人保健施設）】石川県能美市緑が丘１１丁目７７番地", "url2": "https://www.kaigokensaku.mhlw.go.jp/17/index.php?action_kouhyou_detail_004_kani=true&JigyosyoCd=1752380236-00&ServiceCd=220&Type=search" }, "geometry": { "type": "Point", "coordinates": [ 136.535343600000033, 36.4424825 ] } },
{ "type": "Feature", "properties": { "内容": "内灘温泉保養館【短期入所療養介護（介護老人保健施設）】石川県河北郡内灘町白帆台1-88-1", "url2": "https://www.kaigokensaku.mhlw.go.jp/17/index.php?action_kouhyou_detail_004_kani=true&JigyosyoCd=1751480102-00&ServiceCd=220&Type=search" }, "geometry": { "type": "Point", "coordinates": [ 136.655729599999972, 36.6704836 ] } },
{ "type": "Feature", "properties": { "内容": "介護老人保健施設　有縁の荘【短期入所療養介護（介護老人保健施設）】羽咋郡志賀町仏木ク15番地20", "url2": "https://www.kaigokensaku.mhlw.go.jp/17/index.php?action_kouhyou_detail_004_kani=true&JigyosyoCd=1751580182-00&ServiceCd=220&Type=search" }, "geometry": { "type": "Point", "coordinates": [ 136.818042600000012, 37.0529764 ] } },
{ "type": "Feature", "properties": { "内容": "介護老人保健施設あゆみの里【短期入所療養介護（介護老人保健施設）】石川県鳳珠郡穴水町字川島タの38", "url2": "https://www.kaigokensaku.mhlw.go.jp/17/index.php?action_kouhyou_detail_004_kani=true&JigyosyoCd=1751780261-00&ServiceCd=220&Type=search" }, "geometry": { "type": "Point", "coordinates": [ 136.91247450000003, 37.230995 ] } }
]
}
