{
"type": "FeatureCollection",
"name": "geo_17_介護老人保健施設",
"crs": { "type": "name", "properties": { "name": "urn:ogc:def:crs:OGC:1.3:CRS84" } },
"features": [
{ "type": "Feature", "properties": { "内容": "医療機関併設型小規模介護老人保健施設あんやと【介護老人保健施設】金沢市弥勒町ニ１番地１", "url": "https://www.kaigokensaku.mhlw.go.jp/17/index.php?action_kouhyou_detail_004_kani=true&JigyosyoCd=1750180398-00&ServiceCd=520&Type=search", "url2": "http://www.matoba.or.jp" }, "geometry": { "type": "Point", "coordinates": [ 136.691039300000057, 36.6129329 ] } },
{ "type": "Feature", "properties": { "内容": "老健ホームいしかわ【介護老人保健施設】石川県金沢市忠縄町１４４番地１老健ホームいしかわ", "url": "https://www.kaigokensaku.mhlw.go.jp/17/index.php?action_kouhyou_detail_004_kani=true&JigyosyoCd=1750180323-00&ServiceCd=520&Type=search", "url2": "http://care-net.biz/17/iskw/" }, "geometry": { "type": "Point", "coordinates": [ 136.691505399999983, 36.6289555 ] } },
{ "type": "Feature", "properties": { "内容": "介護老人保健施設　ピカソ【介護老人保健施設】金沢市田上本町カ45番地1", "url": "https://www.kaigokensaku.mhlw.go.jp/17/index.php?action_kouhyou_detail_004_kani=true&JigyosyoCd=1750180299-00&ServiceCd=520&Type=search", "url2": "http://picasso-kaigo.jp" }, "geometry": { "type": "Point", "coordinates": [ 136.701269, 36.5294132 ] } },
{ "type": "Feature", "properties": { "内容": "老人保健施設　なでしこの丘【介護老人保健施設】石川県金沢市馬替２丁目１４２番地", "url": "https://www.kaigokensaku.mhlw.go.jp/17/index.php?action_kouhyou_detail_004_kani=true&JigyosyoCd=1750180091-00&ServiceCd=520&Type=search", "url2": "https://www.nadesikonooka.jp/" }, "geometry": { "type": "Point", "coordinates": [ 136.620970100000022, 36.5218431 ] } },
{ "type": "Feature", "properties": { "内容": "介護老人保健施設　あっぷる【介護老人保健施設】金沢市長坂町チ15番地", "url": "https://www.kaigokensaku.mhlw.go.jp/17/index.php?action_kouhyou_detail_004_kani=true&JigyosyoCd=1750180125-00&ServiceCd=520&Type=search", "url2": "http://www.rouken-apple.com" }, "geometry": { "type": "Point", "coordinates": [ 136.6570752, 36.532187300000011 ] } },
{ "type": "Feature", "properties": { "内容": "地域医療機能推進機構金沢病院附属介護老人保健施設【介護老人保健施設】金沢市沖町ハ部１５", "url": "https://www.kaigokensaku.mhlw.go.jp/17/index.php?action_kouhyou_detail_004_kani=true&JigyosyoCd=1750180315-00&ServiceCd=520&Type=search", "url2": "http://kanazawa.jcho.go.jp/rouken/" }, "geometry": { "type": "Point", "coordinates": [ 136.6514267, 36.5915128 ] } },
{ "type": "Feature", "properties": { "内容": "みらいのさと太陽【介護老人保健施設】金沢市鞍月東1丁目17番地", "url": "https://www.kaigokensaku.mhlw.go.jp/17/index.php?action_kouhyou_detail_004_kani=true&JigyosyoCd=1750180067-00&ServiceCd=520&Type=search", "url2": "http://mirainosato-taiyou.com/" }, "geometry": { "type": "Point", "coordinates": [ 136.6311389, 36.5940428 ] } },
{ "type": "Feature", "properties": { "内容": "介護老人保健施設　ろうけん桜並木【介護老人保健施設】石川県金沢市田上さくら二丁目７２番地", "url": "https://www.kaigokensaku.mhlw.go.jp/17/index.php?action_kouhyou_detail_004_kani=true&JigyosyoCd=1750180406-00&ServiceCd=520&Type=search", "url2": "http://roukensakuranamiki.com/" }, "geometry": { "type": "Point", "coordinates": [ 136.688992601609499, 36.543600058029249 ] } },
{ "type": "Feature", "properties": { "内容": "福久ケアセンター【介護老人保健施設】金沢市福久町ワ１番地１", "url": "https://www.kaigokensaku.mhlw.go.jp/17/index.php?action_kouhyou_detail_004_kani=true&JigyosyoCd=1750180224-00&ServiceCd=520&Type=search", "url2": "https://www.fukuhisakai.net/" }, "geometry": { "type": "Point", "coordinates": [ 136.677337599999987, 36.6173959 ] } },
{ "type": "Feature", "properties": { "内容": "千木町ケアセンター【介護老人保健施設】石川県金沢市千木町ヘ3番地1", "url": "https://www.kaigokensaku.mhlw.go.jp/17/index.php?action_kouhyou_detail_004_kani=true&JigyosyoCd=1750180414-00&ServiceCd=520&Type=search", "url2": "http://sengicare.info/index.html" }, "geometry": { "type": "Point", "coordinates": [ 136.671991, 36.611291 ] } },
{ "type": "Feature", "properties": { "内容": "田中町温泉ケア・センター【介護老人保健施設】金沢市田中町は１６番地", "url": "https://www.kaigokensaku.mhlw.go.jp/17/index.php?action_kouhyou_detail_004_kani=true&JigyosyoCd=1750180075-00&ServiceCd=520&Type=search", "url2": "https://tanakamachi-care.jp/" }, "geometry": { "type": "Point", "coordinates": [ 136.660818549737542, 36.600454469473746 ] } },
{ "type": "Feature", "properties": { "内容": "金沢春日ケアセンター【介護老人保健施設】金沢市元菊町20番1号", "url": "https://www.kaigokensaku.mhlw.go.jp/17/index.php?action_kouhyou_detail_004_kani=true&JigyosyoCd=1750180018-00&ServiceCd=520&Type=search", "url2": "http://www.jintikai.com" }, "geometry": { "type": "Point", "coordinates": [ 136.642261100000042, 36.573679 ] } },
{ "type": "Feature", "properties": { "内容": "介護老人保健施設「えんやま」【介護老人保健施設】石川県七尾市千野町に部10番地", "url": "https://www.kaigokensaku.mhlw.go.jp/17/index.php?action_kouhyou_detail_004_kani=true&JigyosyoCd=1750280420-00&ServiceCd=520&Type=search", "url2": "enyama-hp.jp/clinic" }, "geometry": { "type": "Point", "coordinates": [ 136.952653199999986, 37.0158738 ] } },
{ "type": "Feature", "properties": { "内容": "介護老人保健施設寿老園【介護老人保健施設】石川県七尾市中島町鹿島台は部14番地1", "url": "https://www.kaigokensaku.mhlw.go.jp/17/index.php?action_kouhyou_detail_004_kani=true&JigyosyoCd=1750280198-00&ServiceCd=520&Type=search", "url2": "http:/care-net.biz/17/jyuroen/" }, "geometry": { "type": "Point", "coordinates": [ 136.889571199999978, 37.1310423 ] } },
{ "type": "Feature", "properties": { "内容": "介護老人保健施設　和光苑【介護老人保健施設】石川県七尾市津向町ト部107番地", "url": "https://www.kaigokensaku.mhlw.go.jp/17/index.php?action_kouhyou_detail_004_kani=true&JigyosyoCd=1750280024-00&ServiceCd=520&Type=search", "url2": "http://www.keiju.co.jp" }, "geometry": { "type": "Point", "coordinates": [ 136.954815548826559, 37.055980033296201 ] } },
{ "type": "Feature", "properties": { "内容": "介護老人保健施設　さくら園【介護老人保健施設】小松市園町ホ35番地1", "url": "https://www.kaigokensaku.mhlw.go.jp/17/index.php?action_kouhyou_detail_004_kani=true&JigyosyoCd=1750380378-00&ServiceCd=520&Type=search", "url2": null }, "geometry": { "type": "Point", "coordinates": [ 136.460531, 36.4086303 ] } },
{ "type": "Feature", "properties": { "内容": "老人保健施設まだら園【介護老人保健施設】小松市北浅井町り125番地1", "url": "https://www.kaigokensaku.mhlw.go.jp/17/index.php?action_kouhyou_detail_004_kani=true&JigyosyoCd=1750380170-00&ServiceCd=520&Type=search", "url2": null }, "geometry": { "type": "Point", "coordinates": [ 136.45716972394257, 36.389876423002114 ] } },
{ "type": "Feature", "properties": { "内容": "介護老人保健施設レイクサイド木場【介護老人保健施設】石川県小松市三谷町そ80番地", "url": "https://www.kaigokensaku.mhlw.go.jp/17/index.php?action_kouhyou_detail_004_kani=true&JigyosyoCd=1750380345-00&ServiceCd=520&Type=search", "url2": "https://tayakai.or.jp/" }, "geometry": { "type": "Point", "coordinates": [ 136.4538854, 36.3688861 ] } },
{ "type": "Feature", "properties": { "内容": "介護老人保健施設　グリーン・ポート小松【介護老人保健施設】石川県小松市岩渕町46-2", "url": "https://www.kaigokensaku.mhlw.go.jp/17/index.php?action_kouhyou_detail_004_kani=true&JigyosyoCd=1750380204-00&ServiceCd=520&Type=search", "url2": "https://tayakai.or.jp/care/greenport/" }, "geometry": { "type": "Point", "coordinates": [ 136.526753652778666, 36.391645035029072 ] } },
{ "type": "Feature", "properties": { "内容": "介護老人保健施設　美笑苑【介護老人保健施設】石川県珠洲市三崎町小泊ト部３番１", "url": "https://www.kaigokensaku.mhlw.go.jp/17/index.php?action_kouhyou_detail_004_kani=true&JigyosyoCd=1750580357-00&ServiceCd=520&Type=search", "url2": null }, "geometry": { "type": "Point", "coordinates": [ 137.357877300000041, 37.4492144 ] } },
{ "type": "Feature", "properties": { "内容": "山中温泉しらさぎ苑【介護老人保健施設】石川県加賀市山中温泉長谷田町チ17-1", "url": "https://www.kaigokensaku.mhlw.go.jp/17/index.php?action_kouhyou_detail_004_kani=true&JigyosyoCd=1750680215-00&ServiceCd=520&Type=search", "url2": "http://www.tokuhoukai.jp" }, "geometry": { "type": "Point", "coordinates": [ 136.361171, 36.2677826 ] } },
{ "type": "Feature", "properties": { "内容": "介護老人保健施設　太陽の丘【介護老人保健施設】石川県加賀市深田町ロ２番地１", "url": "https://www.kaigokensaku.mhlw.go.jp/17/index.php?action_kouhyou_detail_004_kani=true&JigyosyoCd=1750680330-00&ServiceCd=520&Type=search", "url2": "http://suuki-kenko.jp" }, "geometry": { "type": "Point", "coordinates": [ 136.302766199999951, 36.3428671 ] } },
{ "type": "Feature", "properties": { "内容": "介護老人保健施設　加賀のぞみ園【介護老人保健施設】南郷町3乙4番地", "url": "https://www.kaigokensaku.mhlw.go.jp/17/index.php?action_kouhyou_detail_004_kani=true&JigyosyoCd=1750680041-00&ServiceCd=520&Type=search", "url2": "http://www.kaganozomien.jp/" }, "geometry": { "type": "Point", "coordinates": [ 136.326304199999981, 36.292387 ] } },
{ "type": "Feature", "properties": { "内容": "介護老人保健施設　加賀中央メディケアホーム【介護老人保健施設】石川県加賀市山田町蛇谷1番地19", "url": "https://www.kaigokensaku.mhlw.go.jp/17/index.php?action_kouhyou_detail_004_kani=true&JigyosyoCd=1750680033-00&ServiceCd=520&Type=search", "url2": "http://www.tokuhoukai.jp" }, "geometry": { "type": "Point", "coordinates": [ 136.334918799999969, 36.325736 ] } },
{ "type": "Feature", "properties": { "内容": "葵の園・丘の上【介護老人保健施設】加賀市冨塚町中尾126-2", "url": "https://www.kaigokensaku.mhlw.go.jp/17/index.php?action_kouhyou_detail_004_kani=true&JigyosyoCd=1750680132-00&ServiceCd=520&Type=search", "url2": "http://www.aoikai.jp/" }, "geometry": { "type": "Point", "coordinates": [ 136.361893801852347, 36.335436632735146 ] } },
{ "type": "Feature", "properties": { "内容": "介護老人保健施設　白鳥苑【介護老人保健施設】石川県羽咋市本江町へ１５番地", "url": "https://www.kaigokensaku.mhlw.go.jp/17/index.php?action_kouhyou_detail_004_kani=true&JigyosyoCd=1750780148-00&ServiceCd=520&Type=search", "url2": "http://www.keiju-kai.com" }, "geometry": { "type": "Point", "coordinates": [ 136.837772399999949, 36.912506 ] } },
{ "type": "Feature", "properties": { "内容": "介護老人保健施設なごみ苑【介護老人保健施設】石川県白山市米永町300番地2", "url": "https://www.kaigokensaku.mhlw.go.jp/17/index.php?action_kouhyou_detail_004_kani=true&JigyosyoCd=1752280360-00&ServiceCd=520&Type=search", "url2": "https://www.hakusankai.jp/" }, "geometry": { "type": "Point", "coordinates": [ 136.54373043841963, 36.515355470756845 ] } },
{ "type": "Feature", "properties": { "内容": "介護老人保健施設　千代野苑【介護老人保健施設】石川県白山市米永町303番地の5", "url": "https://www.kaigokensaku.mhlw.go.jp/17/index.php?action_kouhyou_detail_004_kani=true&JigyosyoCd=1752280055-00&ServiceCd=520&Type=search", "url2": "http://ｗｗｗ.hakusankai.jp/" }, "geometry": { "type": "Point", "coordinates": [ 136.542629499999947, 36.5156066 ] } },
{ "type": "Feature", "properties": { "内容": "介護老人保健施設　手取の里【介護老人保健施設】寺井町ウ84", "url": "https://www.kaigokensaku.mhlw.go.jp/17/index.php?action_kouhyou_detail_004_kani=true&JigyosyoCd=1752380301-00&ServiceCd=520&Type=search", "url2": "http://www.terai-hospital.jp/tedori/index.html" }, "geometry": { "type": "Point", "coordinates": [ 136.488968028317686, 36.438510468083187 ] } },
{ "type": "Feature", "properties": { "内容": "介護老人保健施設　陽翠の里【介護老人保健施設】石川県能美市緑が丘11丁目77番地", "url": "https://www.kaigokensaku.mhlw.go.jp/17/index.php?action_kouhyou_detail_004_kani=true&JigyosyoCd=1752380236-00&ServiceCd=520&Type=search", "url2": "https://hisui.or.jp" }, "geometry": { "type": "Point", "coordinates": [ 136.535520625795016, 36.442473869148962 ] } },
{ "type": "Feature", "properties": { "内容": "能美市介護老人保健施設はまなすの丘【介護老人保健施設】石川県能美市大浜町ム52番地18", "url": "https://www.kaigokensaku.mhlw.go.jp/17/index.php?action_kouhyou_detail_004_kani=true&JigyosyoCd=1752380285-00&ServiceCd=520&Type=search", "url2": "https://nomihsp.com/facility/" }, "geometry": { "type": "Point", "coordinates": [ 136.453288400000019, 36.4547691 ] } },
{ "type": "Feature", "properties": { "内容": "介護老人保健施設　おしのの里【介護老人保健施設】石川県野々市市押野6丁目160番地", "url": "https://www.kaigokensaku.mhlw.go.jp/17/index.php?action_kouhyou_detail_004_kani=true&JigyosyoCd=1711311017-00&ServiceCd=520&Type=search", "url2": "http://homepage2.nifty.com/o-shinseikai/frame.htm" }, "geometry": { "type": "Point", "coordinates": [ 136.618858700000033, 36.5449209 ] } },
{ "type": "Feature", "properties": { "内容": "あんじん【介護老人保健施設】石川県野々市市新庄２丁目３０番地", "url": "https://www.kaigokensaku.mhlw.go.jp/17/index.php?action_kouhyou_detail_004_kani=true&JigyosyoCd=1751380088-00&ServiceCd=520&Type=search", "url2": "https://yowakai.jp" }, "geometry": { "type": "Point", "coordinates": [ 136.6102128, 36.4969323 ] } },
{ "type": "Feature", "properties": { "内容": "かなざわみなみけあせんたー【介護老人保健施設】石川県野々市市蓮花寺町1番地1", "url": "https://www.kaigokensaku.mhlw.go.jp/17/index.php?action_kouhyou_detail_004_kani=true&JigyosyoCd=1751380252-00&ServiceCd=520&Type=search", "url2": "https://kanazawaminami.jp/" }, "geometry": { "type": "Point", "coordinates": [ 136.5911007, 36.5306308 ] } },
{ "type": "Feature", "properties": { "内容": "あんじん川北【介護老人保健施設】能美郡川北町壱ツ屋１９５", "url": "https://www.kaigokensaku.mhlw.go.jp/17/index.php?action_kouhyou_detail_004_kani=true&JigyosyoCd=1751280411-00&ServiceCd=520&Type=search", "url2": "http://yowakai.jp" }, "geometry": { "type": "Point", "coordinates": [ 136.543095200000039, 36.4674409 ] } },
{ "type": "Feature", "properties": { "内容": "介護老人保健施設ふぃらーじゅ【介護老人保健施設】河北郡津幡町字東荒屋354番地", "url": "https://www.kaigokensaku.mhlw.go.jp/17/index.php?action_kouhyou_detail_004_kani=true&JigyosyoCd=1751480516-00&ServiceCd=520&Type=search", "url2": "http://www.feuillage.gr.jp/" }, "geometry": { "type": "Point", "coordinates": [ 136.751213399999983, 36.6639414 ] } },
{ "type": "Feature", "properties": { "内容": "内灘温泉保養館【介護老人保健施設】石川県河北郡内灘町白帆台1-88-1", "url": "https://www.kaigokensaku.mhlw.go.jp/17/index.php?action_kouhyou_detail_004_kani=true&JigyosyoCd=1751480102-00&ServiceCd=520&Type=search", "url2": "https://www.yuuai-byouinkai.or.jp/facilities/uchinada-hoyou/" }, "geometry": { "type": "Point", "coordinates": [ 136.655729599999972, 36.6704836 ] } },
{ "type": "Feature", "properties": { "内容": "介護老人保健施設　有縁の荘【介護老人保健施設】羽咋郡志賀町仏木ク15-20", "url": "https://www.kaigokensaku.mhlw.go.jp/17/index.php?action_kouhyou_detail_004_kani=true&JigyosyoCd=1751580182-00&ServiceCd=520&Type=search", "url2": "http://care-net.biz/17/douhoukai/" }, "geometry": { "type": "Point", "coordinates": [ 136.818042600000012, 37.0529764 ] } },
{ "type": "Feature", "properties": { "内容": "介護老人保健施設　なごみの里鹿島【介護老人保健施設】石川県鹿島郡中能登町浅井ろ部106番地", "url": "https://www.kaigokensaku.mhlw.go.jp/17/index.php?action_kouhyou_detail_004_kani=true&JigyosyoCd=1751680354-00&ServiceCd=520&Type=search", "url2": "https://www.eijyukai-nagomi.com" }, "geometry": { "type": "Point", "coordinates": [ 136.901381799999967, 36.9830497 ] } },
{ "type": "Feature", "properties": { "内容": "介護老人保健施設あゆみの里【介護老人保健施設】石川県鳳珠郡穴水町字川島タの38", "url": "https://www.kaigokensaku.mhlw.go.jp/17/index.php?action_kouhyou_detail_004_kani=true&JigyosyoCd=1751780261-00&ServiceCd=520&Type=search", "url2": "https://www.town.anamizu.lg.jp/site/hospital/100490.html#ayumi" }, "geometry": { "type": "Point", "coordinates": [ 136.910183289892899, 37.233538656718359 ] } }
]
}
