{
"type": "FeatureCollection",
"name": "geo_17_地域密着型特定施設入居者生活介護（軽費老人ホーム）",
"crs": { "type": "name", "properties": { "name": "urn:ogc:def:crs:OGC:1.3:CRS84" } },
"features": [
{ "type": "Feature", "properties": { "内容": "ケアハウス聖頌園【地域密着型特定施設入居者生活介護（軽費老人ホーム）】石川県鳳珠郡穴水町字上野壱字1番地", "url": "https://www.kaigokensaku.mhlw.go.jp/17/index.php?action_kouhyou_detail_004_kani=true&JigyosyoCd=1791700014-00&ServiceCd=362&Type=search", "url2": "http://www.bokuyoufukushikai.com" }, "geometry": { "type": "Point", "coordinates": [ 136.8955666, 37.2408209 ] } }
]
}
