{
"type": "FeatureCollection",
"name": "geo_17_小学校",
"crs": { "type": "name", "properties": { "name": "urn:ogc:def:crs:EPSG::6668" } },
"features": [
{ "type": "Feature", "properties": { "P29_001": "17201", "P29_002": "B117110000012", "P29_003": "16001", "P29_004": "金沢大学人間社会学域学校教育学類附属小学校", "P29_005": "石川県金沢市平和町1-1-15", "P29_006": "1", "P29_007": "1", "P29_008": "00", "P29_009": null }, "geometry": { "type": "Point", "coordinates": [ 136.665952669839925, 36.536710813408114 ] } },
{ "type": "Feature", "properties": { "P29_001": "17201", "P29_002": "B117220100018", "P29_003": "16001", "P29_004": "金沢市立中村町小学校", "P29_005": "石川県金沢市中村町26-12", "P29_006": "3", "P29_007": "1", "P29_008": "00", "P29_009": null }, "geometry": { "type": "Point", "coordinates": [ 136.642018015868388, 36.560867789499355 ] } },
{ "type": "Feature", "properties": { "P29_001": "17201", "P29_002": "B117220100027", "P29_003": "16001", "P29_004": "金沢市立十一屋小学校", "P29_005": "石川県金沢市十一屋町3-45", "P29_006": "3", "P29_007": "1", "P29_008": "00", "P29_009": null }, "geometry": { "type": "Point", "coordinates": [ 136.661301610321118, 36.54491186433831 ] } },
{ "type": "Feature", "properties": { "P29_001": "17201", "P29_002": "B117220100036", "P29_003": "16001", "P29_004": "金沢市立泉野小学校", "P29_005": "石川県金沢市緑が丘4-64", "P29_006": "3", "P29_007": "1", "P29_008": "00", "P29_009": null }, "geometry": { "type": "Point", "coordinates": [ 136.654080714907053, 36.542339677365021 ] } },
{ "type": "Feature", "properties": { "P29_001": "17201", "P29_002": "B117220100045", "P29_003": "16001", "P29_004": "金沢市立小立野小学校", "P29_005": "石川県金沢市小立野4-7-7", "P29_006": "3", "P29_007": "1", "P29_008": "00", "P29_009": null }, "geometry": { "type": "Point", "coordinates": [ 136.678113923874974, 36.551619566912152 ] } },
{ "type": "Feature", "properties": { "P29_001": "17201", "P29_002": "B117220100054", "P29_003": "16001", "P29_004": "金沢市立南小立野小学校", "P29_005": "石川県金沢市涌波2-5-1", "P29_006": "3", "P29_007": "1", "P29_008": "00", "P29_009": null }, "geometry": { "type": "Point", "coordinates": [ 136.681664619117015, 36.537367818632013 ] } },
{ "type": "Feature", "properties": { "P29_001": "17201", "P29_002": "B117220100063", "P29_003": "16001", "P29_004": "金沢市立長田町小学校", "P29_005": "石川県金沢市長田1-5-40", "P29_006": "3", "P29_007": "1", "P29_008": "00", "P29_009": null }, "geometry": { "type": "Point", "coordinates": [ 136.642406776675614, 36.575440820768954 ] } },
{ "type": "Feature", "properties": { "P29_001": "17201", "P29_002": "B117220100072", "P29_003": "16001", "P29_004": "金沢市立諸江町小学校", "P29_005": "石川県金沢市北安江2-25-1", "P29_006": "3", "P29_007": "1", "P29_008": "00", "P29_009": null }, "geometry": { "type": "Point", "coordinates": [ 136.647921235195383, 36.588653348501808 ] } },
{ "type": "Feature", "properties": { "P29_001": "17201", "P29_002": "B117220100081", "P29_003": "16001", "P29_004": "金沢市立馬場小学校", "P29_005": "石川県金沢市東山3-9-30", "P29_006": "3", "P29_007": "1", "P29_008": "00", "P29_009": null }, "geometry": { "type": "Point", "coordinates": [ 136.665518562786673, 36.574681325980741 ] } },
{ "type": "Feature", "properties": { "P29_001": "17201", "P29_002": "B117220100090", "P29_003": "16001", "P29_004": "金沢市立森山町小学校", "P29_005": "石川県金沢市森山2-13-50", "P29_006": "3", "P29_007": "1", "P29_008": "00", "P29_009": null }, "geometry": { "type": "Point", "coordinates": [ 136.667808060358112, 36.578347707979169 ] } },
{ "type": "Feature", "properties": { "P29_001": "17201", "P29_002": "B117220100107", "P29_003": "16001", "P29_004": "金沢市立浅野町小学校", "P29_005": "石川県金沢市京町35-1", "P29_006": "3", "P29_007": "1", "P29_008": "00", "P29_009": null }, "geometry": { "type": "Point", "coordinates": [ 136.658872997190088, 36.582079998962321 ] } },
{ "type": "Feature", "properties": { "P29_001": "17201", "P29_002": "B117220100116", "P29_003": "16001", "P29_004": "金沢市立小坂小学校", "P29_005": "石川県金沢市小坂町中142", "P29_006": "3", "P29_007": "1", "P29_008": "00", "P29_009": null }, "geometry": { "type": "Point", "coordinates": [ 136.677684343568046, 36.590108043043003 ] } },
{ "type": "Feature", "properties": { "P29_001": "17201", "P29_002": "B117220100125", "P29_003": "16001", "P29_004": "金沢市立千坂小学校", "P29_005": "石川県金沢市千木1-125", "P29_006": "3", "P29_007": "1", "P29_008": "00", "P29_009": null }, "geometry": { "type": "Point", "coordinates": [ 136.675098133420278, 36.605752199249238 ] } },
{ "type": "Feature", "properties": { "P29_001": "17201", "P29_002": "B117220100134", "P29_003": "16001", "P29_004": "金沢市立夕日寺小学校", "P29_005": "石川県金沢市東長江町に17", "P29_006": "3", "P29_007": "1", "P29_008": "00", "P29_009": null }, "geometry": { "type": "Point", "coordinates": [ 136.692386015499579, 36.577552042623189 ] } },
{ "type": "Feature", "properties": { "P29_001": "17201", "P29_002": "B117220100143", "P29_003": "16001", "P29_004": "金沢市立大浦小学校", "P29_005": "石川県金沢市大浦町ヌ87", "P29_006": "3", "P29_007": "1", "P29_008": "00", "P29_009": null }, "geometry": { "type": "Point", "coordinates": [ 136.652795540326423, 36.623394907530631 ] } },
{ "type": "Feature", "properties": { "P29_001": "17201", "P29_002": "B117220100152", "P29_003": "16001", "P29_004": "金沢市立浅野川小学校", "P29_005": "石川県金沢市須崎町チノ42", "P29_006": "3", "P29_007": "1", "P29_008": "00", "P29_009": null }, "geometry": { "type": "Point", "coordinates": [ 136.641701427969281, 36.621075402383035 ] } },
{ "type": "Feature", "properties": { "P29_001": "17201", "P29_002": "B117220100161", "P29_003": "16001", "P29_004": "金沢市立鞍月小学校", "P29_005": "石川県金沢市南新保町リ27-1", "P29_006": "3", "P29_007": "1", "P29_008": "00", "P29_009": null }, "geometry": { "type": "Point", "coordinates": [ 136.632543610512244, 36.601747589982011 ] } },
{ "type": "Feature", "properties": { "P29_001": "17201", "P29_002": "B117220100170", "P29_003": "16001", "P29_004": "金沢市立粟崎小学校", "P29_005": "石川県金沢市粟崎町へ78", "P29_006": "3", "P29_007": "1", "P29_008": "00", "P29_009": null }, "geometry": { "type": "Point", "coordinates": [ 136.62476471024965, 36.621156203194118 ] } },
{ "type": "Feature", "properties": { "P29_001": "17201", "P29_002": "B117220100189", "P29_003": "16001", "P29_004": "金沢市立大野町小学校", "P29_005": "石川県金沢市大野町1-15", "P29_006": "3", "P29_007": "1", "P29_008": "00", "P29_009": null }, "geometry": { "type": "Point", "coordinates": [ 136.603374245487885, 36.610369255556257 ] } },
{ "type": "Feature", "properties": { "P29_001": "17201", "P29_002": "B117220100198", "P29_003": "16001", "P29_004": "金沢市立金石町小学校", "P29_005": "石川県金沢市金石北4-1-1", "P29_006": "3", "P29_007": "1", "P29_008": "00", "P29_009": null }, "geometry": { "type": "Point", "coordinates": [ 136.5987731643053, 36.609046726550318 ] } },
{ "type": "Feature", "properties": { "P29_001": "17201", "P29_002": "B117220100205", "P29_003": "16001", "P29_004": "金沢市立大徳小学校", "P29_005": "石川県金沢市松村6-200", "P29_006": "3", "P29_007": "1", "P29_008": "00", "P29_009": null }, "geometry": { "type": "Point", "coordinates": [ 136.610048531572431, 36.591219953124089 ] } },
{ "type": "Feature", "properties": { "P29_001": "17201", "P29_002": "B117220100214", "P29_003": "16001", "P29_004": "金沢市立戸板小学校", "P29_005": "石川県金沢市戸板1-1", "P29_006": "3", "P29_007": "1", "P29_008": "00", "P29_009": null }, "geometry": { "type": "Point", "coordinates": [ 136.62279296635873, 36.579404657273813 ] } },
{ "type": "Feature", "properties": { "P29_001": "17201", "P29_002": "B117220100223", "P29_003": "16001", "P29_004": "金沢市立緑小学校", "P29_005": "石川県金沢市みどり1-166", "P29_006": "3", "P29_007": "1", "P29_008": "00", "P29_009": null }, "geometry": { "type": "Point", "coordinates": [ 136.590798307879197, 36.570113970402026 ] } },
{ "type": "Feature", "properties": { "P29_001": "17201", "P29_002": "B117220100232", "P29_003": "16001", "P29_004": "金沢市立押野小学校", "P29_005": "石川県金沢市八日市1-176", "P29_006": "3", "P29_007": "1", "P29_008": "00", "P29_009": null }, "geometry": { "type": "Point", "coordinates": [ 136.609317752857976, 36.545819933634704 ] } },
{ "type": "Feature", "properties": { "P29_001": "17201", "P29_002": "B117220100241", "P29_003": "16001", "P29_004": "金沢市立米丸小学校", "P29_005": "石川県金沢市東力町二155", "P29_006": "3", "P29_007": "1", "P29_008": "00", "P29_009": null }, "geometry": { "type": "Point", "coordinates": [ 136.62018329595756, 36.565693232112793 ] } },
{ "type": "Feature", "properties": { "P29_001": "17201", "P29_002": "B117220100250", "P29_003": "16001", "P29_004": "金沢市立三馬小学校", "P29_005": "石川県金沢市久安6-154", "P29_006": "3", "P29_007": "1", "P29_008": "00", "P29_009": null }, "geometry": { "type": "Point", "coordinates": [ 136.633800224279412, 36.543529555700594 ] } },
{ "type": "Feature", "properties": { "P29_001": "17201", "P29_002": "B117220100269", "P29_003": "16001", "P29_004": "金沢市立富樫小学校", "P29_005": "石川県金沢市山科3-6-60", "P29_006": "3", "P29_007": "1", "P29_008": "00", "P29_009": null }, "geometry": { "type": "Point", "coordinates": [ 136.645827764735913, 36.529472811445459 ] } },
{ "type": "Feature", "properties": { "P29_001": "17201", "P29_002": "B117220100278", "P29_003": "16001", "P29_004": "金沢市立額小学校", "P29_005": "石川県金沢市額乙丸町イ41", "P29_006": "3", "P29_007": "1", "P29_008": "00", "P29_009": null }, "geometry": { "type": "Point", "coordinates": [ 136.621641306185609, 36.510490096156289 ] } },
{ "type": "Feature", "properties": { "P29_001": "17201", "P29_002": "B117220100287", "P29_003": "16001", "P29_004": "金沢市立内川小学校", "P29_005": "石川県金沢市別所町ヰ18", "P29_006": "3", "P29_007": "1", "P29_008": "00", "P29_009": null }, "geometry": { "type": "Point", "coordinates": [ 136.676017612308669, 36.504472066310555 ] } },
{ "type": "Feature", "properties": { "P29_001": "17201", "P29_002": "B117220100296", "P29_003": "16001", "P29_004": "金沢市立湯涌小学校", "P29_005": "石川県金沢市湯涌荒屋町23", "P29_006": "3", "P29_007": "1", "P29_008": "00", "P29_009": null }, "geometry": { "type": "Point", "coordinates": [ 136.752894520627819, 36.49195470165148 ] } },
{ "type": "Feature", "properties": { "P29_001": "17201", "P29_002": "B117220100303", "P29_003": "16001", "P29_004": "金沢市立田上小学校", "P29_005": "石川県金沢市田上の里2-1", "P29_006": "3", "P29_007": "1", "P29_008": "00", "P29_009": null }, "geometry": { "type": "Point", "coordinates": [ 136.692981067038971, 36.546190746369334 ] } },
{ "type": "Feature", "properties": { "P29_001": "17201", "P29_002": "B117220100312", "P29_003": "16001", "P29_004": "金沢市立医王山小学校", "P29_005": "石川県金沢市二俣町さ21", "P29_006": "3", "P29_007": "1", "P29_008": "00", "P29_009": null }, "geometry": { "type": "Point", "coordinates": [ 136.759853014822824, 36.555649228443038 ] } },
{ "type": "Feature", "properties": { "P29_001": "17201", "P29_002": "B117220100321", "P29_003": "16001", "P29_004": "金沢市立森本小学校", "P29_005": "石川県金沢市南森本町イ111", "P29_006": "3", "P29_007": "1", "P29_008": "00", "P29_009": null }, "geometry": { "type": "Point", "coordinates": [ 136.693004457072419, 36.622811838413163 ] } },
{ "type": "Feature", "properties": { "P29_001": "17201", "P29_002": "B117220100330", "P29_003": "16001", "P29_004": "金沢市立不動寺小学校", "P29_005": "石川県金沢市不動寺町イ33", "P29_006": "3", "P29_007": "1", "P29_008": "00", "P29_009": null }, "geometry": { "type": "Point", "coordinates": [ 136.708381088369265, 36.608570557924793 ] } },
{ "type": "Feature", "properties": { "P29_001": "17201", "P29_002": "B117220100349", "P29_003": "16001", "P29_004": "金沢市立花園小学校", "P29_005": "石川県金沢市今町ヌ34", "P29_006": "3", "P29_007": "1", "P29_008": "00", "P29_009": null }, "geometry": { "type": "Point", "coordinates": [ 136.70823088788066, 36.632652690921347 ] } },
{ "type": "Feature", "properties": { "P29_001": "17201", "P29_002": "B117220100358", "P29_003": "16001", "P29_004": "金沢市立伏見台小学校", "P29_005": "石川県金沢市窪5-335", "P29_006": "3", "P29_007": "1", "P29_008": "00", "P29_009": null }, "geometry": { "type": "Point", "coordinates": [ 136.63802449830294, 36.52633310091538 ] } },
{ "type": "Feature", "properties": { "P29_001": "17201", "P29_002": "B117220100367", "P29_003": "16001", "P29_004": "金沢市立扇台小学校", "P29_005": "石川県金沢市馬替1-34", "P29_006": "3", "P29_007": "1", "P29_008": "00", "P29_009": null }, "geometry": { "type": "Point", "coordinates": [ 136.625419824354054, 36.522696019816166 ] } },
{ "type": "Feature", "properties": { "P29_001": "17201", "P29_002": "B117220100376", "P29_003": "16001", "P29_004": "金沢市立三和小学校", "P29_005": "石川県金沢市矢木1-74", "P29_006": "3", "P29_007": "1", "P29_008": "00", "P29_009": null }, "geometry": { "type": "Point", "coordinates": [ 136.596699369188173, 36.558011854529227 ] } },
{ "type": "Feature", "properties": { "P29_001": "17201", "P29_002": "B117220100385", "P29_003": "16001", "P29_004": "金沢市立木曳野小学校", "P29_005": "石川県金沢市木曳野1-1", "P29_006": "3", "P29_007": "1", "P29_008": "00", "P29_009": null }, "geometry": { "type": "Point", "coordinates": [ 136.603771115878459, 36.597787087302635 ] } },
{ "type": "Feature", "properties": { "P29_001": "17201", "P29_002": "B117220100394", "P29_003": "16001", "P29_004": "金沢市立長坂台小学校", "P29_005": "石川県金沢市長坂3-14-1", "P29_006": "3", "P29_007": "1", "P29_008": "00", "P29_009": null }, "geometry": { "type": "Point", "coordinates": [ 136.657188179140235, 36.535044388024197 ] } },
{ "type": "Feature", "properties": { "P29_001": "17201", "P29_002": "B117220100401", "P29_003": "16001", "P29_004": "金沢市立新神田小学校", "P29_005": "石川県金沢市新神田1-10-58", "P29_006": "3", "P29_007": "1", "P29_008": "00", "P29_009": null }, "geometry": { "type": "Point", "coordinates": [ 136.634510968279585, 36.564874710585279 ] } },
{ "type": "Feature", "properties": { "P29_001": "17201", "P29_002": "B117220100410", "P29_003": "16001", "P29_004": "金沢市立西南部小学校", "P29_005": "石川県金沢市八日市出町304", "P29_006": "3", "P29_007": "1", "P29_008": "00", "P29_009": null }, "geometry": { "type": "Point", "coordinates": [ 136.608270564039998, 36.555620592019501 ] } },
{ "type": "Feature", "properties": { "P29_001": "17201", "P29_002": "B117220100429", "P29_003": "16001", "P29_004": "金沢市立米泉小学校", "P29_005": "石川県金沢市米泉町4-133-2", "P29_006": "3", "P29_007": "1", "P29_008": "00", "P29_009": null }, "geometry": { "type": "Point", "coordinates": [ 136.628061904806344, 36.545887397328315 ] } },
{ "type": "Feature", "properties": { "P29_001": "17201", "P29_002": "B117220100438", "P29_003": "16001", "P29_004": "金沢市立四十万小学校", "P29_005": "石川県金沢市四十万3-186", "P29_006": "3", "P29_007": "1", "P29_008": "00", "P29_009": null }, "geometry": { "type": "Point", "coordinates": [ 136.617598984972147, 36.502940406985843 ] } },
{ "type": "Feature", "properties": { "P29_001": "17201", "P29_002": "B117220100447", "P29_003": "16001", "P29_004": "金沢市立安原小学校", "P29_005": "石川県金沢市福増町北1087", "P29_006": "3", "P29_007": "1", "P29_008": "00", "P29_009": null }, "geometry": { "type": "Point", "coordinates": [ 136.579533473419957, 36.566987347964456 ] } },
{ "type": "Feature", "properties": { "P29_001": "17201", "P29_002": "B117220100456", "P29_003": "16001", "P29_004": "金沢市立西小学校", "P29_005": "石川県金沢市駅西新町3-15-1", "P29_006": "3", "P29_007": "1", "P29_008": "00", "P29_009": null }, "geometry": { "type": "Point", "coordinates": [ 136.636618255366898, 36.592234354706918 ] } },
{ "type": "Feature", "properties": { "P29_001": "17201", "P29_002": "B117220100465", "P29_003": "16001", "P29_004": "金沢市立中央小学校", "P29_005": "石川県金沢市玉川町2-1", "P29_006": "3", "P29_007": "1", "P29_008": "00", "P29_009": null }, "geometry": { "type": "Point", "coordinates": [ 136.650388309847671, 36.569917254427914 ] } },
{ "type": "Feature", "properties": { "P29_001": "17201", "P29_002": "B117220100474", "P29_003": "16001", "P29_004": "金沢市立中央小学校芳斎分校", "P29_005": "石川県金沢市新竪町3-25", "P29_006": "3", "P29_007": "1", "P29_008": "00", "P29_009": null }, "geometry": { "type": "Point", "coordinates": [ 136.657075335738796, 36.555698718878794 ] } },
{ "type": "Feature", "properties": { "P29_001": "17201", "P29_002": "B117220100483", "P29_003": "16001", "P29_004": "金沢市立三谷小学校", "P29_005": "石川県金沢市宮野町ニ277", "P29_006": "3", "P29_007": "1", "P29_008": "00", "P29_009": null }, "geometry": { "type": "Point", "coordinates": [ 136.736249949433642, 36.596133628073027 ] } },
{ "type": "Feature", "properties": { "P29_001": "17201", "P29_002": "B117220100492", "P29_003": "16001", "P29_004": "金沢市立明成小学校", "P29_005": "石川県金沢市瓢箪町5-48", "P29_006": "3", "P29_007": "1", "P29_008": "00", "P29_009": null }, "geometry": { "type": "Point", "coordinates": [ 136.657178301474829, 36.576879048437839 ] } },
{ "type": "Feature", "properties": { "P29_001": "17201", "P29_002": "B117220100508", "P29_003": "16001", "P29_004": "金沢市立杜の里小学校", "P29_005": "石川県金沢市若松町3-282", "P29_006": "3", "P29_007": "1", "P29_008": "00", "P29_009": null }, "geometry": { "type": "Point", "coordinates": [ 136.686390387595424, 36.557410139577236 ] } },
{ "type": "Feature", "properties": { "P29_001": "17201", "P29_002": "B117220100517", "P29_003": "16001", "P29_004": "金沢市立泉小学校", "P29_005": "石川県金沢市弥生1-26-1", "P29_006": "3", "P29_007": "1", "P29_008": "00", "P29_009": null }, "geometry": { "type": "Point", "coordinates": [ 136.646355306736012, 36.549709892640941 ] } },
{ "type": "Feature", "properties": { "P29_001": "17201", "P29_002": "B117220100526", "P29_003": "16001", "P29_004": "金沢市立兼六小学校", "P29_005": "石川県金沢市兼六元町7-15", "P29_006": "3", "P29_007": "1", "P29_008": "00", "P29_009": null }, "geometry": { "type": "Point", "coordinates": [ 136.666135265451857, 36.565518233860452 ] } },
{ "type": "Feature", "properties": { "P29_001": "17201", "P29_002": "B117220100535", "P29_003": "16001", "P29_004": "犀桜小学校", "P29_005": "石川県金沢市菊川1-2-15", "P29_006": "3", "P29_007": "1", "P29_008": "00", "P29_009": null }, "geometry": { "type": "Point", "coordinates": [ 136.661992211323849, 36.550046816005683 ] } },
{ "type": "Feature", "properties": { "P29_001": "17201", "P29_002": "B117220100544", "P29_003": "16001", "P29_004": "犀川小学校", "P29_005": "石川県金沢市末町2-148", "P29_006": "3", "P29_007": "1", "P29_008": "00", "P29_009": null }, "geometry": { "type": "Point", "coordinates": [ 136.698024848875036, 36.511491916270103 ] } },
{ "type": "Feature", "properties": { "P29_001": "17201", "P29_002": "B117220105451", "P29_003": "16001", "P29_004": "金沢市立朝霧台小学校", "P29_005": "石川県金沢市田上本町4-28", "P29_006": "3", "P29_007": "1", "P29_008": "00", "P29_009": null }, "geometry": { "type": "Point", "coordinates": [ 136.694183333903823, 36.537063617837433 ] } },
{ "type": "Feature", "properties": { "P29_001": "17202", "P29_002": "B117220200017", "P29_003": "16001", "P29_004": "七尾市立小丸山小学校", "P29_005": "石川県七尾市小島町チ部3", "P29_006": "3", "P29_007": "1", "P29_008": "00", "P29_009": null }, "geometry": { "type": "Point", "coordinates": [ 136.953687033169331, 37.046741552071182 ] } },
{ "type": "Feature", "properties": { "P29_001": "17202", "P29_002": "B117220200026", "P29_003": "16001", "P29_004": "七尾市立山王小学校", "P29_005": "石川県七尾市山王町ツ部34", "P29_006": "3", "P29_007": "1", "P29_008": "00", "P29_009": null }, "geometry": { "type": "Point", "coordinates": [ 136.974072985765019, 37.041304347569415 ] } },
{ "type": "Feature", "properties": { "P29_001": "17202", "P29_002": "B117220200035", "P29_003": "16001", "P29_004": "七尾市立東湊小学校", "P29_005": "石川県七尾市佐味町10部4", "P29_006": "3", "P29_007": "1", "P29_008": "00", "P29_009": null }, "geometry": { "type": "Point", "coordinates": [ 136.998253267418676, 37.047090930323463 ] } },
{ "type": "Feature", "properties": { "P29_001": "17202", "P29_002": "B117220200044", "P29_003": "16001", "P29_004": "七尾市立石崎小学校", "P29_005": "石川県七尾市石崎町子部40", "P29_006": "3", "P29_007": "1", "P29_008": "00", "P29_009": null }, "geometry": { "type": "Point", "coordinates": [ 136.930932503167469, 37.075480951262499 ] } },
{ "type": "Feature", "properties": { "P29_001": "17202", "P29_002": "B117220200053", "P29_003": "16001", "P29_004": "七尾市立和倉小学校", "P29_005": "石川県七尾市和倉町ひばり3-90", "P29_006": "3", "P29_007": "1", "P29_008": "00", "P29_009": null }, "geometry": { "type": "Point", "coordinates": [ 136.917982404675996, 37.08313856038788 ] } },
{ "type": "Feature", "properties": { "P29_001": "17202", "P29_002": "B117220200062", "P29_003": "16001", "P29_004": "七尾市立天神山小学校", "P29_005": "石川県七尾市本府中町天神山部1", "P29_006": "3", "P29_007": "1", "P29_008": "00", "P29_009": null }, "geometry": { "type": "Point", "coordinates": [ 136.97458731983258, 37.031588058107545 ] } },
{ "type": "Feature", "properties": { "P29_001": "17202", "P29_002": "B117220200071", "P29_003": "16001", "P29_004": "七尾市立能登島小学校", "P29_005": "石川県七尾市能登島向田町ろ部15", "P29_006": "3", "P29_007": "1", "P29_008": "00", "P29_009": null }, "geometry": { "type": "Point", "coordinates": [ 136.997409223764464, 37.123071110260845 ] } },
{ "type": "Feature", "properties": { "P29_001": "17202", "P29_002": "B117220200080", "P29_003": "16001", "P29_004": "七尾市立田鶴浜小学校", "P29_005": "石川県七尾市田鶴浜町ホの部365", "P29_006": "3", "P29_007": "1", "P29_008": "00", "P29_009": null }, "geometry": { "type": "Point", "coordinates": [ 136.891847024105118, 37.059289967435802 ] } },
{ "type": "Feature", "properties": { "P29_001": "17202", "P29_002": "B117220200099", "P29_003": "16001", "P29_004": "七尾市立中島小学校", "P29_005": "石川県七尾市中島町上町チ部26-2", "P29_006": "3", "P29_007": "1", "P29_008": "00", "P29_009": null }, "geometry": { "type": "Point", "coordinates": [ 136.842594621195218, 37.121588382335979 ] } },
{ "type": "Feature", "properties": { "P29_001": "17202", "P29_002": "B117220200106", "P29_003": "16001", "P29_004": "七尾市立朝日小学校", "P29_005": "石川県七尾市戊部17-1", "P29_006": "3", "P29_007": "1", "P29_008": "00", "P29_009": null }, "geometry": { "type": "Point", "coordinates": [ 136.93061626906092, 37.010241030232592 ] } },
{ "type": "Feature", "properties": { "P29_001": "17203", "P29_002": "B117220300016", "P29_003": "16001", "P29_004": "小松市立芦城小学校", "P29_005": "石川県小松市西町25", "P29_006": "3", "P29_007": "1", "P29_008": "00", "P29_009": null }, "geometry": { "type": "Point", "coordinates": [ 136.446434578465045, 36.404912368370944 ] } },
{ "type": "Feature", "properties": { "P29_001": "17203", "P29_002": "B117220300025", "P29_003": "16001", "P29_004": "小松市立稚松小学校", "P29_005": "石川県小松市殿町2-7", "P29_006": "3", "P29_007": "1", "P29_008": "00", "P29_009": null }, "geometry": { "type": "Point", "coordinates": [ 136.449328194925499, 36.410788948784749 ] } },
{ "type": "Feature", "properties": { "P29_001": "17203", "P29_002": "B117220300034", "P29_003": "16001", "P29_004": "小松市立安宅小学校", "P29_005": "石川県小松市安宅町安宅林5", "P29_006": "3", "P29_007": "1", "P29_008": "00", "P29_009": null }, "geometry": { "type": "Point", "coordinates": [ 136.421065627983751, 36.4162703541868 ] } },
{ "type": "Feature", "properties": { "P29_001": "17203", "P29_002": "B117220300043", "P29_003": "16001", "P29_004": "小松市立犬丸小学校", "P29_005": "石川県小松市犬丸町甲61", "P29_006": "3", "P29_007": "1", "P29_008": "00", "P29_009": null }, "geometry": { "type": "Point", "coordinates": [ 136.459562030342681, 36.427948965389852 ] } },
{ "type": "Feature", "properties": { "P29_001": "17203", "P29_002": "B117220300052", "P29_003": "16001", "P29_004": "小松市立荒屋小学校", "P29_005": "石川県小松市荒屋町ほ1", "P29_006": "3", "P29_007": "1", "P29_008": "00", "P29_009": null }, "geometry": { "type": "Point", "coordinates": [ 136.473685565569895, 36.432905582800643 ] } },
{ "type": "Feature", "properties": { "P29_001": "17203", "P29_002": "B117220300061", "P29_003": "16001", "P29_004": "小松市立第一小学校", "P29_005": "石川県小松市白江町ハ73-1", "P29_006": "3", "P29_007": "1", "P29_008": "00", "P29_009": null }, "geometry": { "type": "Point", "coordinates": [ 136.476805062343885, 36.403002925061116 ] } },
{ "type": "Feature", "properties": { "P29_001": "17203", "P29_002": "B117220300070", "P29_003": "16001", "P29_004": "小松市立苗代小学校", "P29_005": "石川県小松市北浅井町ヌ16-1", "P29_006": "3", "P29_007": "1", "P29_008": "00", "P29_009": null }, "geometry": { "type": "Point", "coordinates": [ 136.464993893859855, 36.388439358503511 ] } },
{ "type": "Feature", "properties": { "P29_001": "17203", "P29_002": "B117220300089", "P29_003": "16001", "P29_004": "小松市立蓮代寺小学校", "P29_005": "石川県小松市蓮代寺町ハ丙16", "P29_006": "3", "P29_007": "1", "P29_008": "00", "P29_009": null }, "geometry": { "type": "Point", "coordinates": [ 136.469821045597598, 36.374985819307831 ] } },
{ "type": "Feature", "properties": { "P29_001": "17203", "P29_002": "B117220300098", "P29_003": "16001", "P29_004": "小松市立向本折小学校", "P29_005": "石川県小松市向本折町寅188", "P29_006": "3", "P29_007": "1", "P29_008": "00", "P29_009": null }, "geometry": { "type": "Point", "coordinates": [ 136.443792861696096, 36.392537957600922 ] } },
{ "type": "Feature", "properties": { "P29_001": "17203", "P29_002": "B117220300105", "P29_003": "16001", "P29_004": "小松市立今江小学校", "P29_005": "石川県小松市今江町6-167", "P29_006": "3", "P29_007": "1", "P29_008": "00", "P29_009": null }, "geometry": { "type": "Point", "coordinates": [ 136.437058051024337, 36.380202066578633 ] } },
{ "type": "Feature", "properties": { "P29_001": "17203", "P29_002": "B117220300114", "P29_003": "16001", "P29_004": "小松市立串小学校", "P29_005": "石川県小松市串町乙1-1", "P29_006": "3", "P29_007": "1", "P29_008": "00", "P29_009": null }, "geometry": { "type": "Point", "coordinates": [ 136.42255749759326, 36.370483961822103 ] } },
{ "type": "Feature", "properties": { "P29_001": "17203", "P29_002": "B117220300123", "P29_003": "16001", "P29_004": "小松市立日末小学校", "P29_005": "石川県小松市日末町ニ-52", "P29_006": "3", "P29_007": "1", "P29_008": "00", "P29_009": null }, "geometry": { "type": "Point", "coordinates": [ 136.400187075347134, 36.380723351870657 ] } },
{ "type": "Feature", "properties": { "P29_001": "17203", "P29_002": "B117220300132", "P29_003": "16001", "P29_004": "小松市立符津小学校", "P29_005": "石川県小松市符津町ハ100", "P29_006": "3", "P29_007": "1", "P29_008": "00", "P29_009": null }, "geometry": { "type": "Point", "coordinates": [ 136.431870995360413, 36.357046995440228 ] } },
{ "type": "Feature", "properties": { "P29_001": "17203", "P29_002": "B117220300141", "P29_003": "16001", "P29_004": "小松市立粟津小学校", "P29_005": "石川県小松市井口町チ24", "P29_006": "3", "P29_007": "1", "P29_008": "00", "P29_009": null }, "geometry": { "type": "Point", "coordinates": [ 136.44790885305099, 36.335645328007971 ] } },
{ "type": "Feature", "properties": { "P29_001": "17203", "P29_002": "B117220300150", "P29_003": "16001", "P29_004": "小松市立木場小学校", "P29_005": "石川県小松市木場町わ1", "P29_006": "3", "P29_007": "1", "P29_008": "00", "P29_009": null }, "geometry": { "type": "Point", "coordinates": [ 136.447704244869925, 36.353971375700382 ] } },
{ "type": "Feature", "properties": { "P29_001": "17203", "P29_002": "B117220300169", "P29_003": "16001", "P29_004": "小松市立矢田野小学校", "P29_005": "石川県小松市下粟津町ク101-1", "P29_006": "3", "P29_007": "1", "P29_008": "00", "P29_009": null }, "geometry": { "type": "Point", "coordinates": [ 136.426458199236748, 36.339140432174219 ] } },
{ "type": "Feature", "properties": { "P29_001": "17203", "P29_002": "B117220300178", "P29_003": "16001", "P29_004": "小松市立月津小学校", "P29_005": "石川県小松市月津町ユ113", "P29_006": "3", "P29_007": "1", "P29_008": "00", "P29_009": null }, "geometry": { "type": "Point", "coordinates": [ 136.404209935795876, 36.352335232159817 ] } },
{ "type": "Feature", "properties": { "P29_001": "17203", "P29_002": "B117220300187", "P29_003": "16001", "P29_004": "小松市立那谷小学校", "P29_005": "石川県小松市那谷町ユ54", "P29_006": "3", "P29_007": "1", "P29_008": "00", "P29_009": null }, "geometry": { "type": "Point", "coordinates": [ 136.423210502681513, 36.314211203766526 ] } },
{ "type": "Feature", "properties": { "P29_001": "17203", "P29_002": "B117220300196", "P29_003": "16001", "P29_004": "小松市立国府小学校", "P29_005": "石川県小松市河田町丁40-1", "P29_006": "3", "P29_007": "1", "P29_008": "00", "P29_009": null }, "geometry": { "type": "Point", "coordinates": [ 136.511710586038589, 36.4102238198072 ] } },
{ "type": "Feature", "properties": { "P29_001": "17203", "P29_002": "B117220300203", "P29_003": "16001", "P29_004": "小松市立中海小学校", "P29_005": "石川県小松市中海町山林ニ8-1", "P29_006": "3", "P29_007": "1", "P29_008": "00", "P29_009": null }, "geometry": { "type": "Point", "coordinates": [ 136.518759446691092, 36.397607425625175 ] } },
{ "type": "Feature", "properties": { "P29_001": "17203", "P29_002": "B117220300212", "P29_003": "16001", "P29_004": "小松市立東陵小学校", "P29_005": "石川県小松市西軽海町1-41", "P29_006": "3", "P29_007": "1", "P29_008": "00", "P29_009": null }, "geometry": { "type": "Point", "coordinates": [ 136.501013947482789, 36.399207492007335 ] } },
{ "type": "Feature", "properties": { "P29_001": "17203", "P29_002": "B117220300221", "P29_003": "16001", "P29_004": "小松市立能美小学校", "P29_005": "石川県小松市能美町ソ51", "P29_006": "3", "P29_007": "1", "P29_008": "00", "P29_009": null }, "geometry": { "type": "Point", "coordinates": [ 136.482726998657313, 36.411069999145745 ] } },
{ "type": "Feature", "properties": { "P29_001": "17204", "P29_002": "B117220400015", "P29_003": "16001", "P29_004": "輪島市立河井小学校", "P29_005": "石川県輪島市河井町18-1-2", "P29_006": "3", "P29_007": "1", "P29_008": "00", "P29_009": null }, "geometry": { "type": "Point", "coordinates": [ 136.903222342817742, 37.391890427574452 ] } },
{ "type": "Feature", "properties": { "P29_001": "17204", "P29_002": "B117220400024", "P29_003": "16001", "P29_004": "輪島市立鳳至小学校舳倉島分校", "P29_005": "石川県輪島市海士町舳倉島高見7", "P29_006": "3", "P29_007": "9", "P29_008": "00", "P29_009": null }, "geometry": { "type": "Point", "coordinates": [ 136.895305462746251, 37.395550573135665 ] } },
{ "type": "Feature", "properties": { "P29_001": "17204", "P29_002": "B117220400033", "P29_003": "16001", "P29_004": "輪島市立鳳至小学校", "P29_005": "石川県輪島市鳳至町堂金田1", "P29_006": "3", "P29_007": "1", "P29_008": "00", "P29_009": null }, "geometry": { "type": "Point", "coordinates": [ 136.895385225362247, 37.395463822358877 ] } },
{ "type": "Feature", "properties": { "P29_001": "17204", "P29_002": "B117220400042", "P29_003": "16001", "P29_004": "輪島市立鵠巣小学校", "P29_005": "石川県輪島市大野町菰沢2-3", "P29_006": "3", "P29_007": "1", "P29_008": "00", "P29_009": null }, "geometry": { "type": "Point", "coordinates": [ 136.934186439710516, 37.397070576003976 ] } },
{ "type": "Feature", "properties": { "P29_001": "17204", "P29_002": "B117220400051", "P29_003": "16001", "P29_004": "輪島市立河原田小学校", "P29_005": "石川県輪島市横地町6-123", "P29_006": "3", "P29_007": "1", "P29_008": "00", "P29_009": null }, "geometry": { "type": "Point", "coordinates": [ 136.907306184603385, 37.372934118334364 ] } },
{ "type": "Feature", "properties": { "P29_001": "17204", "P29_002": "B117220400060", "P29_003": "16001", "P29_004": "輪島市立三井小学校", "P29_005": "石川県輪島市三井町興徳寺10字29", "P29_006": "3", "P29_007": "1", "P29_008": "00", "P29_009": null }, "geometry": { "type": "Point", "coordinates": [ 136.898204586675746, 37.315377564522571 ] } },
{ "type": "Feature", "properties": { "P29_001": "17204", "P29_002": "B117220400079", "P29_003": "16001", "P29_004": "輪島市立町野小学校", "P29_005": "石川県輪島市町野町粟蔵川原田42", "P29_006": "3", "P29_007": "1", "P29_008": "00", "P29_009": null }, "geometry": { "type": "Point", "coordinates": [ 137.089259711116654, 37.422818209142932 ] } },
{ "type": "Feature", "properties": { "P29_001": "17204", "P29_002": "B117220400088", "P29_003": "16001", "P29_004": "輪島市立門前西小学校", "P29_005": "石川県輪島市門前町道下1-123", "P29_006": "3", "P29_007": "1", "P29_008": "00", "P29_009": null }, "geometry": { "type": "Point", "coordinates": [ 136.740643007548641, 37.285049373475971 ] } },
{ "type": "Feature", "properties": { "P29_001": "17204", "P29_002": "B117220400097", "P29_003": "16001", "P29_004": "輪島市立門前東小学校", "P29_005": "石川県輪島市門前町清水1-68", "P29_006": "3", "P29_007": "1", "P29_008": "00", "P29_009": null }, "geometry": { "type": "Point", "coordinates": [ 136.766609657219561, 37.287944108318804 ] } },
{ "type": "Feature", "properties": { "P29_001": "17204", "P29_002": "B117220400104", "P29_003": "16001", "P29_004": "輪島市立大屋小学校", "P29_005": "石川県輪島市小伊勢町日隅7-3", "P29_006": "3", "P29_007": "1", "P29_008": "00", "P29_009": null }, "geometry": { "type": "Point", "coordinates": [ 136.88915169794484, 37.383269282164278 ] } },
{ "type": "Feature", "properties": { "P29_001": "17205", "P29_002": "B117220500014", "P29_003": "16001", "P29_004": "珠洲市立上戸小学校", "P29_005": "石川県珠洲市上戸町寺社5-74-2", "P29_006": "3", "P29_007": "1", "P29_008": "00", "P29_009": null }, "geometry": { "type": "Point", "coordinates": [ 137.249961125995554, 37.427159293768426 ] } },
{ "type": "Feature", "properties": { "P29_001": "17205", "P29_002": "B117220500023", "P29_003": "16001", "P29_004": "珠洲市立飯田小学校", "P29_005": "石川県珠洲市飯田町19部61", "P29_006": "3", "P29_007": "1", "P29_008": "00", "P29_009": null }, "geometry": { "type": "Point", "coordinates": [ 137.259414159398432, 37.439898522591982 ] } },
{ "type": "Feature", "properties": { "P29_001": "17205", "P29_002": "B117220500032", "P29_003": "16001", "P29_004": "珠洲市立正院小学校", "P29_005": "石川県珠洲市正院町川尻1-39", "P29_006": "3", "P29_007": "1", "P29_008": "00", "P29_009": null }, "geometry": { "type": "Point", "coordinates": [ 137.296338147180364, 37.445425713011616 ] } },
{ "type": "Feature", "properties": { "P29_001": "17205", "P29_002": "B117220500041", "P29_003": "16001", "P29_004": "珠洲市立蛸島小学校", "P29_005": "石川県珠洲市蛸島町ワ部69", "P29_006": "3", "P29_007": "1", "P29_008": "00", "P29_009": null }, "geometry": { "type": "Point", "coordinates": [ 137.313351613342974, 37.442905799604169 ] } },
{ "type": "Feature", "properties": { "P29_001": "17205", "P29_002": "B117220500050", "P29_003": "16001", "P29_004": "珠洲市立みさき小学校", "P29_005": "石川県珠洲市三崎町粟津ロ部10-1", "P29_006": "3", "P29_007": "1", "P29_008": "00", "P29_009": null }, "geometry": { "type": "Point", "coordinates": [ 137.339267718295332, 37.486852772099162 ] } },
{ "type": "Feature", "properties": { "P29_001": "17205", "P29_002": "B117220500069", "P29_003": "16001", "P29_004": "珠洲市立直小学校", "P29_005": "石川県珠洲市野々江町2-38-2", "P29_006": "3", "P29_007": "1", "P29_008": "00", "P29_009": null }, "geometry": { "type": "Point", "coordinates": [ 137.281723845341418, 37.443895288921318 ] } },
{ "type": "Feature", "properties": { "P29_001": "17205", "P29_002": "B117220500078", "P29_003": "16001", "P29_004": "珠州市立若山小学校", "P29_005": "石川県珠洲市若山町古蔵11の部100-1", "P29_006": "3", "P29_007": "1", "P29_008": "00", "P29_009": null }, "geometry": { "type": "Point", "coordinates": [ 137.242568591842229, 37.45655017556107 ] } },
{ "type": "Feature", "properties": { "P29_001": "17206", "P29_002": "B117220600013", "P29_003": "16001", "P29_004": "加賀市立錦城小学校", "P29_005": "石川県加賀市大聖寺八間道57", "P29_006": "3", "P29_007": "1", "P29_008": "00", "P29_009": null }, "geometry": { "type": "Point", "coordinates": [ 136.308216103014985, 36.307798855355777 ] } },
{ "type": "Feature", "properties": { "P29_001": "17206", "P29_002": "B117220600031", "P29_003": "16001", "P29_004": "加賀市立三谷小学校", "P29_005": "石川県加賀市直下町ニ丙73", "P29_006": "3", "P29_007": "1", "P29_008": "00", "P29_009": null }, "geometry": { "type": "Point", "coordinates": [ 136.324776589150503, 36.283456055024224 ] } },
{ "type": "Feature", "properties": { "P29_001": "17206", "P29_002": "B117220600040", "P29_003": "16001", "P29_004": "加賀市立南郷小学校", "P29_005": "石川県加賀市吸坂町ヤ26", "P29_006": "3", "P29_007": "1", "P29_008": "00", "P29_009": null }, "geometry": { "type": "Point", "coordinates": [ 136.337627495846448, 36.304398779508055 ] } },
{ "type": "Feature", "properties": { "P29_001": "17206", "P29_002": "B117220600059", "P29_003": "16001", "P29_004": "加賀市立橋立小学校", "P29_005": "石川県加賀市小塩町ろ-1", "P29_006": "3", "P29_007": "1", "P29_008": "00", "P29_009": null }, "geometry": { "type": "Point", "coordinates": [ 136.313906933936778, 36.348199973387779 ] } },
{ "type": "Feature", "properties": { "P29_001": "17206", "P29_002": "B117220600068", "P29_003": "16001", "P29_004": "加賀市立片山津小学校", "P29_005": "石川県加賀市片山津町ス丙21", "P29_006": "3", "P29_007": "1", "P29_008": "00", "P29_009": null }, "geometry": { "type": "Point", "coordinates": [ 136.366550165758042, 36.339850245524268 ] } },
{ "type": "Feature", "properties": { "P29_001": "17206", "P29_002": "B117220600077", "P29_003": "16001", "P29_004": "加賀市立金明小学校", "P29_005": "石川県加賀市塩浜町104", "P29_006": "3", "P29_007": "1", "P29_008": "00", "P29_009": null }, "geometry": { "type": "Point", "coordinates": [ 136.333827877832817, 36.350254652985981 ] } },
{ "type": "Feature", "properties": { "P29_001": "17206", "P29_002": "B117220600086", "P29_003": "16001", "P29_004": "加賀市立湖北小学校", "P29_005": "石川県加賀市柴山町ひ92-1", "P29_006": "3", "P29_007": "1", "P29_008": "00", "P29_009": null }, "geometry": { "type": "Point", "coordinates": [ 136.367739398024582, 36.357863919631477 ] } },
{ "type": "Feature", "properties": { "P29_001": "17206", "P29_002": "B117220600095", "P29_003": "16001", "P29_004": "加賀市立動橋小学校", "P29_005": "石川県加賀市動橋町ヘ1-1", "P29_006": "3", "P29_007": "1", "P29_008": "00", "P29_009": null }, "geometry": { "type": "Point", "coordinates": [ 136.38913354968517, 36.329520480323559 ] } },
{ "type": "Feature", "properties": { "P29_001": "17206", "P29_002": "B117220600102", "P29_003": "16001", "P29_004": "加賀市立分校小学校", "P29_005": "石川県加賀市打越町二の22", "P29_006": "3", "P29_007": "1", "P29_008": "00", "P29_009": null }, "geometry": { "type": "Point", "coordinates": [ 136.400832244307963, 36.329386500584469 ] } },
{ "type": "Feature", "properties": { "P29_001": "17206", "P29_002": "B117220600111", "P29_003": "16001", "P29_004": "加賀市立作見小学校", "P29_005": "石川県加賀市作見町ナ154", "P29_006": "3", "P29_007": "1", "P29_008": "00", "P29_009": null }, "geometry": { "type": "Point", "coordinates": [ 136.353897399014045, 36.323516826829334 ] } },
{ "type": "Feature", "properties": { "P29_001": "17206", "P29_002": "B117220600120", "P29_003": "16001", "P29_004": "加賀市立山代小学校", "P29_005": "石川県加賀市山代温泉山背台2-44-1", "P29_006": "3", "P29_007": "1", "P29_008": "00", "P29_009": null }, "geometry": { "type": "Point", "coordinates": [ 136.357796975134022, 36.291992818509385 ] } },
{ "type": "Feature", "properties": { "P29_001": "17206", "P29_002": "B117220600139", "P29_003": "16001", "P29_004": "加賀市立庄小学校", "P29_005": "石川県加賀市庄町ワ101-1", "P29_006": "3", "P29_007": "1", "P29_008": "00", "P29_009": null }, "geometry": { "type": "Point", "coordinates": [ 136.374562967585717, 36.312907013301697 ] } },
{ "type": "Feature", "properties": { "P29_001": "17206", "P29_002": "B117220600148", "P29_003": "16001", "P29_004": "加賀市立東谷口小学校", "P29_005": "石川県加賀市水田丸町ヌ36-1", "P29_006": "3", "P29_007": "1", "P29_008": "00", "P29_009": null }, "geometry": { "type": "Point", "coordinates": [ 136.390148828841404, 36.284700579610863 ] } },
{ "type": "Feature", "properties": { "P29_001": "17206", "P29_002": "B117220600157", "P29_003": "16001", "P29_004": "加賀市立勅使小学校", "P29_005": "石川県加賀市勅使町24-1", "P29_006": "3", "P29_007": "1", "P29_008": "00", "P29_009": null }, "geometry": { "type": "Point", "coordinates": [ 136.389048316005045, 36.303363194257138 ] } },
{ "type": "Feature", "properties": { "P29_001": "17206", "P29_002": "B117220600166", "P29_003": "16001", "P29_004": "加賀市立錦城東小学校", "P29_005": "石川県加賀市大聖寺敷地ワ13", "P29_006": "3", "P29_007": "1", "P29_008": "00", "P29_009": null }, "geometry": { "type": "Point", "coordinates": [ 136.322539209201949, 36.312106001180709 ] } },
{ "type": "Feature", "properties": { "P29_001": "17206", "P29_002": "B117220600175", "P29_003": "16001", "P29_004": "加賀市立山中小学校", "P29_005": "石川県加賀市山中温泉上野町ル15-9", "P29_006": "3", "P29_007": "1", "P29_008": "00", "P29_009": null }, "geometry": { "type": "Point", "coordinates": [ 136.36839866320642, 36.252929291016763 ] } },
{ "type": "Feature", "properties": { "P29_001": "17206", "P29_002": "B117220600184", "P29_003": "16001", "P29_004": "加賀市立河南小学校", "P29_005": "石川県加賀市山中温泉中田町ニ-25-1", "P29_006": "3", "P29_007": "1", "P29_008": "00", "P29_009": null }, "geometry": { "type": "Point", "coordinates": [ 136.356530751876107, 36.270041046563925 ] } },
{ "type": "Feature", "properties": { "P29_001": "17207", "P29_002": "B117220700012", "P29_003": "16001", "P29_004": "羽咋市立羽咋小学校", "P29_005": "石川県羽咋市中央町サ90", "P29_006": "3", "P29_007": "1", "P29_008": "00", "P29_009": null }, "geometry": { "type": "Point", "coordinates": [ 136.775392796973478, 36.894099097712683 ] } },
{ "type": "Feature", "properties": { "P29_001": "17207", "P29_002": "B117220700021", "P29_003": "16001", "P29_004": "羽咋市立粟ノ保小学校", "P29_005": "石川県羽咋市粟生町キ1-2", "P29_006": "3", "P29_007": "1", "P29_008": "00", "P29_009": null }, "geometry": { "type": "Point", "coordinates": [ 136.778195910187975, 36.880853337970734 ] } },
{ "type": "Feature", "properties": { "P29_001": "17207", "P29_002": "B117220700049", "P29_003": "16001", "P29_004": "羽咋市立西北台小学校", "P29_005": "石川県羽咋市滝町ケ14-2", "P29_006": "3", "P29_007": "1", "P29_008": "00", "P29_009": null }, "geometry": { "type": "Point", "coordinates": [ 136.762521220027736, 36.935187236559017 ] } },
{ "type": "Feature", "properties": { "P29_001": "17207", "P29_002": "B117220700058", "P29_003": "16001", "P29_004": "羽咋市立邑知小学校", "P29_005": "石川県羽咋市飯山町ロ20", "P29_006": "3", "P29_007": "1", "P29_008": "00", "P29_009": null }, "geometry": { "type": "Point", "coordinates": [ 136.822942239705725, 36.900383094840365 ] } },
{ "type": "Feature", "properties": { "P29_001": "17207", "P29_002": "B117220700067", "P29_003": "16001", "P29_004": "羽咋市立瑞穂小学校", "P29_005": "石川県羽咋市深江町ル61-1", "P29_006": "3", "P29_007": "1", "P29_008": "00", "P29_009": null }, "geometry": { "type": "Point", "coordinates": [ 136.800424431166761, 36.902770739182209 ] } },
{ "type": "Feature", "properties": { "P29_001": "17209", "P29_002": "B117220900010", "P29_003": "16001", "P29_004": "かほく市立高松小学校", "P29_005": "石川県かほく市高松ヤ10", "P29_006": "3", "P29_007": "1", "P29_008": "00", "P29_009": null }, "geometry": { "type": "Point", "coordinates": [ 136.71950839549055, 36.769178557156955 ] } },
{ "type": "Feature", "properties": { "P29_001": "17209", "P29_002": "B117220900029", "P29_003": "16001", "P29_004": "かほく市立大海小学校", "P29_005": "石川県かほく市夏栗ロ-10", "P29_006": "3", "P29_007": "1", "P29_008": "00", "P29_009": null }, "geometry": { "type": "Point", "coordinates": [ 136.747555767620383, 36.778458088963383 ] } },
{ "type": "Feature", "properties": { "P29_001": "17209", "P29_002": "B117220900038", "P29_003": "16001", "P29_004": "かほく市立七塚小学校", "P29_005": "石川県かほく市木津ホ61-1", "P29_006": "3", "P29_007": "1", "P29_008": "00", "P29_009": null }, "geometry": { "type": "Point", "coordinates": [ 136.701694318437944, 36.747831869494007 ] } },
{ "type": "Feature", "properties": { "P29_001": "17209", "P29_002": "B117220900047", "P29_003": "16001", "P29_004": "かほく市立外日角小学校", "P29_005": "石川県かほく市外日角ニ52", "P29_006": "3", "P29_007": "1", "P29_008": "00", "P29_009": null }, "geometry": { "type": "Point", "coordinates": [ 136.691634474928321, 36.723707412142133 ] } },
{ "type": "Feature", "properties": { "P29_001": "17209", "P29_002": "B117220900056", "P29_003": "16001", "P29_004": "かほく市立宇ノ気小学校", "P29_005": "石川県かほく市宇野気リ147", "P29_006": "3", "P29_007": "1", "P29_008": "00", "P29_009": null }, "geometry": { "type": "Point", "coordinates": [ 136.704367365687091, 36.719795401909131 ] } },
{ "type": "Feature", "properties": { "P29_001": "17209", "P29_002": "B117220900065", "P29_003": "16001", "P29_004": "かほく市立金津小学校", "P29_005": "石川県かほく市谷カ-30", "P29_006": "3", "P29_007": "1", "P29_008": "00", "P29_009": null }, "geometry": { "type": "Point", "coordinates": [ 136.725259973259256, 36.741696189229273 ] } },
{ "type": "Feature", "properties": { "P29_001": "17210", "P29_002": "B117221000017", "P29_003": "16001", "P29_004": "白山市立松任小学校", "P29_005": "石川県白山市末広1-100", "P29_006": "3", "P29_007": "1", "P29_008": "00", "P29_009": null }, "geometry": { "type": "Point", "coordinates": [ 136.567456828714626, 36.519900319835493 ] } },
{ "type": "Feature", "properties": { "P29_001": "17210", "P29_002": "B117221000026", "P29_003": "16001", "P29_004": "白山市立蕪城小学校", "P29_005": "石川県白山市北安田町355", "P29_006": "3", "P29_007": "1", "P29_008": "00", "P29_009": null }, "geometry": { "type": "Point", "coordinates": [ 136.549997025341298, 36.529436819022955 ] } },
{ "type": "Feature", "properties": { "P29_001": "17210", "P29_002": "B117221000035", "P29_003": "16001", "P29_004": "白山市立石川小学校", "P29_005": "石川県白山市源兵島町344", "P29_006": "3", "P29_007": "1", "P29_008": "00", "P29_009": null }, "geometry": { "type": "Point", "coordinates": [ 136.52863963612927, 36.483577791782601 ] } },
{ "type": "Feature", "properties": { "P29_001": "17210", "P29_002": "B117221000044", "P29_003": "16001", "P29_004": "白山市立松南小学校", "P29_005": "石川県白山市菅波町1171-1", "P29_006": "3", "P29_007": "1", "P29_008": "00", "P29_009": null }, "geometry": { "type": "Point", "coordinates": [ 136.56964106402765, 36.491172781799527 ] } },
{ "type": "Feature", "properties": { "P29_001": "17210", "P29_002": "B117221000053", "P29_003": "16001", "P29_004": "白山市立北陽小学校", "P29_005": "石川県白山市新田町246", "P29_006": "3", "P29_007": "1", "P29_008": "00", "P29_009": null }, "geometry": { "type": "Point", "coordinates": [ 136.572488592748471, 36.531337932558721 ] } },
{ "type": "Feature", "properties": { "P29_001": "17210", "P29_002": "B117221000062", "P29_003": "16001", "P29_004": "白山市立松陽小学校", "P29_005": "石川県白山市笠間町1150-1", "P29_006": "3", "P29_007": "1", "P29_008": "00", "P29_009": null }, "geometry": { "type": "Point", "coordinates": [ 136.529782453831473, 36.507833056790084 ] } },
{ "type": "Feature", "properties": { "P29_001": "17210", "P29_002": "B117221000071", "P29_003": "16001", "P29_004": "白山市立東明小学校", "P29_005": "石川県白山市徳丸町207", "P29_006": "3", "P29_007": "1", "P29_008": "00", "P29_009": null }, "geometry": { "type": "Point", "coordinates": [ 136.579304742839668, 36.524255191382501 ] } },
{ "type": "Feature", "properties": { "P29_001": "17210", "P29_002": "B117221000080", "P29_003": "16001", "P29_004": "白山市立千代野小学校", "P29_005": "石川県白山市千代野東4-1", "P29_006": "3", "P29_007": "1", "P29_008": "00", "P29_009": null }, "geometry": { "type": "Point", "coordinates": [ 136.541872078610538, 36.524526388377893 ] } },
{ "type": "Feature", "properties": { "P29_001": "17210", "P29_002": "B117221000099", "P29_003": "16001", "P29_004": "白山市立旭丘小学校", "P29_005": "石川県白山市宮永町1446-1", "P29_006": "3", "P29_007": "1", "P29_008": "00", "P29_009": null }, "geometry": { "type": "Point", "coordinates": [ 136.564950827768342, 36.545741099473119 ] } },
{ "type": "Feature", "properties": { "P29_001": "17210", "P29_002": "B117221000106", "P29_003": "16001", "P29_004": "白山市立美川小学校", "P29_005": "石川県白山市美川和波町ワ-229", "P29_006": "3", "P29_007": "1", "P29_008": "00", "P29_009": null }, "geometry": { "type": "Point", "coordinates": [ 136.484591556779208, 36.490847838983292 ] } },
{ "type": "Feature", "properties": { "P29_001": "17210", "P29_002": "B117221000115", "P29_003": "16001", "P29_004": "白山市立蝶屋小学校", "P29_005": "石川県白山市井関町ヌ15", "P29_006": "3", "P29_007": "1", "P29_008": "00", "P29_009": null }, "geometry": { "type": "Point", "coordinates": [ 136.502114993083211, 36.491281002822589 ] } },
{ "type": "Feature", "properties": { "P29_001": "17210", "P29_002": "B117221000124", "P29_003": "16001", "P29_004": "白山市立湊小学校", "P29_005": "石川県白山市湊町カ307", "P29_006": "3", "P29_007": "1", "P29_008": "00", "P29_009": null }, "geometry": { "type": "Point", "coordinates": [ 136.477609033442008, 36.474241463938768 ] } },
{ "type": "Feature", "properties": { "P29_001": "17210", "P29_002": "B117221000133", "P29_003": "16001", "P29_004": "白山市立朝日小学校", "P29_005": "石川県白山市鶴来日吉町ロ111", "P29_006": "3", "P29_007": "1", "P29_008": "00", "P29_009": null }, "geometry": { "type": "Point", "coordinates": [ 136.636006744089798, 36.445208709050725 ] } },
{ "type": "Feature", "properties": { "P29_001": "17210", "P29_002": "B117221000142", "P29_003": "16001", "P29_004": "白山市立明光小学校", "P29_005": "石川県白山市井口町は1-4", "P29_006": "3", "P29_007": "1", "P29_008": "00", "P29_009": null }, "geometry": { "type": "Point", "coordinates": [ 136.606064381909789, 36.477283733308504 ] } },
{ "type": "Feature", "properties": { "P29_001": "17210", "P29_002": "B117221000151", "P29_003": "16001", "P29_004": "白山市立河内小学校", "P29_005": "石川県白山市河内町口直海イ88", "P29_006": "3", "P29_007": "1", "P29_008": "00", "P29_009": null }, "geometry": { "type": "Point", "coordinates": [ 136.631497202938533, 36.40248495726923 ] } },
{ "type": "Feature", "properties": { "P29_001": "17210", "P29_002": "B117221000160", "P29_003": "16001", "P29_004": "白山市立鳥越小学校", "P29_005": "石川県白山市上野町オ1", "P29_006": "3", "P29_007": "1", "P29_008": "00", "P29_009": null }, "geometry": { "type": "Point", "coordinates": [ 136.605187245990606, 36.371359812499115 ] } },
{ "type": "Feature", "properties": { "P29_001": "17210", "P29_002": "B117221000179", "P29_003": "16001", "P29_004": "白山市立白峰小学校", "P29_005": "石川県白山市白峰ニ110", "P29_006": "3", "P29_007": "1", "P29_008": "00", "P29_009": null }, "geometry": { "type": "Point", "coordinates": [ 136.625294671714585, 36.178379328511895 ] } },
{ "type": "Feature", "properties": { "P29_001": "17210", "P29_002": "B117221000188", "P29_003": "16001", "P29_004": "白山市立白嶺小学校", "P29_005": "石川県白山市瀬戸申66", "P29_006": "3", "P29_007": "1", "P29_008": "00", "P29_009": null }, "geometry": { "type": "Point", "coordinates": [ 136.640772784626137, 36.29627889090645 ] } },
{ "type": "Feature", "properties": { "P29_001": "17210", "P29_002": "B117221000197", "P29_003": "16001", "P29_004": "白山市立広陽小学校", "P29_005": "石川県白山市知気寺町と77-2", "P29_006": "3", "P29_007": "1", "P29_008": "00", "P29_009": null }, "geometry": { "type": "Point", "coordinates": [ 136.602778970469217, 36.48672818976376 ] } },
{ "type": "Feature", "properties": { "P29_001": "17211", "P29_002": "B117221100016", "P29_003": "16001", "P29_004": "能美市立浜小学校", "P29_005": "石川県能美市中町カ14", "P29_006": "3", "P29_007": "1", "P29_008": "00", "P29_009": null }, "geometry": { "type": "Point", "coordinates": [ 136.458133671936281, 36.448000486288578 ] } },
{ "type": "Feature", "properties": { "P29_001": "17211", "P29_002": "B117221100025", "P29_003": "16001", "P29_004": "能美市立福岡小学校", "P29_005": "石川県能美市福岡町ハ35", "P29_006": "3", "P29_007": "1", "P29_008": "00", "P29_009": null }, "geometry": { "type": "Point", "coordinates": [ 136.475253115396526, 36.447966660422516 ] } },
{ "type": "Feature", "properties": { "P29_001": "17211", "P29_002": "B117221100034", "P29_003": "16001", "P29_004": "能美市立寺井小学校", "P29_005": "石川県能美市寺井町ヨ60", "P29_006": "3", "P29_007": "1", "P29_008": "00", "P29_009": null }, "geometry": { "type": "Point", "coordinates": [ 136.497657808551878, 36.436018747136785 ] } },
{ "type": "Feature", "properties": { "P29_001": "17211", "P29_002": "B117221100043", "P29_003": "16001", "P29_004": "能美市立湯野小学校", "P29_005": "石川県能美市湯谷町へ3076", "P29_006": "3", "P29_007": "1", "P29_008": "00", "P29_009": null }, "geometry": { "type": "Point", "coordinates": [ 136.514264162927844, 36.434466120834763 ] } },
{ "type": "Feature", "properties": { "P29_001": "17211", "P29_002": "B117221100052", "P29_003": "16001", "P29_004": "能美市立粟生小学校", "P29_005": "石川県能美市粟生町ロ45", "P29_006": "3", "P29_007": "1", "P29_008": "00", "P29_009": null }, "geometry": { "type": "Point", "coordinates": [ 136.506452777994866, 36.452374819235807 ] } },
{ "type": "Feature", "properties": { "P29_001": "17211", "P29_002": "B117221100061", "P29_003": "16001", "P29_004": "能美市立辰口中央小学校", "P29_005": "石川県能美市辰口町735", "P29_006": "3", "P29_007": "1", "P29_008": "00", "P29_009": null }, "geometry": { "type": "Point", "coordinates": [ 136.542592793638818, 36.446858725225972 ] } },
{ "type": "Feature", "properties": { "P29_001": "17211", "P29_002": "B117221100070", "P29_003": "16001", "P29_004": "能美市立宮竹小学校", "P29_005": "石川県能美市宮竹町イ153", "P29_006": "3", "P29_007": "1", "P29_008": "00", "P29_009": null }, "geometry": { "type": "Point", "coordinates": [ 136.584326962181564, 36.452976430433083 ] } },
{ "type": "Feature", "properties": { "P29_001": "17211", "P29_002": "B117221100089", "P29_003": "16001", "P29_004": "能美市立和気小学校", "P29_005": "石川県能美市和気町イ140", "P29_006": "3", "P29_007": "1", "P29_008": "00", "P29_009": null }, "geometry": { "type": "Point", "coordinates": [ 136.549086124989714, 36.423629950720866 ] } },
{ "type": "Feature", "properties": { "P29_001": "17212", "P29_002": "B117221200015", "P29_003": "16001", "P29_004": "野々市市立野々市小学校", "P29_005": "石川県野々市市本町5-3-1", "P29_006": "3", "P29_007": "1", "P29_008": "00", "P29_009": null }, "geometry": { "type": "Point", "coordinates": [ 136.609268717729805, 36.53210620758896 ] } },
{ "type": "Feature", "properties": { "P29_001": "17212", "P29_002": "B117221200024", "P29_003": "16001", "P29_004": "野々市市立御園小学校", "P29_005": "石川県野々市市稲荷4-128", "P29_006": "3", "P29_007": "1", "P29_008": "00", "P29_009": null }, "geometry": { "type": "Point", "coordinates": [ 136.604871048769752, 36.537677277761603 ] } },
{ "type": "Feature", "properties": { "P29_001": "17212", "P29_002": "B117221200033", "P29_003": "16001", "P29_004": "野々市市立菅原小学校", "P29_005": "石川県野々市市菅原町20-1", "P29_006": "3", "P29_007": "1", "P29_008": "00", "P29_009": null }, "geometry": { "type": "Point", "coordinates": [ 136.616270640706489, 36.525399828745755 ] } },
{ "type": "Feature", "properties": { "P29_001": "17212", "P29_002": "B117221200042", "P29_003": "16001", "P29_004": "野々市市立富陽小学校", "P29_005": "石川県野々市市中林5-70", "P29_006": "3", "P29_007": "1", "P29_008": "00", "P29_009": null }, "geometry": { "type": "Point", "coordinates": [ 136.603622500738908, 36.513551293384239 ] } },
{ "type": "Feature", "properties": { "P29_001": "17212", "P29_002": "B117221200051", "P29_003": "16001", "P29_004": "野々市市立館野小学校", "P29_005": "石川県野々市市押野3-71", "P29_006": "3", "P29_007": "1", "P29_008": "00", "P29_009": null }, "geometry": { "type": "Point", "coordinates": [ 136.616963821379215, 36.540580332505627 ] } },
{ "type": "Feature", "properties": { "P29_001": "17324", "P29_002": "B117232400010", "P29_003": "16001", "P29_004": "川北町立中島小学校", "P29_005": "石川県能美郡川北町中島ワ17", "P29_006": "3", "P29_007": "1", "P29_008": "00", "P29_009": null }, "geometry": { "type": "Point", "coordinates": [ 136.58641951209276, 36.464636943226715 ] } },
{ "type": "Feature", "properties": { "P29_001": "17324", "P29_002": "B117232400029", "P29_003": "16001", "P29_004": "川北町立川北小学校", "P29_005": "石川県能美郡川北町壱ツ屋ヲ25-1", "P29_006": "3", "P29_007": "1", "P29_008": "00", "P29_009": null }, "geometry": { "type": "Point", "coordinates": [ 136.544584174072384, 36.472214050094543 ] } },
{ "type": "Feature", "properties": { "P29_001": "17324", "P29_002": "B117232400038", "P29_003": "16001", "P29_004": "川北町立橘小学校", "P29_005": "石川県能美郡川北町橘ソ68", "P29_006": "3", "P29_007": "1", "P29_008": "00", "P29_009": null }, "geometry": { "type": "Point", "coordinates": [ 136.508867020648864, 36.473025296605009 ] } },
{ "type": "Feature", "properties": { "P29_001": "17361", "P29_002": "B117236100014", "P29_003": "16001", "P29_004": "津幡町立津幡小学校", "P29_005": "石川県河北郡津幡町清水り123-3", "P29_006": "3", "P29_007": "1", "P29_008": "00", "P29_009": null }, "geometry": { "type": "Point", "coordinates": [ 136.736148550091428, 36.673510514714195 ] } },
{ "type": "Feature", "properties": { "P29_001": "17361", "P29_002": "B117236100023", "P29_003": "16001", "P29_004": "津幡町立中条小学校", "P29_005": "石川県河北郡津幡町字南中条ヘ81", "P29_006": "3", "P29_007": "1", "P29_008": "00", "P29_009": null }, "geometry": { "type": "Point", "coordinates": [ 136.726961385901859, 36.658940761452719 ] } },
{ "type": "Feature", "properties": { "P29_001": "17361", "P29_002": "B117236100032", "P29_003": "16001", "P29_004": "津幡町立井上小学校", "P29_005": "石川県河北郡津幡町井上の荘1-1", "P29_006": "3", "P29_007": "1", "P29_008": "00", "P29_009": null }, "geometry": { "type": "Point", "coordinates": [ 136.720041140550563, 36.671697826835988 ] } },
{ "type": "Feature", "properties": { "P29_001": "17361", "P29_002": "B117236100041", "P29_003": "16001", "P29_004": "津幡町立刈安小学校", "P29_005": "石川県河北郡津幡町字刈安イ-1", "P29_006": "3", "P29_007": "1", "P29_008": "00", "P29_009": null }, "geometry": { "type": "Point", "coordinates": [ 136.788233494658328, 36.669783809780533 ] } },
{ "type": "Feature", "properties": { "P29_001": "17361", "P29_002": "B117236100050", "P29_003": "16001", "P29_004": "津幡町立太白台小学校", "P29_005": "石川県河北郡津幡町字津幡ワ2", "P29_006": "3", "P29_007": "1", "P29_008": "00", "P29_009": null }, "geometry": { "type": "Point", "coordinates": [ 136.748434458988839, 36.672883812980402 ] } },
{ "type": "Feature", "properties": { "P29_001": "17361", "P29_002": "B117236100069", "P29_003": "16001", "P29_004": "津幡町立笠野小学校", "P29_005": "石川県河北郡津幡町字山北ワ116", "P29_006": "3", "P29_007": "1", "P29_008": "00", "P29_009": null }, "geometry": { "type": "Point", "coordinates": [ 136.777158378149466, 36.692935000915675 ] } },
{ "type": "Feature", "properties": { "P29_001": "17361", "P29_002": "B117236100078", "P29_003": "16001", "P29_004": "津幡町立萩野台小学校", "P29_005": "石川県河北郡津幡町字七野イ75", "P29_006": "3", "P29_007": "1", "P29_008": "00", "P29_009": null }, "geometry": { "type": "Point", "coordinates": [ 136.761878437046306, 36.656914176260187 ] } },
{ "type": "Feature", "properties": { "P29_001": "17361", "P29_002": "B117236100087", "P29_003": "16001", "P29_004": "津幡町立英田小学校", "P29_005": "石川県河北郡津幡町字能瀬井36", "P29_006": "3", "P29_007": "1", "P29_008": "00", "P29_009": null }, "geometry": { "type": "Point", "coordinates": [ 136.726995476500491, 36.692618063200136 ] } },
{ "type": "Feature", "properties": { "P29_001": "17361", "P29_002": "B117236100096", "P29_003": "16001", "P29_004": "津幡町立条南小学校", "P29_005": "石川県河北郡津幡町字太田ろ3", "P29_006": "3", "P29_007": "1", "P29_008": "00", "P29_009": null }, "geometry": { "type": "Point", "coordinates": [ 136.717626136765801, 36.654294862729706 ] } },
{ "type": "Feature", "properties": { "P29_001": "17365", "P29_002": "B117236500010", "P29_003": "16001", "P29_004": "内灘町立向粟崎小学校", "P29_005": "石川県河北郡内灘町字向粟崎2-382", "P29_006": "3", "P29_007": "1", "P29_008": "00", "P29_009": null }, "geometry": { "type": "Point", "coordinates": [ 136.637606687433276, 36.636314262614533 ] } },
{ "type": "Feature", "properties": { "P29_001": "17365", "P29_002": "B117236500029", "P29_003": "16001", "P29_004": "内灘町立鶴ケ丘小学校", "P29_005": "石川県河北郡内灘町字鶴ケ丘2-162", "P29_006": "3", "P29_007": "1", "P29_008": "00", "P29_009": null }, "geometry": { "type": "Point", "coordinates": [ 136.64209805199954, 36.643256879837352 ] } },
{ "type": "Feature", "properties": { "P29_001": "17365", "P29_002": "B117236500038", "P29_003": "16001", "P29_004": "内灘町立西荒屋小学校", "P29_005": "石川県河北郡内灘町字西荒屋ハ6-7", "P29_006": "3", "P29_007": "1", "P29_008": "00", "P29_009": null }, "geometry": { "type": "Point", "coordinates": [ 136.66744258817252, 36.678305640014607 ] } },
{ "type": "Feature", "properties": { "P29_001": "17365", "P29_002": "B117236500047", "P29_003": "16001", "P29_004": "内灘町立大根布小学校", "P29_005": "石川県河北郡内灘町字大根布6-2", "P29_006": "3", "P29_007": "1", "P29_008": "00", "P29_009": null }, "geometry": { "type": "Point", "coordinates": [ 136.645848288238994, 36.649705397760357 ] } },
{ "type": "Feature", "properties": { "P29_001": "17365", "P29_002": "B117236500056", "P29_003": "16001", "P29_004": "内灘町立鶴ケ丘小学校ハマナス分校", "P29_005": "石川県河北郡内灘町字大根布と543", "P29_006": "3", "P29_007": "1", "P29_008": "00", "P29_009": null }, "geometry": { "type": "Point", "coordinates": [ 136.638722356951433, 36.650391873800515 ] } },
{ "type": "Feature", "properties": { "P29_001": "17365", "P29_002": "B117236500065", "P29_003": "16001", "P29_004": "内灘町立清湖小学校", "P29_005": "石川県河北郡内灘町字向陽台2-294", "P29_006": "3", "P29_007": "1", "P29_008": "00", "P29_009": null }, "geometry": { "type": "Point", "coordinates": [ 136.633839083075799, 36.640926521348327 ] } },
{ "type": "Feature", "properties": { "P29_001": "17365", "P29_002": "B117236500074", "P29_003": "16001", "P29_004": "内灘町立白帆台小学校", "P29_005": "石川県河北郡内灘町白帆台2-168", "P29_006": "3", "P29_007": "1", "P29_008": "00", "P29_009": null }, "geometry": { "type": "Point", "coordinates": [ 136.657198611282666, 36.67394196662692 ] } },
{ "type": "Feature", "properties": { "P29_001": "17384", "P29_002": "B117238400017", "P29_003": "16001", "P29_004": "志賀町立富来小学校", "P29_005": "石川県羽咋郡志賀町相神に-80", "P29_006": "3", "P29_007": "1", "P29_008": "00", "P29_009": null }, "geometry": { "type": "Point", "coordinates": [ 136.717548710951036, 37.156357261946113 ] } },
{ "type": "Feature", "properties": { "P29_001": "17384", "P29_002": "B117238400026", "P29_003": "16001", "P29_004": "志賀町立志賀小学校", "P29_005": "石川県羽咋郡志賀町高浜町マ14-1", "P29_006": "3", "P29_007": "1", "P29_008": "00", "P29_009": null }, "geometry": { "type": "Point", "coordinates": [ 136.779300672943833, 36.998160457174855 ] } },
{ "type": "Feature", "properties": { "P29_001": "17386", "P29_002": "B117238600015", "P29_003": "16001", "P29_004": "宝達志水町立志雄小学校", "P29_005": "石川県羽咋郡宝達志水町子浦ツ18", "P29_006": "3", "P29_007": "1", "P29_008": "00", "P29_009": null }, "geometry": { "type": "Point", "coordinates": [ 136.793479889602736, 36.862569425553573 ] } },
{ "type": "Feature", "properties": { "P29_001": "17386", "P29_002": "B117238600024", "P29_003": "16001", "P29_004": "宝達志水町立樋川小学校", "P29_005": "石川県羽咋郡宝達志水町荻島に30", "P29_006": "3", "P29_007": "1", "P29_008": "00", "P29_009": null }, "geometry": { "type": "Point", "coordinates": [ 136.777647329960161, 36.856498069203106 ] } },
{ "type": "Feature", "properties": { "P29_001": "17386", "P29_002": "B117238600033", "P29_003": "16001", "P29_004": "宝達志水町立押水第一小学校", "P29_005": "石川県羽咋郡宝達志水町冬野ヲ2", "P29_006": "3", "P29_007": "1", "P29_008": "00", "P29_009": null }, "geometry": { "type": "Point", "coordinates": [ 136.749775088638586, 36.798207722314586 ] } },
{ "type": "Feature", "properties": { "P29_001": "17386", "P29_002": "B117238600042", "P29_003": "16001", "P29_004": "宝達志水町立宝達小学校", "P29_005": "石川県羽咋郡宝達志水町上田キ50", "P29_006": "3", "P29_007": "1", "P29_008": "00", "P29_009": null }, "geometry": { "type": "Point", "coordinates": [ 136.773971069713326, 36.812830683137996 ] } },
{ "type": "Feature", "properties": { "P29_001": "17386", "P29_002": "B117238600051", "P29_003": "16001", "P29_004": "宝達志水町立相見小学校", "P29_005": "石川県羽咋郡宝達志水町麦生ト133", "P29_006": "3", "P29_007": "1", "P29_008": "00", "P29_009": null }, "geometry": { "type": "Point", "coordinates": [ 136.755009984771988, 36.829906326327922 ] } },
{ "type": "Feature", "properties": { "P29_001": "17407", "P29_002": "B117240700010", "P29_003": "16001", "P29_004": "中能登町立鳥屋小学校", "P29_005": "石川県鹿島郡中能登町末坂ナ部7", "P29_006": "3", "P29_007": "1", "P29_008": "00", "P29_009": null }, "geometry": { "type": "Point", "coordinates": [ 136.898624035281557, 36.990357378766035 ] } },
{ "type": "Feature", "properties": { "P29_001": "17407", "P29_002": "B117240700029", "P29_003": "16001", "P29_004": "中能登町立鹿島小学校", "P29_005": "石川県鹿島郡中能登町芹川チ部95", "P29_006": "3", "P29_007": "1", "P29_008": "00", "P29_009": null }, "geometry": { "type": "Point", "coordinates": [ 136.918251176336042, 36.96349479276163 ] } },
{ "type": "Feature", "properties": { "P29_001": "17407", "P29_002": "B117240700038", "P29_003": "16001", "P29_004": "中能登町立鹿西小学校", "P29_005": "石川県鹿島郡中能登町能登部下110-20", "P29_006": "3", "P29_007": "1", "P29_008": "00", "P29_009": null }, "geometry": { "type": "Point", "coordinates": [ 136.86576869387423, 36.963013483550554 ] } },
{ "type": "Feature", "properties": { "P29_001": "17461", "P29_002": "B117246100013", "P29_003": "16001", "P29_004": "穴水町立穴水小学校", "P29_005": "石川県鳳珠郡穴水町字大町ロ-165-1", "P29_006": "3", "P29_007": "1", "P29_008": "00", "P29_009": null }, "geometry": { "type": "Point", "coordinates": [ 136.907431210192016, 37.227322235854913 ] } },
{ "type": "Feature", "properties": { "P29_001": "17461", "P29_002": "B117246100022", "P29_003": "16001", "P29_004": "穴水町立向洋小学校", "P29_005": "石川県鳳珠郡穴水町字比良イ24", "P29_006": "3", "P29_007": "1", "P29_008": "00", "P29_009": null }, "geometry": { "type": "Point", "coordinates": [ 136.951661634843845, 37.23452159605587 ] } },
{ "type": "Feature", "properties": { "P29_001": "17463", "P29_002": "B117246300011", "P29_003": "16001", "P29_004": "能登町立柳田小学校", "P29_005": "石川県鳳珠郡能登町柳田礼部2-1地", "P29_006": "3", "P29_007": "1", "P29_008": "00", "P29_009": null }, "geometry": { "type": "Point", "coordinates": [ 137.095499031842991, 37.366496762329021 ] } },
{ "type": "Feature", "properties": { "P29_001": "17463", "P29_002": "B117246300020", "P29_003": "16001", "P29_004": "能登町立小木小学校", "P29_005": "石川県鳳珠郡能登町小木4-16", "P29_006": "3", "P29_007": "1", "P29_008": "00", "P29_009": null }, "geometry": { "type": "Point", "coordinates": [ 137.223751115155181, 37.299243498909902 ] } },
{ "type": "Feature", "properties": { "P29_001": "17463", "P29_002": "B117246300039", "P29_003": "16001", "P29_004": "能登町立松波小学校", "P29_005": "石川県鳳珠郡能登町松波15-80", "P29_006": "3", "P29_007": "1", "P29_008": "00", "P29_009": null }, "geometry": { "type": "Point", "coordinates": [ 137.244832551781855, 37.349722497885516 ] } },
{ "type": "Feature", "properties": { "P29_001": "17463", "P29_002": "B117246300048", "P29_003": "16001", "P29_004": "能登町立鵜川小学校", "P29_005": "石川県鳳珠郡能登町字鵜川25-28", "P29_006": "3", "P29_007": "1", "P29_008": "00", "P29_009": null }, "geometry": { "type": "Point", "coordinates": [ 137.08290939758831, 37.257149976890922 ] } },
{ "type": "Feature", "properties": { "P29_001": "17463", "P29_002": "B117246300057", "P29_003": "16001", "P29_004": "能登町立宇出津小学校", "P29_005": "石川県鳳珠郡能登町宇出津ム字1", "P29_006": "3", "P29_007": "1", "P29_008": "00", "P29_009": null }, "geometry": { "type": "Point", "coordinates": [ 137.14628899999687, 37.306547217320677 ] } },
{ "type": "Feature", "properties": { "P29_001": "17201", "P29_002": "B117320100016", "P29_003": "16001", "P29_004": "北陸学院小学校", "P29_005": "石川県金沢市三小牛町イ11", "P29_006": "4", "P29_007": "1", "P29_008": "00", "P29_009": null }, "geometry": { "type": "Point", "coordinates": [ 136.672046720610922, 36.518062552096985 ] } }
]
}
