{
"type": "FeatureCollection",
"name": "geo_17_訪問リハビリテーション",
"crs": { "type": "name", "properties": { "name": "urn:ogc:def:crs:OGC:1.3:CRS84" } },
"features": [
{ "type": "Feature", "properties": { "内容": "国家公務員共済組合連合会北陸病院【訪問リハビリテーション】石川県金沢市泉が丘2丁目13番43号", "url2": "https://www.kaigokensaku.mhlw.go.jp/17/index.php?action_kouhyou_detail_004_kani=true&JigyosyoCd=1710111145-00&ServiceCd=140&Type=search" }, "geometry": { "type": "Point", "coordinates": [ 136.64481330000001, 36.5423608 ] } },
{ "type": "Feature", "properties": { "内容": "整形外科米澤病院【訪問リハビリテーション】石川県金沢市京町1番30号", "url2": "https://www.kaigokensaku.mhlw.go.jp/17/index.php?action_kouhyou_detail_004_kani=true&JigyosyoCd=1710115591-00&ServiceCd=140&Type=search" }, "geometry": { "type": "Point", "coordinates": [ 136.6557497, 36.5808324 ] } },
{ "type": "Feature", "properties": { "内容": "かがやきクリニック【訪問リハビリテーション】石川県金沢市疋田1丁目213番地", "url2": "https://www.kaigokensaku.mhlw.go.jp/17/index.php?action_kouhyou_detail_004_kani=true&JigyosyoCd=1710122209-00&ServiceCd=140&Type=search" }, "geometry": { "type": "Point", "coordinates": [ 136.6734797, 36.602763 ] } },
{ "type": "Feature", "properties": { "内容": "恵寿訪問リハビリテーション事業所「けいじゅ金沢」【訪問リハビリテーション】石川県金沢市下新町6番26号", "url2": "https://www.kaigokensaku.mhlw.go.jp/17/index.php?action_kouhyou_detail_004_kani=true&JigyosyoCd=1710121169-00&ServiceCd=140&Type=search" }, "geometry": { "type": "Point", "coordinates": [ 136.662804300000062, 36.5721546 ] } },
{ "type": "Feature", "properties": { "内容": "医療法人社団浅ノ川千木病院【訪問リハビリテーション】金沢市千木町へ33番地1", "url2": "https://www.kaigokensaku.mhlw.go.jp/17/index.php?action_kouhyou_detail_004_kani=true&JigyosyoCd=1710118249-00&ServiceCd=140&Type=search" }, "geometry": { "type": "Point", "coordinates": [ 136.672943700000019, 36.6112133 ] } },
{ "type": "Feature", "properties": { "内容": "城北クリニック【訪問リハビリテーション】石川県金沢市京町20番50号", "url2": "https://www.kaigokensaku.mhlw.go.jp/17/index.php?action_kouhyou_detail_004_kani=true&JigyosyoCd=1710117688-00&ServiceCd=140&Type=search" }, "geometry": { "type": "Point", "coordinates": [ 136.656426600000032, 36.5829169 ] } },
{ "type": "Feature", "properties": { "内容": "訪問リハビリ事業所　伊藤病院（みなし）【訪問リハビリテーション】十三間町９８番地新館２階", "url2": "https://www.kaigokensaku.mhlw.go.jp/17/index.php?action_kouhyou_detail_004_kani=true&JigyosyoCd=1710121425-00&ServiceCd=140&Type=search" }, "geometry": { "type": "Point", "coordinates": [ 136.652056, 36.5570392 ] } },
{ "type": "Feature", "properties": { "内容": "金沢春日ケアセンター【訪問リハビリテーション】金沢市元菊町20番1号", "url2": "https://www.kaigokensaku.mhlw.go.jp/17/index.php?action_kouhyou_detail_004_kani=true&JigyosyoCd=1750180018-00&ServiceCd=140&Type=search" }, "geometry": { "type": "Point", "coordinates": [ 136.642261100000042, 36.573679 ] } },
{ "type": "Feature", "properties": { "内容": "医療法人社団竜山会金沢古府記念病院訪問リハビリテーション【訪問リハビリテーション】石川県金沢市古府１丁目１５０番地", "url2": "https://www.kaigokensaku.mhlw.go.jp/17/index.php?action_kouhyou_detail_004_kani=true&JigyosyoCd=1710122324-00&ServiceCd=140&Type=search" }, "geometry": { "type": "Point", "coordinates": [ 136.6075988, 36.5641339 ] } },
{ "type": "Feature", "properties": { "内容": "安田内科病院【訪問リハビリテーション】石川県金沢市大豆田本町ハ62番地", "url2": "https://www.kaigokensaku.mhlw.go.jp/17/index.php?action_kouhyou_detail_004_kani=true&JigyosyoCd=1710117167-00&ServiceCd=140&Type=search" }, "geometry": { "type": "Point", "coordinates": [ 136.631925799999976, 36.5687044 ] } },
{ "type": "Feature", "properties": { "内容": "石川県済生会金沢病院　訪問リハビリステーション【訪問リハビリテーション】石川県金沢市赤土町ニ13番地6", "url2": "https://www.kaigokensaku.mhlw.go.jp/17/index.php?action_kouhyou_detail_004_kani=true&JigyosyoCd=1710117068-00&ServiceCd=140&Type=search" }, "geometry": { "type": "Point", "coordinates": [ 136.5957995, 36.5828755 ] } },
{ "type": "Feature", "properties": { "内容": "やまと＠ホームクリニック【訪問リハビリテーション】石川県金沢市西泉2丁目1", "url2": "https://www.kaigokensaku.mhlw.go.jp/17/index.php?action_kouhyou_detail_004_kani=true&JigyosyoCd=1710121789-00&ServiceCd=140&Type=search" }, "geometry": { "type": "Point", "coordinates": [ 136.631833167459064, 36.546039960875682 ] } },
{ "type": "Feature", "properties": { "内容": "医療法人社団和泉会　さはらファミリークリニック【訪問リハビリテーション】石川県七尾市石崎町タ部13番地1", "url2": "https://www.kaigokensaku.mhlw.go.jp/17/index.php?action_kouhyou_detail_004_kani=true&JigyosyoCd=1710211150-00&ServiceCd=140&Type=search" }, "geometry": { "type": "Point", "coordinates": [ 136.923608300000012, 37.0748283 ] } },
{ "type": "Feature", "properties": { "内容": "えんやま健康クリニック【訪問リハビリテーション】七尾市千野町に部１０番地", "url2": "https://www.kaigokensaku.mhlw.go.jp/17/index.php?action_kouhyou_detail_004_kani=true&JigyosyoCd=1710210913-00&ServiceCd=140&Type=search" }, "geometry": { "type": "Point", "coordinates": [ 136.953071624606338, 37.017107386187526 ] } },
{ "type": "Feature", "properties": { "内容": "訪問リハビリステーション　　恵寿【訪問リハビリテーション】石川県七尾市富岡町95番地", "url2": "https://www.kaigokensaku.mhlw.go.jp/17/index.php?action_kouhyou_detail_004_kani=true&JigyosyoCd=1710210319-00&ServiceCd=140&Type=search" }, "geometry": { "type": "Point", "coordinates": [ 136.960547818910186, 37.050820725497829 ] } },
{ "type": "Feature", "properties": { "内容": "浜野訪問リハビリ【訪問リハビリテーション】石川県七尾市津向町野中20番1", "url2": "https://www.kaigokensaku.mhlw.go.jp/17/index.php?action_kouhyou_detail_004_kani=true&JigyosyoCd=17B0210945-00&ServiceCd=140&Type=search" }, "geometry": { "type": "Point", "coordinates": [ 136.9546776, 37.0632446 ] } },
{ "type": "Feature", "properties": { "内容": "介護老人保健施設レイクサイド木場【訪問リハビリテーション】石川県小松市三谷町そ80番地", "url2": "https://www.kaigokensaku.mhlw.go.jp/17/index.php?action_kouhyou_detail_004_kani=true&JigyosyoCd=1750380345-00&ServiceCd=140&Type=search" }, "geometry": { "type": "Point", "coordinates": [ 136.4538854, 36.3688861 ] } },
{ "type": "Feature", "properties": { "内容": "森田病院【訪問リハビリテーション】石川県小松市園町ホ99番地1", "url2": "https://www.kaigokensaku.mhlw.go.jp/17/index.php?action_kouhyou_detail_004_kani=true&JigyosyoCd=1710311562-00&ServiceCd=140&Type=search" }, "geometry": { "type": "Point", "coordinates": [ 136.460411499999964, 36.408197 ] } },
{ "type": "Feature", "properties": { "内容": "医療法人社団　仁志会【訪問リハビリテーション】小松市上小松町丙41-1", "url2": "https://www.kaigokensaku.mhlw.go.jp/17/index.php?action_kouhyou_detail_004_kani=true&JigyosyoCd=1710312156-00&ServiceCd=140&Type=search" }, "geometry": { "type": "Point", "coordinates": [ 136.46467240000004, 36.4080918 ] } },
{ "type": "Feature", "properties": { "内容": "小松ソフィア病院【訪問リハビリテーション】石川県小松市沖町478番地", "url2": "https://www.kaigokensaku.mhlw.go.jp/17/index.php?action_kouhyou_detail_004_kani=true&JigyosyoCd=1710312230-00&ServiceCd=140&Type=search" }, "geometry": { "type": "Point", "coordinates": [ 136.46405070000003, 36.396302 ] } },
{ "type": "Feature", "properties": { "内容": "介護老人保健施設　グリーン・ポート小松【訪問リハビリテーション】石川県小松市岩渕町46-2", "url2": "https://www.kaigokensaku.mhlw.go.jp/17/index.php?action_kouhyou_detail_004_kani=true&JigyosyoCd=1750380204-00&ServiceCd=140&Type=search" }, "geometry": { "type": "Point", "coordinates": [ 136.526821300000023, 36.3912699 ] } },
{ "type": "Feature", "properties": { "内容": "輪島診療所　訪問リハビリテーション【訪問リハビリテーション】石川県輪島市堀町1字13番2", "url2": "https://www.kaigokensaku.mhlw.go.jp/17/index.php?action_kouhyou_detail_004_kani=true&JigyosyoCd=1710410380-00&ServiceCd=140&Type=search" }, "geometry": { "type": "Point", "coordinates": [ 136.8925156, 37.3959294 ] } },
{ "type": "Feature", "properties": { "内容": "ごちゃまるクリニック【訪問リハビリテーション】石川県輪島市河井町２３−１−１５０", "url2": "https://www.kaigokensaku.mhlw.go.jp/17/index.php?action_kouhyou_detail_004_kani=true&JigyosyoCd=1710410679-00&ServiceCd=140&Type=search" }, "geometry": { "type": "Point", "coordinates": [ 136.901154100000014, 37.3922871 ] } },
{ "type": "Feature", "properties": { "内容": "市立輪島病院【訪問リハビリテーション】輪島市山岸町は1番1地", "url2": "https://www.kaigokensaku.mhlw.go.jp/17/index.php?action_kouhyou_detail_004_kani=true&JigyosyoCd=1710410513-00&ServiceCd=140&Type=search" }, "geometry": { "type": "Point", "coordinates": [ 136.908620299999939, 37.3820247 ] } },
{ "type": "Feature", "properties": { "内容": "珠洲市総合病院指定訪問リハビリテーション事業所【訪問リハビリテーション】石川県珠洲市野々江町ユ部1番地1", "url2": "https://www.kaigokensaku.mhlw.go.jp/17/index.php?action_kouhyou_detail_004_kani=true&JigyosyoCd=1710510361-00&ServiceCd=140&Type=search" }, "geometry": { "type": "Point", "coordinates": [ 137.270693167272952, 37.443298488183792 ] } },
{ "type": "Feature", "properties": { "内容": "公立羽咋病院【訪問リハビリテーション】石川県羽咋市的場町松崎２４番地", "url2": "https://www.kaigokensaku.mhlw.go.jp/17/index.php?action_kouhyou_detail_004_kani=true&JigyosyoCd=1710710292-00&ServiceCd=140&Type=search" }, "geometry": { "type": "Point", "coordinates": [ 136.779967899999974, 36.9010893 ] } },
{ "type": "Feature", "properties": { "内容": "羽咋診療所　訪問リハビリテーション【訪問リハビリテーション】羽咋市柳橋町堂田53-1", "url2": "https://www.kaigokensaku.mhlw.go.jp/17/index.php?action_kouhyou_detail_004_kani=true&JigyosyoCd=1710710342-00&ServiceCd=140&Type=search" }, "geometry": { "type": "Point", "coordinates": [ 136.786426099999971, 36.8928044 ] } },
{ "type": "Feature", "properties": { "内容": "公立つるぎ病院【訪問リハビリテーション】石川県白山市鶴来水戸町ノ１番地", "url2": "https://www.kaigokensaku.mhlw.go.jp/17/index.php?action_kouhyou_detail_004_kani=true&JigyosyoCd=1712210614-00&ServiceCd=140&Type=search" }, "geometry": { "type": "Point", "coordinates": [ 136.623731600000042, 36.4472426 ] } },
{ "type": "Feature", "properties": { "内容": "白峰診療所【訪問リハビリテーション】石川県白山市白峰ハ１５７番１地", "url2": "https://www.kaigokensaku.mhlw.go.jp/17/index.php?action_kouhyou_detail_004_kani=true&JigyosyoCd=1712210804-00&ServiceCd=140&Type=search" }, "geometry": { "type": "Point", "coordinates": [ 136.624323846418719, 36.176465405886177 ] } },
{ "type": "Feature", "properties": { "内容": "医療法人社団　新村病院【訪問リハビリテーション】石川県白山市月橋町722-12", "url2": "https://www.kaigokensaku.mhlw.go.jp/17/index.php?action_kouhyou_detail_004_kani=true&JigyosyoCd=1712210556-00&ServiceCd=140&Type=search" }, "geometry": { "type": "Point", "coordinates": [ 136.617957, 36.4553996 ] } },
{ "type": "Feature", "properties": { "内容": "吉野谷診療所【訪問リハビリテーション】石川県白山市佐良ニ124番地", "url2": "https://www.kaigokensaku.mhlw.go.jp/17/index.php?action_kouhyou_detail_004_kani=true&JigyosyoCd=1712210812-00&ServiceCd=140&Type=search" }, "geometry": { "type": "Point", "coordinates": [ 136.646654799999965, 36.3241615 ] } },
{ "type": "Feature", "properties": { "内容": "介護老人保健施設　手取の里【訪問リハビリテーション】寺井町ウ84", "url2": "https://www.kaigokensaku.mhlw.go.jp/17/index.php?action_kouhyou_detail_004_kani=true&JigyosyoCd=1752380301-00&ServiceCd=140&Type=search" }, "geometry": { "type": "Point", "coordinates": [ 136.4892059, 36.4382106 ] } },
{ "type": "Feature", "properties": { "内容": "もりした通所・訪問リハビリテーション　すたあと【訪問リハビリテーション】能美市辰口町655-1", "url2": "https://www.kaigokensaku.mhlw.go.jp/17/index.php?action_kouhyou_detail_004_kani=true&JigyosyoCd=1712310299-00&ServiceCd=140&Type=search" }, "geometry": { "type": "Point", "coordinates": [ 136.544952380287242, 36.442834108195107 ] } },
{ "type": "Feature", "properties": { "内容": "南ヶ丘病院訪問リハビリテーション【訪問リハビリテーション】石川県野々市市西部中央土地区画整理事業施行地区56街区1番", "url2": "https://www.kaigokensaku.mhlw.go.jp/17/index.php?action_kouhyou_detail_004_kani=true&JigyosyoCd=1711311686-00&ServiceCd=140&Type=search" }, "geometry": { "type": "Point", "coordinates": [ 136.600647, 36.526923 ] } },
{ "type": "Feature", "properties": { "内容": "公立河北中央病院　訪問リハビリテーション　つばさ【訪問リハビリテーション】石川県河北郡津幡町字津幡ロ51番地2", "url2": "https://www.kaigokensaku.mhlw.go.jp/17/index.php?action_kouhyou_detail_004_kani=true&JigyosyoCd=1711410165-00&ServiceCd=140&Type=search" }, "geometry": { "type": "Point", "coordinates": [ 136.736432808381068, 36.670288077434051 ] } },
{ "type": "Feature", "properties": { "内容": "介護老人保健施設ふぃらーじゅ訪問リハビリテーション【訪問リハビリテーション】石川県河北郡津幡町字東荒屋354番地", "url2": "https://www.kaigokensaku.mhlw.go.jp/17/index.php?action_kouhyou_detail_004_kani=true&JigyosyoCd=1751480516-00&ServiceCd=140&Type=search" }, "geometry": { "type": "Point", "coordinates": [ 136.751213399999983, 36.6639414 ] } },
{ "type": "Feature", "properties": { "内容": "さとうクリニック【訪問リハビリテーション】石川県河北郡内灘町ハマナス2丁目38ノーブルハイツ2　1D", "url2": "https://www.kaigokensaku.mhlw.go.jp/17/index.php?action_kouhyou_detail_004_kani=true&JigyosyoCd=1711411320-00&ServiceCd=140&Type=search" }, "geometry": { "type": "Point", "coordinates": [ 136.642368199999964, 36.655135 ] } },
{ "type": "Feature", "properties": { "内容": "町立富来病院【訪問リハビリテーション】石川県羽咋郡志賀町富来地頭町7-110-1", "url2": "https://www.kaigokensaku.mhlw.go.jp/17/index.php?action_kouhyou_detail_004_kani=true&JigyosyoCd=1711510485-00&ServiceCd=140&Type=search" }, "geometry": { "type": "Point", "coordinates": [ 136.729363, 37.1373803 ] } },
{ "type": "Feature", "properties": { "内容": "町立宝達志水病院【訪問リハビリテーション】石川県羽咋郡宝達志水町子浦ロ１１番地１", "url2": "https://www.kaigokensaku.mhlw.go.jp/17/index.php?action_kouhyou_detail_004_kani=true&JigyosyoCd=1711510568-00&ServiceCd=140&Type=search" }, "geometry": { "type": "Point", "coordinates": [ 136.794945900000016, 36.8669224 ] } },
{ "type": "Feature", "properties": { "内容": "公立穴水総合病院【訪問リハビリテーション】石川県鳳珠郡穴水町字川島タの8番地", "url2": "https://www.kaigokensaku.mhlw.go.jp/17/index.php?action_kouhyou_detail_004_kani=true&JigyosyoCd=1711710176-00&ServiceCd=140&Type=search" }, "geometry": { "type": "Point", "coordinates": [ 136.91247450000003, 37.230995 ] } },
{ "type": "Feature", "properties": { "内容": "公立宇出津総合病院【訪問リハビリテーション】石川県鳳珠郡能登町字宇出津タ字97番地", "url2": "https://www.kaigokensaku.mhlw.go.jp/17/index.php?action_kouhyou_detail_004_kani=true&JigyosyoCd=1711710606-00&ServiceCd=140&Type=search" }, "geometry": { "type": "Point", "coordinates": [ 137.1469831, 37.308474 ] } }
]
}
